,TIPO,NOMBRE,DIRECCION,DESCRIPCION,LATITUD,LONGITUD
0,Salas espectaculos,DT Espacio Escénico,CALLE REINA 9.0,Teatros,40.42040457289982,-3.700283103997518
1,Salas espectaculos,El Pasillo Verde Teatro,PASEO ESPERANZA 23.0,Teatros,40.40085850941741,-3.704147130970605
2,Salas espectaculos,El umbral de la primavera,CALLE PRIMAVERA 11.0,Teatros,40.40952998024258,-3.700394299299595
3,Salas espectaculos,Fernán Gómez Centro Cultural de la Villa,PLAZA COLON 4.0,Teatros,40.4249721516942,-3.689948085098791
4,Salas espectaculos,Microteatro Por Dinero,CALLE LORETO Y CHICOTE 9.0,Teatros,40.42152574011699,-3.704066823193944
5,Salas espectaculos,Naves Español en Matadero,PASEO CHOPERA 14.0,Teatros,40.39245798191536,-3.6972067902718897
6,Salas espectaculos,Nuevo Teatro Alcalá,CALLE JORGE JUAN 62.0,Teatros,40.42340075550414,-3.678258596986864
7,Salas espectaculos,Off Latina,CALLE MANCEBOS 4.0,Teatros,40.41204479812585,-3.711982569899289
8,Salas espectaculos,Pequeño Teatro Gran Vía,CALLE GRAN VIA 66.0,Teatros,40.42240577324947,-3.708956206688234
9,Salas espectaculos,Real Teatro de Retiro. Centro Cultural Daoíz y Velarde,PLAZA DAOIZ Y VELARDE 4.0,Teatros,40.40180567689773,-3.6771876805396864
10,Salas espectaculos,Sala Arapiles 16,CALLE ARAPILES 16.0,Teatros,40.43312718155775,-3.708159572592643
11,Salas espectaculos,Sala de Teatro La Escalera de Jacob,CALLE LAVAPIES 9.0,Teatros,40.41133761512936,-3.7028377820426464
12,Salas espectaculos,Sala de teatro. La Usina,CALLE PALOS DE LA FRONTERA 4.0,Teatros,40.402621678076535,-3.7001223561771193
13,Salas espectaculos,Sala Nave 73,CALLE PALOS DE LA FRONTERA 5.0,Teatros,40.40316180456706,-3.6987020172137433
14,Salas espectaculos,Sala Teatro Azarte,CALLE SAN MARCOS 19.0,Teatros,40.42140719770071,-3.698360306512048
15,Salas espectaculos,Soho Club Teatro,PLAZA ESPAÑA 6.0,Teatros,40.4225784750317,-3.711936020558947
16,Salas espectaculos,Sojo Laboratorio Teatral.,CALLE SAN ISIDORO DE SEVILLA 2.0,Teatros,40.40454329855034,-3.712165150683624
17,Salas espectaculos,Tablao Cafetín La Quimera,CALLE CUCHILLEROS 7.0,Teatros,40.41455139884737,-3.7079639628064585
18,Salas espectaculos,Tablao Flamenco 1911,PLAZA SANTA ANA 15.0,Teatros,40.414922971596944,-3.701424270015707
19,Salas espectaculos,Tablao Flamenco Café Ziryab,PASEO ESPERANZA 17.0,Teatros,40.4022488504113,-3.705138659259797
20,Salas espectaculos,Tablao Flamenco Cardamomo,CALLE ECHEGARAY 15.0,Teatros,40.415463057589214,-3.699548238936712
21,Salas espectaculos,Tablao Flamenco Corral de la Morería,CALLE MORERIA 17.0,Teatros,40.412706403145705,-3.7142642886799
22,Salas espectaculos,Tablao Flamenco Corral de la Pacheca,CALLE ALCALA 237.0,Teatros,40.431581087036655,-3.662863216771023
23,Salas espectaculos,Tablao flamenco de la Villa,CALLE TORIJA 7.0,Teatros,40.42074803731289,-3.7104358351726
24,Salas espectaculos,Tablao Flamenco El Lucero,CALLE MARQUES DE CUBAS 25.0,Teatros,40.41626690688702,-3.6957342044022425
25,Salas espectaculos,Tablao Flamenco La Carmela,CALLE VICTORIA 4.0,Teatros,40.41630783060771,-3.701737920263045
26,Salas espectaculos,Tablao Flamenco Torero,CALLE CRUZ 26.0,Teatros,40.41491309678971,-3.70269441327852
27,Salas espectaculos,Tablao Flamenco Torres Bermejas,CALLE MESONERO ROMANOS 11.0,Teatros,40.419885409942566,-3.7041793844860695
28,Salas espectaculos,Teatro Alfil,CALLE PEZ 10.0,Teatros,40.4231448936827,-3.704472711431984
29,Salas espectaculos,Teatro Amaya,PASEO GENERAL MARTINEZ CAMPOS 9.0,Teatros,40.43513498732234,-3.697193610846834
30,Salas espectaculos,Teatro Arlequín Gran Vía,CALLE SAN BERNARDO 5.0,Teatros,40.421022372676056,-3.708305147545997
31,Salas espectaculos,Teatro Bellas Artes,CALLE MARQUES DE CASA RIERA 2.0,Teatros,40.41833781596964,-3.6964190351426174
32,Salas espectaculos,Teatro Calderón,CALLE ATOCHA 18.0,Teatros,40.41396242769233,-3.703363300804268
33,Salas espectaculos,Teatro Capitol Gran Vía,CALLE GRAN VIA 41.0,Teatros,40.42044662928379,-3.706582132732834
34,Salas espectaculos,Teatro Circo Price,RONDA ATOCHA 35.0,Teatros,40.40596936645757,-3.698589986849812
35,Salas espectaculos,Teatro Cofidis Alcázar,CALLE ALCALA 20.0,Teatros,40.41780142775861,-3.699048171807146
36,Salas espectaculos,Teatro Coliseum,CALLE GRAN VIA 78.0,Teatros,40.422131603573256,-3.7036959273154326
37,Salas espectaculos,Teatro Corral de Cervantes,PASEO CHOPERA 10.0,Teatros,40.39307289237465,-3.699005654074825
38,Salas espectaculos,Teatro de la Abadía,CALLE FERNANDEZ DE LOS RIOS 42.0,Teatros,40.43522406333126,-3.709208726699302
39,Salas espectaculos,Teatro de la Comedia. Compañía Nacional de Teatro Clásico,CALLE PRÍNCIPE 14.0,Teatros,40.41566504361928,-3.7004107649636144
40,Salas espectaculos,Teatro de la Escuela,CALLE PALMA 18.0,Teatros,40.42628172562985,-3.703059098855893
41,Salas espectaculos,Teatro de la Zarzuela,CALLE JOVELLANOS 4.0,Teatros,40.4171909688133,-3.69686690418468
42,Salas espectaculos,Teatro de las Aguas,CALLE DE LAS AGUAS 8.0,Teatros,40.422131603573256,-3.7036959273154326
43,Salas espectaculos,Teatro del Barrio,CALLE ZURITA 20.0,Teatros,40.409681819217646,-3.699123015201178
44,Salas espectaculos,Teatro EDP Gran Vía,CALLE GRAN VIA 66.0,Teatros,40.42240577324947,-3.708956206688234
45,Salas espectaculos,Teatro Español,CALLE PRINCIPE 25.0,Teatros,40.41482853224095,-3.700164949543688
46,Salas espectaculos,Teatro Estudio 2 Manuel Galiana,CALLE MORATINES 11.0,Teatros,40.40321881564558,-3.702674015748743
47,Salas espectaculos,Teatro Fígaro - Adolfo Marsillach,CALLE DOCTOR CORTEZO 5.0,Teatros,40.41345601671212,-3.703676260061599
48,Salas espectaculos,Teatro Infanta Isabel,CALLE BARQUILLO 24.0,Teatros,40.42221671356561,-3.6955867306586354
49,Salas espectaculos,Teatro Karpas,CALLE SANTA ISABEL 19.0,Teatros,40.41045615490087,-3.6977049393895824
50,Salas espectaculos,Teatro La Corsetería - NTF,CALLE CABEZA 8.0,Teatros,40.411745481650485,-3.703481650678806
51,Salas espectaculos,Teatro La Encina,CALLE ERCILLA 15.0,Teatros,40.40292067588232,-3.7028123300797953
52,Salas espectaculos,Teatro la Latina,PLAZA CEBADA 2.0,Teatros,40.411397795053,-3.708781739576842
53,Salas espectaculos,Teatro La Sala,CALLE PALOS DE LA FRONTERA 3.0,Teatros,40.40309417359402,-3.6989842711202656
54,Salas espectaculos,Teatro Lagrada,CALLE ERCILLA 20.0,Teatros,40.40268595360097,-3.70289238039068
55,Salas espectaculos,Teatro Lara,CALLE CORREDERA BAJA DE SAN PABLO 15.0,Teatros,40.42208196713365,-3.704449834829029
56,Salas espectaculos,Teatro Lope de Vega,CALLE GRAN VÍA 57.0,Teatros,40.42189272510087,-3.7088800933302783
57,Salas espectaculos,Teatro Maravillas,CALLE MANUELA MALASAÑA 6.0,Teatros,40.4286757607178,-3.703103946758172
58,Salas espectaculos,Teatro Marquina,CALLE PRIM 11.0,Teatros,40.42195750772574,-3.693745153154264
59,Salas espectaculos,Teatro María Guerrero.,CALLE TAMAYO Y BAUS 4.0,Teatros,40.42288948179915,-3.693071021887218
60,Salas espectaculos,Teatro Monumental,CALLE ATOCHA 65.0,Teatros,40.41248873703834,-3.699161734460963
61,Salas espectaculos,Teatro Multiespacio La Strada,CALLE MAGALLANES 23.0,Teatros,40.435354235764464,-3.705754037741118
62,Salas espectaculos,Teatro Municipal de Títeres. Parque de El Retiro,AVENIDA MÉXICO 4.0,Teatros,40.41878362561595,-3.6866519471003647
63,Salas espectaculos,Teatro Muñoz Seca,PLAZA CARMEN 1.0,Teatros,40.41840439358014,-3.703279899159383
64,Salas espectaculos,Teatro Nuev9 Norte,CALLE NORTE 9.0,Teatros,40.4260176028424,-3.70761486653819
65,Salas espectaculos,Teatro Nuevo Apolo,PLAZA TIRSO DE MOLINA 1.0,Teatros,40.41234075831118,-3.703369987899476
66,Salas espectaculos,Teatro Pavón,CALLE EMBAJADORES 9.0,Teatros,40.41002883652138,-3.706199496442089
67,Salas espectaculos,Teatro Príncipe Gran Vía,CALLE TRES CRUCES 8.0,Teatros,40.41941656735497,-3.702760005318704
68,Salas espectaculos,Teatro Quique San Francisco,CALLE GALILEO 39.0,Teatros,40.43371945428351,-3.7104468992841753
69,Salas espectaculos,Teatro Reina Victoria,CARRERA SAN JERONIMO 24.0,Teatros,40.41651548060074,-3.699818451104129
70,Salas espectaculos,Teatro Rialto,CALLE GRAN VIA 54.0,Teatros,40.42138841205714,-3.707377753413243
71,Salas espectaculos,Teatro Sala Cuarta Pared,CALLE ERCILLA 17.0,Teatros,40.402777112937486,-3.702716560812772
72,Salas espectaculos,Teatro Sala Mirador,CALLE DOCTOR FOURQUET 31.0,Teatros,40.40706813699774,-3.6988988076525446
73,Salas espectaculos,Teatro Tribueñe,CALLE SANCHO DAVILA 31.0,Teatros,40.425569368259886,-3.661599639903205
74,Salas espectaculos,Teatro Valle Inclán. Centro Drámatico Nacional,CALLE VALENCIA 1.0,Teatros,40.40800690285846,-3.7004845788684912
75,Salas espectaculos,Teatro Victoria,CALLE PEZ 17.0,Teatros,40.42378660181596,-3.705611071847053
76,Salas espectaculos,Teatros del Canal,CALLE CEA BERMUDEZ 1.0,Teatros,40.43854675141601,-3.705057921443053
77,Salas espectaculos,Teatros Luchana,CALLE LUCHANA 38.0,Teatros,40.43193980366074,-3.698186306223295
78,Salas espectaculos,Teatro. Artespacio Plot Point,CALLE ERCILLA 29.0,Teatros,40.40192531437177,-3.7020477784084793
79,Salas espectaculos,Teatro. Bululú 2120,CALLE CANARIAS 16.0,Teatros,40.40195873806236,-3.696521252638884
80,Salas espectaculos,Teatro. Mínima espacio escénico,CALLE MALLORCA 4.0,Teatros,40.40704888094098,-3.698011525994152
81,Salas espectaculos,Teseo Teatro,RONDA SEGOVIA 61.0,Teatros,40.40848902977015,-3.7159050283874873
82,Salas espectaculos,Theatre for the people,PLAZA CARLOS CAMBRONERO 5.0,Teatros,40.42313947499592,-3.703883251330829
83,Salas espectaculos,Cine Artistic Metropol,CALLE CIGARRERAS 6.0,CinesFilmotecas,40.40488744133082,-3.7074402109488234
84,Salas espectaculos,Cine Capitol Gran Vía,CALLE GRAN VIA 41.0,CinesFilmotecas,40.42044662928379,-3.706582132732834
85,Salas espectaculos,Cine Cinesa Méndez Álvaro,CALLE ACANTO 2.0,CinesFilmotecas,40.396541482879385,-3.675556779491976
86,Salas espectaculos,Cine Cinesa Proyecciones,CALLE FUENCARRAL 136.0,CinesFilmotecas,40.431491248346006,-3.703242682577312
87,Salas espectaculos,Cine Estudio Círculo de Bellas Artes,CALLE MARQUES DE CASA RIERA 4.0,CinesFilmotecas,40.41782839104989,-3.696207041222261
88,Salas espectaculos,Cine mk2 Paz,CALLE FUENCARRAL 125.0,CinesFilmotecas,40.4308674226062,-3.703382726546904
89,Salas espectaculos,Cine Palacio de la Prensa,PLAZA CALLAO 4.0,CinesFilmotecas,40.41985083351601,-3.705509837957632
90,Salas espectaculos,Cine Renoir Retiro,CALLE NARVAEZ 42.0,CinesFilmotecas,40.42008429895522,-3.6763016832755295
91,Salas espectaculos,Cine Sala Berlanga,CALLE ANDRES MELLADO 53.0,CinesFilmotecas,40.43593121735638,-3.714414978591487
92,Salas espectaculos,Cine Verdi,CALLE BRAVO MURILLO 28.0,CinesFilmotecas,40.4366394181734,-3.7040768464753553
93,Salas espectaculos,Cine Yelmo Luxury Palafox,CALLE LUCHANA 15.0,CinesFilmotecas,40.430081135559696,-3.70090220334248
94,Salas espectaculos,Cines Callao,PLAZA CALLAO 3.0,CinesFilmotecas,40.42001814188945,-3.705478580707271
95,Salas espectaculos,Cines Embajadores,GLORIETA SANTA MARIA DE LA CABEZA 5.0,CinesFilmotecas,40.40070476221974,-3.698541454850656
96,Salas espectaculos,Cineteca Madrid,PLAZA LEGAZPI 8.0,CinesFilmotecas,40.39130985242181,-3.695802844205408
97,Salas espectaculos,Filmoteca Española. Cine Doré,CALLE SANTA ISABEL 3.0,CinesFilmotecas,40.411807323876616,-3.69922751452095
98,Salas espectaculos,Odeón Multicines Alcalá Norte,CALLE ALCALA 414.0,CinesFilmotecas,40.417217086707446,-3.702246784024105
99,Salas espectaculos,Pequeño Cine Estudio,CALLE MAGALLANES 1.0,CinesFilmotecas,40.43245465882511,-3.705374393133892
100,Salas espectaculos,Yelmo Cines Ideal,CALLE DOCTOR CORTEZO 6.0,CinesFilmotecas,40.41381195334125,-3.703799959506574
101,Salas espectaculos,Auditorio al aire libre. Parque Enrique Tierno Galván,AVENIDA PLANETARIO 18.0,AuditoriosSalasConcierto,40.390944081814816,-3.685391155439898
102,Salas espectaculos,Auditorio de la Plaza de Chamberí - Templete,PLAZA CHAMBERI 12.0,AuditoriosSalasConcierto,40.43266432328108,-3.697557153998127
103,Salas espectaculos,Café Berlín,COSTANILLA ANGELES 20.0,AuditoriosSalasConcierto,40.41958857138475,-3.7079430927433954
104,Salas espectaculos,Café Central,PLAZA ANGEL 10.0,AuditoriosSalasConcierto,40.414178504157086,-3.701904023779484
105,Salas espectaculos,Café La Palma,CALLE PALMA 62.0,AuditoriosSalasConcierto,40.42678043394236,-3.708094409489715
106,Salas espectaculos,Independance Club,CALLE ATOCHA 127.0,AuditoriosSalasConcierto,40.40963069733981,-3.6928774759221272
107,Salas espectaculos,Sala Barracudas,CALLE BRESCIA 19.0,AuditoriosSalasConcierto,40.43672107982399,-3.662331952698921
108,Salas espectaculos,Sala Beer Station,CUESTA SANTO DOMINGO 22.0,AuditoriosSalasConcierto,40.41971799907849,-3.7084630982794464
109,Salas espectaculos,Sala Big Mama Ballroom,CALLE BERNARDINO OBREGON 3.0,AuditoriosSalasConcierto,40.40425285132008,-3.6999784000568807
110,Salas espectaculos,Sala Bule Bule,CALLE MARQUES DE VALDEIGLESIAS 6.0,AuditoriosSalasConcierto,40.41963173758756,-3.6970581797174273
111,Salas espectaculos,Sala Búho Real,PASEO GENERAL MARTINEZ CAMPOS 14.0,AuditoriosSalasConcierto,40.43487749572997,-3.696810843113834
112,Salas espectaculos,Sala Cadavra Club,CALLE CABALLERO DE GRACIA 10.0,AuditoriosSalasConcierto,40.41944182044671,-3.700799788807606
113,Salas espectaculos,Sala Cardamomo,CALLE ECHEGARAY 15.0,AuditoriosSalasConcierto,40.41546754063365,-3.6995403937914704
114,Salas espectaculos,Sala Cien por Cien,CALLE SANTISIMA TRINIDAD 30.0,AuditoriosSalasConcierto,40.43783445654716,-3.700994506227161
115,Salas espectaculos,Sala Clamores,CALLE ALBURQUERQUE 14.0,AuditoriosSalasConcierto,40.431121286721805,-3.700948365535389
116,Salas espectaculos,Sala Contraclub,CALLE BAILEN 16.0,AuditoriosSalasConcierto,40.41252819937501,-3.71394417661732
117,Salas espectaculos,Sala El Despertar,CALLE TORRECILLA DEL LEAL 18.0,AuditoriosSalasConcierto,40.41084840172144,-3.69951377517164
118,Salas espectaculos,Sala El Intruso,CALLE AUGUSTO FIGUEROA 3.0,AuditoriosSalasConcierto,40.42302865076366,-3.700179827881794
119,Salas espectaculos,Sala El perro de la parte de atrás del coche,CALLE PUEBLA 15.0,AuditoriosSalasConcierto,40.4222576556999,-3.703874418839117
120,Salas espectaculos,Sala El Sol,CALLE JARDINES 3.0,AuditoriosSalasConcierto,40.41896393620347,-3.7016354977769934
121,Salas espectaculos,Sala El Sótano,CALLE MALDONADAS 6.0,AuditoriosSalasConcierto,40.410963258677214,-3.707804845662597
122,Salas espectaculos,Sala Fotomatón,PLAZA CONDE DE TORENO 2.0,AuditoriosSalasConcierto,40.42458980934571,-3.709521523733107
123,Salas espectaculos,Sala Fulanita de tal,CALLE REGUEROS 9.0,AuditoriosSalasConcierto,40.42468328465713,-3.696460198357803
124,Salas espectaculos,Sala Fun House,CALLE PALAFOX 8.0,AuditoriosSalasConcierto,40.43134824139681,-3.701186635650276
125,Salas espectaculos,Sala Galileo Galilei,CALLE GALILEO 100.0,AuditoriosSalasConcierto,40.43853547465896,-3.709844851840886
126,Salas espectaculos,Sala Hangar 48,CALLE BAILEN 24.0,AuditoriosSalasConcierto,40.411376122865256,-3.714064363467543
127,Salas espectaculos,Sala Honky Tonk,CALLE COVARRUBIAS 24.0,AuditoriosSalasConcierto,40.43022268747252,-3.6976519453785786
128,Salas espectaculos,Sala Jazzville,CALLE JESUS APRENDIZ 19.0,AuditoriosSalasConcierto,40.40964834979396,-3.6710672285180186
129,Salas espectaculos,Sala Libertad 8,CALLE LIBERTAD 8.0,AuditoriosSalasConcierto,40.42069989726227,-3.6973340734098006
130,Salas espectaculos,Sala Maravillas,CALLE SAN VICENTE FERRER 33.0,AuditoriosSalasConcierto,40.42576766014132,-3.7043188911922034
131,Salas espectaculos,Sala Morocco,CALLE MARQUES DE LEGANES 7.0,AuditoriosSalasConcierto,40.42208944721562,-3.707330170865411
132,Salas espectaculos,Sala Rock Palace,CALLE VARA DE REY 6.0,AuditoriosSalasConcierto,40.402096733788525,-3.6894789064548985
133,Salas espectaculos,Sala Shoko Live,CALLE TOLEDO 86.0,AuditoriosSalasConcierto,40.408711650639454,-3.710591520837748
134,Salas espectaculos,Sala Siroco,CALLE MARQUES DE LEGANES 7.0,AuditoriosSalasConcierto,40.42208944721562,-3.707330170865411
135,Salas espectaculos,Sala Tempo Audiophile Club,CALLE DUQUE DE OSUNA 8.0,AuditoriosSalasConcierto,40.425297538012565,-3.711910103061732
136,Salas espectaculos,Sala Thundercat,CALLE CAMPOAMOR 11.0,AuditoriosSalasConcierto,40.426223842431455,-3.695739772150343
137,Salas espectaculos,Sala Vesta,CALLE BARQUILLO 29.0,AuditoriosSalasConcierto,40.42296190576902,-3.695655945813078
138,Salas espectaculos,Tablao Flamenco Café Ziryab,PASEO ESPERANZA 17.0,Teatros,40.4022488504113,-3.705138659259797
139,Salas espectaculos,Tablao Flamenco Cardamomo,CALLE ECHEGARAY 15.0,Teatros,40.415463057589214,-3.699548238936712
140,Salas espectaculos,Tablao Flamenco Corral de la Morería,CALLE MORERIA 17.0,Teatros,40.412706403145705,-3.7142642886799
141,Salas espectaculos,Tablao Flamenco Corral de la Pacheca,CALLE ALCALA 237.0,Teatros,40.431581087036655,-3.662863216771023
142,Salas espectaculos,Tablao Flamenco Las Carboneras,CALLE CONDE DE MIRANDA 1.0,AuditoriosSalasConcierto,40.41503559352572,-3.70922019117338
143,Salas espectaculos,Tablao Flamenco Torres Bermejas,CALLE MESONERO ROMANOS 11.0,Teatros,40.419885409942566,-3.7041793844860695
144,Salas espectaculos,Teatro Real,PLAZA ISABEL II 1.0,AuditoriosSalasConcierto,40.41776291784375,-3.70918800795985
145,Salas espectaculos,WiZink Center,CALLE JORGE JUAN 99.0,AuditoriosSalasConcierto,40.4232728637422,-3.672100625564379
