TIPO,NOMBRE,DIRECCION,DESCRIPCION,LATITUD,LONGITUD
FUENTES,FUE_01_0001,"CENTRO, PLAZA COMENDADORAS",PLAZA COMENDADORAS,40.4272429,-3.7086003
FUENTES,FUE_01_0002,"CENTRO, JARDINES CONDE DUQUE",JARDINES CONDE DUQUE,40.4287238,-3.7101008
FUENTES,FUE_01_0003,"CENTRO, PLAZA DE LAS SALESAS",PLAZA DE LAS SALESAS,40.4242464,-3.6946026
FUENTES,FUE_01_0004,"CENTRO, PLAZA VILLA DE PARIS",PLAZA VILLA DE PARIS,40.4252981,-3.6922023
FUENTES,FUE_01_0005,"CENTRO, PLAZA VILLA DE PARIS",PLAZA VILLA DE PARIS,40.4255618,-3.6931763
FUENTES,FUE_01_0006,"CENTRO, PLAZA CRISTINO MARTOS",PLAZA CRISTINO MARTOS,40.4256456,-3.7120169
FUENTES,FUE_01_0007,"CENTRO, PLAZA SAN ILDEFONSO",PLAZA SAN ILDEFONSO,40.4241421,-3.7018126
FUENTES,FUE_01_0008,"CENTRO, PARQUE CASINO DE LA REINA",PARQUE CASINO DE LA REINA,40.4059482,-3.7049195
FUENTES,FUE_01_0009,"CENTRO, PLAZA DE LOS CARROS",PLAZA DE LOS CARROS,40.4116737,-3.711455
FUENTES,FUE_01_0012,"CENTRO, PARQUE DE LA CORNISA",PARQUE DE LA CORNISA,40.4098378,-3.7153448
FUENTES,FUE_01_0014,"CENTRO, PASEO DEL PRADO",PASEO DEL PRADO,40.41437435731804,-3.693158601410346
FUENTES,FUE_01_0015,"CENTRO, PASEO DEL PRADO",PASEO DEL PRADO,40.4168297,-3.6937882
FUENTES,FUE_01_0016,"CENTRO, PASEO DEL PRADO",PASEO DEL PRADO,40.4161552,-3.6939297
FUENTES,FUE_01_0017,"CENTRO, PASEO DEL PRADO",PASEO DEL PRADO,40.4127243,-3.6931979
FUENTES,FUE_01_0018,"CENTRO, CAPITAN SALAZAR MARTINEZ Nº 11","GLORIETA PUERTA DE TOLEDO, JARDÍN DE LAS HEROÍNAS DE SÁLVORA",40.4071271,-3.7102162
FUENTES,FUE_01_0020,"CENTRO, PLAZA DOS DE MAYO",PLAZA DOS DE MAYO,40.4269465,-3.7044044
FUENTES,FUE_01_0021,"CENTRO, PARQUE DE ATENAS",JUNTO PISTA DEPORTIVA,40.4150604,-3.7205578
FUENTES,FUE_01_0023,"CENTRO, PLAZA DE SANTO DOMINGO",PLAZA DE SANTO DOMINGO,40.4200731,-3.7082753
FUENTES,FUE_01_0024,"CENTRO, JARDINES PLAZA GABRIEL MIRO",JARDINES PLAZA GABRIEL MIRO,40.412665,-3.7148802
FUENTES,FUE_01_0027,"CENTRO, CALLE SEGOVIA, 30",PARQUE DE ATENAS,40.4147755,-3.7189277
FUENTES,FUE_01_0028,"CENTRO, PARQUE DE ATENAS",JUNTO PISTAS PETANCA Y ESTANQUE,40.4147606,-3.7201468
FUENTES,FUE_01_0029,"CENTRO, PARQUE CASINO DE LA REINA",PARQUE CASINO DE LA REINA,40.4066592,-3.7046006
FUENTES,FUE_01_0030,"CENTRO, PARQUE CASINO DE LA REINA",PARQUE CASINO DE LA REINA,40.4425058,-3.7057139
FUENTES,FUE_01_0031,"CENTRO, CL ARGANZUELA Nº:1",FUENTE CABESTREROS/  FUENTECILLA DEL LEAL,40.4088482,-3.7102571
FUENTES,FUE_01_0032,"CENTRO, CL MESON DE PAREDES, Nº 48",CABESTREROS/ PLAZA NELSON MANDELA,40.4093894,-3.7039254
FUENTES,FUE_01_0033,"CENTRO, CL SAN JUSTO Nº:1",PLAZA PUERTA CERRADA,40.4138188,-3.7090393
FUENTES,FUE_01_0034,"CENTRO, PLAZA JESUS Nº:4",Sin información adicional,40.4099264,-3.7072101
FUENTES,FUE_01_0036,"CENTRO, PLAZA CASCORRO Nº:11",Sin información adicional,40.4093572,-3.6959374
FUENTES,FUE_01_0037,"CENTRO, PLAZA ISABEL II Nº:8",Sin información adicional,40.4181182,-3.7091416
FUENTES,FUE_01_0038,"CENTRO, PZA. GENERAL VARA DE REY, Nº 3",Sin información adicional,40.4092552,-3.7083933
FUENTES,FUE_01_0039,"CENTRO, PZA. GABRIEL MIRO, Nº 8",Sin información adicional,40.4120067,-3.7149769
FUENTES,FUE_01_0041,"CENTRO, C/ SANTA CRUZ DE MARCENADO, 18",ESQUINA C/ CONDE DUQUE (FTE FARMACIA),40.4288758,-3.7096543
FUENTES,FUE_01_0042,"CENTRO, PLAZA SANTA MARÍA SOLEDAD TORRES ACOSTA","FRENTE A CALLE LUNA, 8",40.4218322,-3.7054888
FUENTES,FUE_01_0043,"CENTRO, CALLE DEL ALMENDRO, 3",Sin información adicional,40.4128691,-3.709017
FUENTES,FUE_01_0044,"CENTRO, CIUDAD RODRIGO, JUNTO ACCESO PZA. MAYOR",CV TRAVESÍA DE BRINGAS,40.4157493,-3.7086386
FUENTES,FUE_01_0045,"CENTRO, JARDINES ARQUITECTO RIBERA",DENTRO DE ARENERO ZONA INFANTIL,40.4258724,-3.6996383
FUENTES,FUE_01_0046,"CENTRO, CALLE ARENAL Nº 18",Sin información adicional,40.4173694,-3.7068608
FUENTES,FUE_01_0047,"CENTRO, PLAZA DE LAVAPIÉS",JUNTO ZONA INFANTIL,40.4089076,-3.7010206
FUENTES,FUE_01_0048,"CENTRO, PLAZA DEL PRÍNCIPE ALFONSO Nº5","PLAZA DE SANTA ANA, ÁREA INFANTIL",40.414841,-3.7004943
FUENTES,FUE_01_0049,"CENTRO, PASEO DE RECOLETOS Nº 17",C/V PRIM. EN BULEVAR JUNTO ASEOS PÚBLICOS,40.4214908,-3.6924701
FUENTES,FUE_01_0050,"CENTRO, PLAZA JACINTO BENAVENTE Nº 2",C/V PLAZA DEL ÁNGEL,40.4144869,-3.7031275
FUENTES,FUE_01_0051,"CENTRO, CALLE TRES CRUCES, 1",C/V PLAZA DEL CARMEN,40.419109,-3.7032599
FUENTES,FUE_01_0052,"CENTRO, C/ AUGUSTO FIGUEROA Nº 41",C/V VÁLGAME DIOS,40.4220373,-3.6967302
FUENTES,FUE_01_0053,"CENTRO, PLAZA GUARDIAS DE CORPS, 4 ",C/V CONDE DUQUE,40.4271838,-3.7104941
FUENTES,FUE_01_0054,"CENTRO, GRAN VÍA, 69",Sin información adicional,40.4229586,-3.7103794
FUENTES,FUE_01_0055,"CENTRO, CABALLERO DE GRACIA, 40","C/V GRAN VÍA, 1",40.4189242,-3.6975217
FUENTES,FUE_01_0056,"CENTRO, PASEO DE RECOLETOS 1",C/V PZA. CIBELES EN BULEVAR JUNTO PARADAS DE AUTOBÚS,40.4198082,-3.6932761
FUENTES,FUE_01_0057,"CENTRO, TIRSO DE MOLINA 2",JUNTO ÁREA INFANTIL,40.412335,-3.7036965
FUENTES,FUE_01_0058,"CENTRO, TOLEDO 40",FRENTE Nº 40,40.4125395,-3.7076008
FUENTES,FUE_01_0059,"CENTRO, PLAZA PLATERIA DE MARTINEZ 3",Sin información adicional,40.4127372,-3.6938653
FUENTES,FUE_01_0060,"CENTRO, CALLE ALCALA 48",PUERTA BANCO DE ESPAÑA,40.4189354,-3.6948494
FUENTES,FUE_01_0061,"CENTRO, CALLE HUERTAS 71",C/V CALLE JESÚS,40.4131045,-3.6953848
FUENTES,FUE_01_0062,"CENTRO, CALLE SAN LUCAS 1",C/V SAN GREGORIO,40.4238133,-3.6971036
FUENTES,FUE_01_0063,"CENTRO, PARQUE CASINO DE LA REINA",JUNTO ÁREA CANINA,40.4058599,-3.7055371
FUENTES,FUE_01_0064,"CENTRO, PARQUE CASINO DE LA REINA",JUNTO ÁREA CANINA,40.4059452,-3.7057367
FUENTES,FUE_01_0065,"CENTRO, PLAZA CONDE DE BARAJAS 6",Sin información adicional,40.4144946,-3.7085963
FUENTES,FUE_01_0066,"CENTRO, PLAZA VIRGEN DE LA PALOMA 1",C/V CALLE LA PALOMA 21,40.4082096,-3.7119965
FUENTES,FUE_01_0067,"CENTRO, CALLE SANTA CRUZ DE MARCENADO 31",Sin información adicional,40.4296616,-3.7133527
FUENTES,FUE_01_0068,"CENTRO, CALLE SAN PEDRO 20",C/V GOBERNADOR,40.4114955,-3.6948415
FUENTES,FUE_01_0069,"CENTRO, PLAZA SANTA BARBARA 10",Sin información adicional,40.4265203,-3.6965641
FUENTES,FUE_01_0070,"CENTRO, PLAZA CONDE DE MIRANDA 2",Sin información adicional,40.414788,-3.7096126
FUENTES,FUE_01_0071,"CENTRO, C/ ATOCHA, 73 ",C/V C/ AMOR DE DIOS,40.4122616,-3.6986661
FUENTES,FUE_01_0072,"CENTRO, C/ SANTA ISABEL, 34 ",C/V C/ BUENAVISTA.,40.4106288,-3.6981192
FUENTES,FUE_01_0073,"CENTRO, C/ DOCTOR MATA, 2 ","C/V C/ SANTA ISABEL, PLAZA JUAN GOYTISOLO",40.4089132,-3.6944487
FUENTES,FUE_01_0074,"CENTRO, C/ SANTA ISABEL, 52 ",JUNTO AL MUSEO REINA SOFÍA,40.4084931,-3.69335
FUENTES,FUE_01_0075,"CENTRO, PLAZA DE LA CORRALA ",C/ MESÓN DE PAREDES 63.,40.4080412,-3.7028827
FUENTES,FUE_01_0076,"CENTRO, PLAZA DEL CAMPILLO DEL MUNDO NUEVO ",Sin información adicional,40.4062448,-3.7085298
FUENTES,FUE_01_0077,"CENTRO, CALLE CALATRAVA, 37",C/V C/ DEL ÁNGEL,40.4097296,-3.7132736
FUENTES,FUE_01_0078,"CENTRO, PLAZA DE SAN FRANCISCO, 4 ",C/V C/ SAN BUENAVENTURA,40.4108156,-3.7141863
FUENTES,FUE_01_0079,"CENTRO, Pº VIRGEN DEL PUERTO, 1 ",C/V GLORIETA DE SAN VICENTE,40.4196034,-3.7199109
FUENTES,FUE_01_0080,"CENTRO, PLAZA DEL REY",CALLE BARQUILLO 'FRENTE Nº 6-8,40.420101,-3.695793
FUENTES,FUE_01_0081,"CENTRO, PLAZA CONDE DE TORENO 1",C/V CALLE REYES,40.4243663,-3.7091785
FUENTES,FUE_01_0082,"CENTRO, CALLE AMANIEL 10",C/V TRAVESÍA CONDE DUQUE,40.4257768,-3.7093502
FUENTES,FUE_01_0083,"CENTRO, CALLE MAYOR 32",C/V BORDADORES,40.4161874,-3.7078227
FUENTES,FUE_01_0084,"CENTRO, PLAZA DE SANTIAGO 4",C/V SANTA CLARA,40.4167042,-3.7108142
FUENTES,FUE_01_0085,"CENTRO, CALLE ALCALÁ, 7",JUNTO CANALEJAS,40.4173884,-3.7013164
FUENTES,FUE_01_0086,"CENTRO, CALLE MAESTRO GUERRERO 8A",C/V DOS AMIGOS,40.4244243,-3.7107103
FUENTES,FUE_01_0087,"CENTRO, CALLE LIBREROS 1",FRENTE Nº 4 C/V FLOR ALTA,40.421459,-3.7067995
FUENTES,FUE_01_0088,"CENTRO, CALLE HORTALEZA 37",C/V CALLE PÉREZ GALDÓS,40.4222757,-3.6996999
FUENTES,FUE_01_0089,"CENTRO, CALLE CRUZ VERDE 16",C/V TRAV. CRUZ VERDE,40.4238529,-3.7071189
FUENTES,FUE_01_0090,"CENTRO, CALLE SAN BERNARDO 55",C/V CALLE ESPIRITU SANTO,40.4257768,-3.7071624
FUENTES,FUE_01_0091,"CENTRO, CALLE RASTRILLO 1",C/V CALLE ESPIRITU SANTO,40.4253847,-3.7038411
FUENTES,FUE_01_0092,"CENTRO, GLORIETA EMBAJADORES, 1",GLORIETA EMBAJADORES FAROLA 29 C/V CALLE EMBAJADORES.,40.4055135,-3.702708
FUENTES,FUE_01_0093,"CENTRO,  CUESTA SANTO DOMINGO 12",C/V CAMPOMANES,40.4196945,-3.7092889
FUENTES,FUE_01_0094,"CENTRO, PLAZA ENCARNACION 2",C/V CALLE DE LA ENCARNACIÓN,40.4197325,-3.711001
FUENTES,FUE_01_0095,"CENTRO, CALLE TOLEDO, 61 C/V C/ SAN MILLÁN",PLAZA DE LA CEBADA,40.4112274,-3.7080417
FUENTES,FUE_01_0096,"CENTRO, CALLE PRECIADOS, 35",C/V CALLE TERNERA,40.4197195,-3.707154
FUENTES,FUE_01_0097,"CENTRO, PLAZA DE PONTEJOS, 2",Sin información adicional,40.4159525,-3.7043129
FUENTES,FUE_01_0098,"CENTRO, CALLE IMPERIAL, 10",Sin información adicional,40.4146248,-3.707051
FUENTES,FUE_01_0099,"CENTRO, PLAZA DE LA PAJA, 6",C/V PRÍNCIPE ANGLONÁ,40.4133528,-3.7113671
FUENTES,FUE_01_0100,"CENTRO, CALLE LAVAPIES, 19",Sin información adicional,40.4107363,-3.7026087
FUENTES,FUE_01_0101,"CENTRO, CALLE ALMUDENA, 3",C/V BAILÉN 19,40.4155965,-3.7132505
FUENTES,FUE_01_0102,"CENTRO, CALLE SAN NICOLAS, 15",FRENTE AL Nº 15,40.4166794,-3.7118789
FUENTES,FUE_01_0103,"CENTRO, PLAZA DEL BIOMBO, 1",C/V CALLE CALDERÓN DE LA BARCA,40.4159043,-3.7112133
FUENTES,FUE_01_0104,"CENTRO, CALLE GRAFAL, 10",FRENTE Nº 10 C/V SAN BRUNO,40.4130361,-3.7082475
FUENTES,FUE_01_0105,"CENTRO, CALLE TAMAYO Y BAUS, 5",C/V CALLE MARQUES DEL MONASTERIO,40.4229473,-3.6931666
FUENTES,FUE_01_0106,"CENTRO, CALLE FUENCARRAL, 43",Sin información adicional,40.4231172,-3.7008449
FUENTES,FUE_01_0107,"CENTRO, PLAZA DE SAN MARTIN, 1",Sin información adicional,40.4182315,-3.7070148
FUENTES,FUE_01_0108,"CENTRO, CALLE AVE MARIA, 34",Sin información adicional,40.4102805,-3.7010119
FUENTES,FUE_01_0109,"CENTRO, CALLE SANTA ISABEL, 47",C/V SANTA INÉS,40.4095051,-3.6959671
FUENTES,FUE_01_0110,"CENTRO, PASEO DEL PRADO, 8",C/V PLAZA DE LAS CORTES 6,40.4155886,-3.6948315
FUENTES,FUE_01_0111,"CENTRO, CALLE SAN AGUSTIN, 2",C/V CALLE PRADO,40.4153281,-3.6969334
FUENTES,FUE_01_0112,"CENTRO, CARRERA DE SAN JERÓNIMO, 21",Sin información adicional,40.416636,-3.6985023
FUENTES,FUE_01_0113,"CENTRO, CALLE VIRGEN DE LOS PELIGROS , 2",Sin información adicional,40.4181851,-3.6993679
FUENTES,FUE_01_0114,"CENTRO, CALLE ALMIRANTE, 1",Sin información adicional,40.4088482,-3.6954699
FUENTES,FUE_01_0115,"CENTRO, CALLE ALCALA, 45",Sin información adicional,40.4272429,-3.6728706
FUENTES,FUEP_01_06_0051,"CENTRO, JARDINES DE SABATINI",A. 1 · PLATAFORMA,40.4204798,-3.7137624
FUENTES,FUEP_01_07_0052,"CENTRO, JARDINES DE LA PLAZA DE ORIENTE",A. 3 · LEPANTO,40.41756,-3.7118915
FUENTES,FUEP_01_09_0004,"CENTRO, MADRID RÍO",Z.06. - VIRGEN DEL PUERTO,40.4168676,-3.7216504
FUENTES,FUEP_01_09_0008,"CENTRO, MADRID RÍO",Z.07. - ERMITA VIRGEN DEL PUERTO,40.4154456,-3.7221456
FUENTES,FB_XX_1,"CENTRO, JARDINES DE SABATINI",entrada a Sabatini por Plaza España,40.4215178,-3.7133316
FUENTES,FB_XX_2,"CENTRO, JARDINES DE SABATINI",entrada a Sabatini por Palacio,40.4204378,-3.7131315
FUENTES,FUE_02_0001,"ARGANZUELA, ED 3/3 MENDEZ ALVARO - DELICIAS",PLAZA DEL AMANECER EN MÉNDEZ ÁLVARO Nº3,40.399242,-3.6848763
FUENTES,FUE_02_0002,"ARGANZUELA, RAMIREZ DE PRADO",C/RAMIREZ DE PRADO Nº 5,40.3989978,-3.6873947
FUENTES,FUE_02_0003,"ARGANZUELA, Z.V. PUERTO DE  BEJAR",CALLE PUERTO DE BEJAR Nº 24,40.3886234,-3.6865894
FUENTES,FUE_02_0005,"ARGANZUELA, PARQUE DEL BRONCE PVF",C/BRONCE Nº 19,40.390326,-3.6874734
FUENTES,FUE_02_0007,"ARGANZUELA, PARQUE DE DELICIAS",C/PÀRROCO EUSEBIO CUENCA Nº 46,40.395487,-3.6883302
FUENTES,FUE_02_0009,"ARGANZUELA, PZA. LUCA DE TENA",PZA  LUCA DE TENA N º2,40.4020595,-3.6935279
FUENTES,FUE_02_0010,"ARGANZUELA, PZA  LUCA DE TENA N º13",JARDÍN DE PALESTINA,40.4020505,-3.6940827
FUENTES,FUE_02_0012,"ARGANZUELA, C/PALOS DE LA FRONTERA Nº 42 ",JARDÍN DE PALESTINA,40.4029032,-3.6947118
FUENTES,FUE_02_0013,"ARGANZUELA, C/CANARIAS Nº 22",JARDÍN DE PALESTINA,40.4022005,-3.6950381
FUENTES,FUE_02_0014,"ARGANZUELA, PZA. RUTILIO GACIS",PLAZA RUTILIO GACIS Nº 2,40.3942707,-3.696825
FUENTES,FUE_02_0015,"ARGANZUELA, PZA. PEÑUELAS",PLAZA DE LAS PEÑUELAS Nº 12,40.4010498,-3.702649
FUENTES,FUE_02_0016,"ARGANZUELA, PARQUE PEÑUELAS",PASEO ESPERANZA Nº 25 ,40.4010743,-3.7052867
FUENTES,FUE_02_0017,"ARGANZUELA, POL. DE YESERIAS FASES II Y III",PASEO YESERÍAS 25,40.3993583,-3.7076552
FUENTES,FUE_02_0019,"ARGANZUELA, JARDIN DEL RASTRO",CALLE CONCEJAL BENITO MARTÍN LOZANO 10,40.4054215,-3.7090263
FUENTES,FUE_02_0021,"ARGANZUELA, JARDIN MAESTRO PADILLA",C/SAN ALEJANDRO Nº 14,40.4043948,-3.7218641
FUENTES,FUE_02_0022,"ARGANZUELA, ACACIAS - PASILLO VERDE",C/ GASÓMETRO 26. DENTRO DEL PARQUE,40.4026585,-3.7082319
FUENTES,FUE_02_0023,"ARGANZUELA, ACACIAS - PASILLO VERDE",C/ GASÓMETRO 26. DENTRO DEL PARQUE,40.4026585,-3.7082319
FUENTES,FUE_02_0024,"ARGANZUELA, PARQUE IMPERIAL PVF",CALLE SANTA MARÍA LA REAL DE NIEVA N º16,40.404843,-3.7181203
FUENTES,FUE_02_0025,"ARGANZUELA, MED. C/ TOLEDO",Sin información adicional,40.4020631,-3.7585523
FUENTES,FUE_02_0027,"ARGANZUELA, MED. C/ TOLEDO",Sin información adicional,40.4061637,-3.7118895
FUENTES,FUE_02_0028,"ARGANZUELA, ED 2/8 VALDELASIERRA", C/VALDELASIERRA Nº 10,40.3973753,-3.7049079
FUENTES,FUE_02_0029,"ARGANZUELA, HIERRO - ANTRACITA",C/ DEL SODIO Nº 3,40.3894166,-3.6902372
FUENTES,FUE_02_0030,"ARGANZUELA, HIERRO - ANTRACITA",C/ DEL SODIO Nº 3,40.3891097,-3.6900594
FUENTES,FUE_02_0031,"ARGANZUELA, PARQUE ENRIQUE TIERNO GALVAN",Sin información adicional,40.3870597,-3.6834906
FUENTES,FUE_02_0033,"ARGANZUELA, PARQUE ENRIQUE TIERNO GALVAN",Sin información adicional,40.389133,-3.6814107
FUENTES,FUE_02_0034,"ARGANZUELA, PARQUE ENRIQUE TIERNO GALVAN",C/VILLARROBLEDO S/N,40.3860749,-3.6846907
FUENTES,FUE_02_0035,"ARGANZUELA, PARQUE MIRADOR TIERNO GALVAN PVF",C/NEBULOSAS N º2 ,40.3938613,-3.6847016
FUENTES,FUE_02_0037,"ARGANZUELA, PARQUE ENRIQUE TIERNO GALVAN",EN LACOTA. C/TITÁN Nº 2,40.3903443,-3.6818943
FUENTES,FUE_02_0038,"ARGANZUELA, PARQUE ENRIQUE TIERNO GALVAN",EN LA COTA. C/TITÁN Nº 2,40.3876895,-3.6846258
FUENTES,FUE_02_0039,"ARGANZUELA, PARQUE ENRIQUE TIERNO GALVAN,  Pº  CATALPAS JUNTO A LA FAROLA 594",Sin información adicional,40.3922232,-3.6857213
FUENTES,FUE_02_0040,"ARGANZUELA, PARQUE ENRIQUE TIERNO GALVAN",Sin información adicional,40.3927097,-3.6833884
FUENTES,FUE_02_0042,"ARGANZUELA, PARQUE DEL BRONCE PVF",C/ANTRACITA N º 51,40.3913984,-3.6866864
FUENTES,FUE_02_0045,"ARGANZUELA, JARDINES FERNANDO POO - TORRES MIRANDA","C/JAIME EL CONQUISTADOR Nº 6, JUNTO ZONA INFANTIL",40.3978708,-3.6981919
FUENTES,FUE_02_0046,"ARGANZUELA, JARDIN PARROCO SANCHEZ CAMARA ED 2-15",C/MORATINES Nº24,40.4017881,-3.7045037
FUENTES,FUE_02_0047,"ARGANZUELA, PARQUE PEÑUELAS",FRENTE EL Nº 31 DE PASEO ESPERANZA,40.4000401,-3.7059459
FUENTES,FUE_02_0048,"ARGANZUELA, CALLE DEL TEJO Nº 3",Sin información adicional,40.3966528,-3.6786521
FUENTES,FUE_02_0049,"ARGANZUELA, YESERIAS FRENTE Nº 29 FLA. 24-26",Sin información adicional,40.398553,-3.709006
FUENTES,FUE_02_0050,"ARGANZUELA, PASEO YESERIAS",FRENTE AL Nº15,40.3993984,-3.7107117
FUENTES,FUE_02_0052,"ARGANZUELA, AV. PALNETARIO, 11",EN ZONA VERDE CV CALLE MENESES,40.3936248,-3.6819368
FUENTES,FUE_02_0053,"ARGANZUELA, CALLE GRANITO, 20 ",CON VUELTA CALLE HIERRO,40.3934635,-3.6923876
FUENTES,FUE_02_0054,"ARGANZUELA, CALLE AGUILÓN,11",JUNTO A ZONA INFANTIL,40.3974616,-3.7003397
FUENTES,FUE_02_0055,"ARGANZUELA, CALLE EROS Nº 10",CV CALLE ARIEL,40.3932382,-3.6798104
FUENTES,FUE_02_0056,"ARGANZUELA, CALLE AMALTEA Nº 6",JUNTO ZONA INFANTIL,40.3949172,-3.6823618
FUENTES,FUE_02_0057,"ARGANZUELA, CALLE JACARANDA 13",C/V ALMEZ,40.3973938,-3.6792176
FUENTES,FUE_02_0058,"ARGANZUELA, PASEO DE YESERÍAS, 1",ZV JUNTO PISTA FRONTÓN,40.4007368,-3.7129266
FUENTES,FUE_02_0059,"ARGANZUELA, CALLE TOLEDO, 178",JARDINES DE CONCHA PIQUER,40.4020561,-3.7143668
FUENTES,FUE_02_0060,"ARGANZUELA, PASEO JUAN ANTONIO VALLEJO NÁJERA-BOTAS, 1",C/V GLORIETA SANTA MARÍA DE LA CABEZA,40.4009185,-3.6999534
FUENTES,FUE_02_0061,"ARGANZUELA, C/ VILLOSLADA Nº 9",PARQUE GIL IMÓN,40.4037155,-3.7111664
FUENTES,FUE_02_0062,"ARGANZUELA, TRAVESÍA DE SAN ISIDORO DE SEVILLA, 7-9 ","PASEO DE LOS OLMOS Nº 24,",40.4037155,-3.7111664
FUENTES,FUE_02_0063,"ARGANZUELA, CALLE PÁRROCO EUSEBIO CUENCA, FRENTE Nº 64 ",C/V ANTRACITA (PLANETARIO),40.3934609,-3.6876176
FUENTES,FUE_02_0064,"ARGANZUELA, PARQUE ENRIQUE TIERNO GALVAN, AV. PLANETARIO 18","Pº  CATALPAS JUNTO A LA FAROLA 594, ÁREA CANINA",40.3913401,-3.6858563
FUENTES,FUE_02_0065,"ARGANZUELA, CALLE MORENO NIETO,5",CV CALLE JUAN DUQUE 25 ,40.4117496,-3.7187215
FUENTES,FUEP_02_09_0010,"ARGANZUELA, MADRID RÍO",Z.10. - CEDEX MARGEN IZQUIERDO,40.4086277,-3.7213938
FUENTES,FUEP_02_09_0016,"ARGANZUELA, MADRID RÍO",Z.17. -  ARGANZUELA - ESQUELETO,40.3994346,-3.7112629
FUENTES,FUEP_02_09_0018,"ARGANZUELA, MADRID RÍO",Z.17. -  ARGANZUELA - ESQUELETO,40.3994329,-3.7112405
FUENTES,FUEP_02_09_0017,"ARGANZUELA, MADRID RÍO",Z.17. -  ARGANZUELA - ESQUELETO,40.3994329,-3.7112511
FUENTES,FUEP_02_09_0012,"ARGANZUELA, MADRID RÍO",Z.17. -  ARGANZUELA - ESQUELETO,40.3985716,-3.7125641
FUENTES,FUEP_02_09_0013,"ARGANZUELA, MADRID RÍO",Z.17. -  ARGANZUELA - ESQUELETO,40.3985662,-3.7125723
FUENTES,FUEP_02_09_0014,"ARGANZUELA, MADRID RÍO",Z.17. -  ARGANZUELA - ESQUELETO,40.3985598,-3.7125805
FUENTES,FUEP_02_09_0022,"ARGANZUELA, MADRID RÍO",Z.18. - ARGANZUELA - PERRAULT,40.3983593,-3.711195
FUENTES,FUEP_02_09_0021,"ARGANZUELA, MADRID RÍO",Z.18. - ARGANZUELA - PERRAULT,40.3983549,-3.7111867
FUENTES,FUEP_02_09_0020,"ARGANZUELA, MADRID RÍO",Z.18. - ARGANZUELA - PERRAULT,40.3983495,-3.7111784
FUENTES,FUEP_02_09_0028,"ARGANZUELA, MADRID RÍO",Z.20. - ARGANZUELA - Pº DE PLATANOS,40.3963013,-3.7074415
FUENTES,FUEP_02_09_0029,"ARGANZUELA, MADRID RÍO",Z.20. - ARGANZUELA - Pº DE PLATANOS,40.3962931,-3.7074462
FUENTES,FUEP_02_09_0030,"ARGANZUELA, MADRID RÍO",Z.20. - ARGANZUELA - Pº DE PLATANOS,40.3962859,-3.7074496
FUENTES,FUEP_02_09_0025,"ARGANZUELA, MADRID RÍO",Z.20. - ARGANZUELA - Pº DE PLATANOS,40.3973554,-3.7071344
FUENTES,FUEP_02_09_0026,"ARGANZUELA, MADRID RÍO",Z.20. - ARGANZUELA - Pº DE PLATANOS,40.3973509,-3.7071261
FUENTES,FUEP_02_09_0024,"ARGANZUELA, MADRID RÍO",Z.20. - ARGANZUELA - Pº DE PLATANOS,40.3973607,-3.7071427
FUENTES,FUEP_02_09_0039,"ARGANZUELA, MADRID RÍO",Z.23. - ARGANZUELA - Pº DE LA CHOPERA,40.3923741,-3.7006584
FUENTES,FUEP_02_09_0040,"ARGANZUELA, MADRID RÍO",Z.23. - ARGANZUELA - Pº DE LA CHOPERA,40.3923803,-3.7006655
FUENTES,FUEP_02_09_0037,"ARGANZUELA, MADRID RÍO",Z.23. - ARGANZUELA - Pº DE LA CHOPERA,40.3925544,-3.7009265
FUENTES,FUEP_02_09_0036,"ARGANZUELA, MADRID RÍO",Z.23. - ARGANZUELA - Pº DE LA CHOPERA,40.3925499,-3.7009359
FUENTES,FUEP_02_09_0035,"ARGANZUELA, MADRID RÍO",Z.23. - ARGANZUELA - Pº DE LA CHOPERA,40.3925453,-3.7009453
FUENTES,FUEP_02_09_0043,"ARGANZUELA, MADRID RÍO",Z.28. - BMX,40.3843184,-3.6887583
FUENTES,FUEP_02_09_0041,"ARGANZUELA, MADRID RÍO",Z.23. - ARGANZUELA - Pº DE LA CHOPERA,40.3932601,-3.6984983
FUENTES,SKATEPARK,"ARGANZUELA, MADRID RÍO",Z.21. - ARGANZUELA - PUENTE DE PRAGA,40.3954644,-3.7040321
FUENTES,SKATEPARK,"ARGANZUELA, MADRID RÍO",Z.21. - ARGANZUELA - PUENTE DE PRAGA,40.3954609,-3.7040227
FUENTES,SKATEPARK,"ARGANZUELA, MADRID RÍO",Z.21. - ARGANZUELA - PUENTE DE PRAGA,40.3954573,-3.7040132
FUENTES,SKATEPARK,"ARGANZUELA, MADRID RÍO",Z.18. - ARGANZUELA - PERRAULT,40.3993117,-3.7105875
FUENTES,SKATEPARK,"ARGANZUELA, MADRID RÍO",Z.18. - ARGANZUELA - PERRAULT,40.3985024,-3.7090153
FUENTES,FUE_03_0001,"RETIRO, PARQUE DE ROMA",C/JUAN ESPLANDIU Nº 6.PRÓXIMA A FUENTE ORNAMENTAL CIRCULAR,40.4273744,-3.6896988
FUENTES,FUE_03_0002,"RETIRO, PARQUE DE ROMA","C/JUAN ESPLANDIU Nº 4, JUNTO A JUEGOS INFANTILES",40.4158555,-3.6614183
FUENTES,FUE_03_0005,"RETIRO, PARQUE DE ROMA",AREA CANINA,40.414879,-3.6619936
FUENTES,FUE_03_0006,"RETIRO, PARQUE DE ROMA",CALLE PEZ VOLADOR 32,40.4147358,-3.6642318
FUENTES,FUE_03_0007,"RETIRO, PARQUE DE ROMA","C/JUAN ESPLANDIU Nº 11, EN EL ROCÓDROMO",40.4187564,-3.6649485
FUENTES,FUE_03_0008,"RETIRO, JARDINES FEDERICO MORENO TORROBA",C/FEDERICO MORENO TORROBA Nº 11,40.4045317,-3.667065
FUENTES,FUE_03_0010,"RETIRO, JARDINES Pº JOHN LENNON",C/MARQUÉS DE LOZOYA Nº 6,40.4167259,-3.6658358
FUENTES,FUE_03_0011,"RETIRO, PARQUE MARTIN LUTHER KING",C/ARREGUI Y ARUEJ  24,40.4027614,-3.6681148
FUENTES,FUE_03_0012,"RETIRO, PARQUE MARTIN LUTHER KING",C/ MARTINEZ CORROCHANO Nº 41,40.4037045,-3.6683728
FUENTES,FUE_03_0013,"RETIRO, JARDINES CONDE CARTAGENA - ABTAO",C/ CONDE DE CARTAGENA 16. JARDÍN “MARÍA DE LA CONCEPCIÓN ARIAS Y ARIMÓN” ,40.4076512,-3.6743227
FUENTES,FUE_03_0017,"RETIRO, PARQUE DE COCHERAS","C/HOYUELO Nº 11, JUNTO PISTAS DEPORTIVAS",40.4007003,-3.6762858
FUENTES,FUE_03_0018,"RETIRO, POLIDEPORTIVO DAOIZ Y VELARDE",TELLEZ 31,40.4009825,-3.6786059
FUENTES,FUE_03_0021,"RETIRO, STA. SABINA - DR. ESQUERDO",C/SANTA SABINA Nº 6,40.4049836,-3.6704375
FUENTES,FUE_03_0022,"RETIRO, JARDÍN DE ELISA SERNA CALLE HOYUELO, 7",CENTRO DE ANCIANOS PEREZ GALDOS,40.4009282,-3.6759054
FUENTES,FUE_03_0023,"RETIRO, PARQUE ANUNCIACION","C/ ANUNCIACIÓN 8, ZV CON ÁREA INFANTIL",40.4121932,-3.6757658
FUENTES,FUE_03_0024,"RETIRO, PARQUE MARTIN LUTHER KING",CALLE ARREGUI Y ARUEJ 2,40.3988013,-3.6696067
FUENTES,FUE_03_0028,"RETIRO, PZA. VAQUERIAS",C/VAQUERÍAS 7,40.4187969,-3.6669902
FUENTES,FUE_03_0030,"RETIRO, Pº INFANTA ISABEL, 4",Sin información adicional,40.4061262,-3.686024
FUENTES,FUE_03_0032,"RETIRO, PIO BAROJA - MENENDEZ PELAYO",AVDA.DE MENENDEZ PELAYO Nº67,40.4129764,-3.6765722
FUENTES,FUE_03_0035,"RETIRO, JARDINES JESUS APRENDIZ","C/ ANTONIO DIAZ-CAÑABATE, 4",40.4095786,-3.6715928
FUENTES,FUE_03_0036,"RETIRO, C/ FEDERICO MORENO TORROBA Nº3",AVDA. MEDITERRANEO (MADRID SALUD),40.4059506,-3.6670281
FUENTES,FUE_03_0039,"RETIRO, IBIZA Nº 16 ( EN EL BULEVAR)",Sin información adicional,40.4182523,-3.6764677
FUENTES,FUE_03_0040,"RETIRO, IBIZA Nº 60 ( EN EL BULEVAR)",Sin información adicional,40.4179411,-3.6695574
FUENTES,FUE_03_0041,"RETIRO, ALCALDE SAINZ DE BARANDA Nº 65 (EN EL BULEVAR)",Sin información adicional,40.4165133,-3.6696871
FUENTES,FUE_03_0042,"RETIRO, CAVANILLES Nº 38",CAVANILLES CV CALLE ABTAO,40.405075,-3.6747108
FUENTES,FUE_03_0043,"RETIRO, ALCALA Nº 50",Sin información adicional,40.4194144,-3.6917323
FUENTES,FUE_03_0044,"RETIRO, ALCALDE SAINZ DE BARANDA Nº 20 (Nº 18 EN EL BULEVAR)",Sin información adicional,40.4169012,-3.6762726
FUENTES,FUE_03_0045,"RETIRO, CALLE ANTONIO NEBRIJA 7",CONFLUENCIA CON CALLE COMERCIO,40.4030441,-3.6838295
FUENTES,FUE_03_0046,"RETIRO, CALLE CERRO NEGRO 12",Sin información adicional,40.3958892,-3.67223
FUENTES,FUE_03_0047,"RETIRO, AV. CIUDAD DE BARCELONA, 144",Sin información adicional,40.4031111,-3.6785948
FUENTES,FUE_03_0048,"RETIRO, CALLE BARRILERO 2",C/V SECO (PZA. LAS CALIFORNIAS),40.3977712,-3.6736563
FUENTES,FUE_03_0049,"RETIRO, PASAJE DEL LINCE 8","PLAZUELA VIRGEN DE LA ESTRELLA, JUNTO A PISTAS DEPORTIVAS",40.4088638,-3.6679883
FUENTES,FUE_03_0050,"RETIRO, AV. MEDITERRÁNEO 2",C/V PLAZA MARIANO DE CAVIA,40.4072561,-3.678086
FUENTES,FUE_03_0051,"RETIRO, CALLE DOCE DE OCTUBRE 30",JARDINES DOCE DE OCTUBRE (FRENTE C/ MAIQUEZ),40.4160638,-3.6731332
FUENTES,FUE_03_0052,"RETIRO, PLAZA DE CONDE DE CASAL, 10",JUNTO PARADA BUS,40.4064565,-3.6707864
FUENTES,FUE_03_0053,"RETIRO, CALLE FELIPE IV FRENTE Nº 1",ACCESO MUSEO DEL PRADO,40.4148807,-3.6929108
FUENTES,FUE_03_0054,"RETIRO, CALLE ESTRELLA POLAR, 13",C/V CALLE PEZ AUSTRAL,40.4112275,-3.6657637
FUENTES,FUE_03_0055,"RETIRO, CALLE O'DONNELL, 48",HOSPITAL MATERNO INFANTIL,40.4212344,-3.6722118
FUENTES,FUE_03_0056,"RETIRO, CALLE MENÉNDEZ PELAYO, 9",C/V O´DONNELL,40.4214976,-3.6797714
FUENTES,FUE_03_0057,"RETIRO, CALLE JUAN VALERA, 24",C/V CALLE ANDRÉS TORREJÓN,40.4082079,-3.6825541
FUENTES,FUE_03_0058,"RETIRO, CALLE SIRIO 2","FRENTE A CALLE PEZ VOLADOR, JUNTO A ZONA INFANTIL",40.4132758,-3.6622745
FUENTES,FUE_03_0059,"RETIRO, CALLE GRANADA 55 C",JUNTO ZONA INFANTIL,40.4033449,-3.6740185
FUENTES,FUE_03_0060,"RETIRO, CALLE SIRIO, 70","PASARELA CALLE SIRIO, FRENTE CALLE DE LIRA",40.4083143,-3.6656887
FUENTES,FUE_03_0061,"RETIRO, CALLE NARVAEZ 28",C/V C/ O'DONELL,40.4214107,-3.6761404
FUENTES,FUE_03_0062,"RETIRO, CALLE CAVANILLES 58",Sin información adicional,40.4046165,-3.6734085
FUENTES,FUE_03_0063,"RETIRO, CALLE TÉLLEZ 50","MEMORIAL VICTIMAS 11-M, JUNTO ZONA INFANTIL",40.4014775,-3.6801749
FUENTES,FUE_03_0064,"RETIRO, CALLE LUIS MITJANS, 52. ", JUNTO ZONA INFANTIL,40.4035185,-3.6694272
FUENTES,FUEP_03_01_0001,"RETIRO, JARDINES DEL BUEN RETIRO",A. 12 · EL POVAR,40.4182968,-3.6854724
FUENTES,FUEP_03_01_0002,"RETIRO, JARDINES DEL BUEN RETIRO",A. 13 · HERNANI,40.4197015,-3.6865739
FUENTES,FUEP_03_01_0003,"RETIRO, JARDINES DEL BUEN RETIRO",A. 12 · EL POVAR,40.4187607,-3.6864919
FUENTES,FUEP_03_01_0004,"RETIRO, JARDINES DEL BUEN RETIRO",A. 12 · EL POVAR,40.4182968,-3.6854724
FUENTES,FUEP_03_01_0005,"RETIRO, JARDINES DEL BUEN RETIRO",A. 13 · HERNANI,40.4204082,-3.6842645
FUENTES,FUEP_03_01_0006,"RETIRO, JARDINES DEL BUEN RETIRO",A. 16 · PLAZA DE GALICIA,40.4206781,-3.6824285
FUENTES,FUEP_03_01_0007,"RETIRO, JARDINES DEL BUEN RETIRO",A. 1 · RESERVADO,40.419855,-3.6802814
FUENTES,FUEP_03_01_0008,"RETIRO, JARDINES DEL BUEN RETIRO",A. 14 · ESTANQUE,40.4191014,-3.6811821
FUENTES,FUEP_03_01_0009,"RETIRO, JARDINES DEL BUEN RETIRO",A. 1 · RESERVADO,40.4186767,-3.6799354
FUENTES,FUEP_03_01_0010,"RETIRO, JARDINES DEL BUEN RETIRO",A. 10 · CAMPANILLAS,40.4163972,-3.6886032
FUENTES,FUEP_03_01_0011,"RETIRO, JARDINES DEL BUEN RETIRO",A. 8 · BOSQUE DEL RECUERDO Y ENTORNO,40.413941,-3.6882433
FUENTES,FUEP_03_01_0012,"RETIRO, JARDINES DEL BUEN RETIRO",A. 8 · BOSQUE DEL RECUERDO Y ENTORNO,40.4116836,-3.6867574
FUENTES,FUEP_03_01_0013,"RETIRO, JARDINES DEL BUEN RETIRO",A. 7 · CEMENTERIO,40.411125,-3.6875012
FUENTES,FUEP_03_01_0014,"RETIRO, JARDINES DEL BUEN RETIRO",A. 6 · HUERTO DEL FRANCÉS,40.4096633,-3.6862541
FUENTES,FUEP_03_01_0015,"RETIRO, JARDINES DEL BUEN RETIRO",A. 6 · HUERTO DEL FRANCÉS,40.4107329,-3.6832721
FUENTES,FUEP_03_01_0016,"RETIRO, JARDINES DEL BUEN RETIRO",A. 4 · LA ROSALEDA Y ENTORNO,40.4111445,-3.6809841
FUENTES,FUEP_03_01_0017,"RETIRO, JARDINES DEL BUEN RETIRO",A. 4 · LA ROSALEDA Y ENTORNO,40.4113589,-3.6800262
FUENTES,FUEP_03_01_0018,"RETIRO, JARDINES DEL BUEN RETIRO",A. 17 · ÁREA CANINA,40.4093984,-3.680551
FUENTES,FUEP_03_01_0019,"RETIRO, JARDINES DEL BUEN RETIRO",A. 5 · ENCINAR,40.4084932,-3.6786052
FUENTES,FUEP_03_01_0020,"RETIRO, JARDINES DEL BUEN RETIRO",A. 15 · CAMPO GRANDE,40.413406,-3.6814007
FUENTES,FUEP_03_01_0021,"RETIRO, JARDINES DEL BUEN RETIRO",A. 2 · HERRERO PALACIOS,40.415096,-3.6790639
FUENTES,FUEP_03_01_0022,"RETIRO, JARDINES DEL BUEN RETIRO",A. 15 · CAMPO GRANDE,40.4141435,-3.6827393
FUENTES,FUEP_03_01_0023,"RETIRO, JARDINES DEL BUEN RETIRO",A. 14 · ESTANQUE,40.4155134,-3.6840387
FUENTES,FUEP_03_01_0024,"RETIRO, JARDINES DEL BUEN RETIRO",A. 14 · ESTANQUE,40.4157821,-3.683524
FUENTES,FUEP_03_01_0025,"RETIRO, JARDINES DEL BUEN RETIRO",A. 14 · ESTANQUE,40.417036,-3.6820996
FUENTES,FUEP_03_01_0026,"RETIRO, JARDINES DEL BUEN RETIRO",A. 14 · ESTANQUE,40.4173748,-3.6808852
FUENTES,FUEP_03_01_0027,"RETIRO, JARDINES DEL BUEN RETIRO",A. 14 · ESTANQUE,40.4163646,-3.6814531
FUENTES,FUEP_03_01_0028,"RETIRO, JARDINES DEL BUEN RETIRO",A. 15 · CAMPO GRANDE,40.4156484,-3.6809644
FUENTES,FUEP_03_01_0029,"RETIRO, JARDINES DEL BUEN RETIRO",A. 2 · HERRERO PALACIOS,40.4166923,-3.6800703
FUENTES,FUEP_03_01_0030,"RETIRO, JARDINES DEL BUEN RETIRO",A. 2 · HERRERO PALACIOS,40.4171442,-3.67921
FUENTES,FUEP_03_01_0031,"RETIRO, JARDINES DEL BUEN RETIRO",A. 2 · HERRERO PALACIOS,40.4166595,-3.678555
FUENTES,FUE_04_0001,"SALAMANCA, PARQUE BREOGAN",AVENIDA DE BRASILIA Nº 2,40.4370811,-3.6602892
FUENTES,FUE_04_0002,"SALAMANCA, PARQUE BREOGAN","AVENIDA DE BRASILIA Nº 2, JUNTO ZONA INFANTIL",40.436444,-3.6606938
FUENTES,FUE_04_0003,"SALAMANCA, PARQUE DE LAS AVENIDAS",Sin información adicional,40.4385959,-3.6602598
FUENTES,FUE_04_0004,"SALAMANCA, PARQUE DE LAS AVENIDAS",CERCA DE ÁREA CANINA,40.4394896,-3.6599179
FUENTES,FUE_04_0005,"SALAMANCA, PARQUE DE LAS AVENIDAS",AVENIDA BRASILIA CV AVDA DE BADAJOZ,40.440112,-3.6602743
FUENTES,FUE_04_0006,"SALAMANCA, PARQUE DE LAS AVENIDAS","FRENTA AL Nº 42 DE AVENIDA DE BRASILIA, JUNTO ZONA INFANTIL",40.4417138,-3.6599521
FUENTES,FUE_04_0007,"SALAMANCA, JARDINES GREGORIO ORDOÑEZ",C/PRINCIPE DE VERGARA C/V C/ MALDONADO,40.4332578,-3.6787731
FUENTES,FUE_04_0008,"SALAMANCA, JARDINES GREGORIO ORDOÑEZ",C/PRINCIPE DE VERGARA C/V C/ MALDONADO,40.4330577,-3.6790078
FUENTES,FUE_04_0009,"SALAMANCA, PARQUE DE MARIA EVA DUARTE DE PERON",JUNTO A ZONA DEPORTIVA,40.4304716,-3.6680058
FUENTES,FUE_04_0010,"SALAMANCA, PARQUE DE MARIA EVA DUARTE DE PERON",C/DEL DOCTOR GÓMEZ ULLA 22,40.4306639,-3.6677244
FUENTES,FUE_04_0011,"SALAMANCA, PZA. DE PEÑASCALES",Sin información adicional,40.4239088,-3.6672283
FUENTES,FUE_04_0012,"SALAMANCA, PZA. AMERICA ESPAÑOLA","PARQUE SANCHO DAVILA, JUNTO ZONA INFANTIL",40.4293423,-3.6619988
FUENTES,FUE_04_0013,"SALAMANCA, PARQUE SANCHO DAVILA","C/SANCHO DÁVILA Nº 35, , JUNTO ZONA INFANTIL",40.4246688,-3.6608483
FUENTES,FUE_04_0014,"SALAMANCA, PARQUE SANCHO DAVILA",C/SANCHO DÁVILA Nº 21 POSTERIOR,40.4272341,-3.6611233
FUENTES,FUE_04_0015,"SALAMANCA, PZA. DE BURDEOS",Sin información adicional,40.4384836,-3.6647497
FUENTES,FUE_04_0016,"SALAMANCA, PZA.  SAN CAYETANO",C/ERASO Nº14,40.434204,-3.6705961
FUENTES,FUE_04_0017,"SALAMANCA, CALLE VELAZQUEZ 75",C/V CALLE PADILLA 22,40.4315037,-3.6837338
FUENTES,FUE_04_0018,"SALAMANCA, DIEGO DE LEON, 56",C/DIEGO DE LEON Nº56,40.4344473,-3.6775785
FUENTES,FUE_04_0019,"SALAMANCA, LANUZA",Sin información adicional,40.425501,-3.6654233
FUENTES,FUE_04_0020,"SALAMANCA, GTA. CAMPANAR",C/FRANCISCO NAVACERRADA Nº 48,40.431603,-3.6669982
FUENTES,FUE_04_0021,"SALAMANCA, CALLE LUIS CALVO Nº 7",PLAZA BOSTON Nº 4,40.4370846,-3.665867
FUENTES,FUE_04_0022,"SALAMANCA, VIZCONDE DE MATAMALA - RAMON DE AGUINAGA - RUFINO BLANCO",CALLE RUFINO BLANCO Nº 22,40.426779,-3.6654202
FUENTES,FUE_04_0023,"SALAMANCA, PZA.  SAN CAYETANO",C/AZCONA CV C/PILAR DE ZARAGOZA,40.4341302,-3.6700764
FUENTES,FUE_04_0024,"SALAMANCA, PARQUE DE MARIA EVA DUARTE DE PERON",Sin información adicional,40.4291502,-3.6687825
FUENTES,FUE_04_0025,"SALAMANCA, PZA. DE DALI",Sin información adicional,40.4242319,-3.6732967
FUENTES,FUE_04_0026,"SALAMANCA, JARDIN DE LA VIRGEN DEL PILAR",C/GENERAL PARDIÑAS CV C/JUAN BRAVO,40.4323235,-3.6779335
FUENTES,FUE_04_0027,"SALAMANCA, PASEO DE LA CASTELLANA Nº 58 (FTE Nº 64)",PASEO DE LA CASTELLANA Nº 58 (FTE Nº 64),40.4370207,-3.6898019
FUENTES,FUE_04_0028,"SALAMANCA, PASEO DE LA CASTELLANA Nº 22 (FTE Nº 22 EN EL BULEVAR)",PASEO DE LA CASTELLANA Nº 22 (FTE Nº 22 EN EL BULEVAR),40.429998,-3.6890582
FUENTES,FUE_04_0029,"SALAMANCA, PASEO DE LA CASTELLANA Nº 2 (FTE Nº 2 EN EL BULEVAR)",PASEO DE LA CASTELLANA Nº 2 (FTE Nº 2 EN EL BULEVAR),40.4266776,-3.6899086
FUENTES,FUE_04_0030,"SALAMANCA, PASEO DE LA CASTELLANA Nº 18 ",PASEO DE LA CASTELLANA Nº 18 ,40.4286717,-3.6893867
FUENTES,FUE_04_0033,"SALAMANCA, PASEO DE LA CASTELLANA Nº 8 (FTE Nº 8 EN EL BULEVAR)",PASEO DE LA CASTELLANA Nº 8 (FTE Nº 8 EN EL BULEVAR),40.4273744,-3.6896988
FUENTES,FUE_04_0035,"SALAMANCA, AVENIDA DE LOS TOREROS ",JUNTO A  LA PLAZA,40.432625,-3.6618744
FUENTES,FUE_04_0037,"SALAMANCA, ELVIRA Nº 11",ELVIRA Nº 11,40.4227054,-3.6652901
FUENTES,FUE_04_0038,"SALAMANCA, AVDA FELIPE II Nº 5",AVDA FELIPE II Nº 5,40.4241632,-3.6753595
FUENTES,FUE_04_0039,"SALAMANCA, PLAZA AMÉRICA ESPAÑOLA, 5",ENTRADA PARQUE SANCHO DÁVILA,40.4289538,-3.6615766
FUENTES,FUE_04_0040,"SALAMANCA, PARQUE RESIDENCIAL ISABEL II",CALLE RAMÓN AGUINAGA 2,40.4269937,-3.6650656
FUENTES,FUE_04_0041,"SALAMANCA, CALLE JUAN BRAVO CV CALLE CLAUDIO COELLO",Sin información adicional,40.4330836,-3.6854769
FUENTES,FUE_04_0042,"SALAMANCA, PILAR DE ZARAGOZA 91",JUNTO A ZONA INFANTIL. OJO COLOCAN TERRAZA BAR ALREDEDOR,40.4377756,-3.6741799
FUENTES,FUE_04_0043,"SALAMANCA, CALLE TOMAS LÓPEZ, 7 ",FRENTE AL Nº 7,40.426554,-3.6700565
FUENTES,FUE_04_0044,"SALAMANCA, PLAZA MANUEL BECERRA, 15",Sin información adicional,40.427935,-3.6681205
FUENTES,FUE_04_0045,"SALAMANCA, CALLE FRANCISCO SILVELA, 12 ",C/V CALLE FLORESTÁN AGUILAR ,40.4304404,-3.6704178
FUENTES,FUE_04_0046,"SALAMANCA, C/ FRANCISCO SILVELA 52 ",C/V C/ ALONSO HEREDIA ,40.4346184,-3.6742423
FUENTES,FUE_04_0047,"SALAMANCA, C/ FRANCISCO SILVELA Nº 73 ",C/V C/ GENERAL ORAÁ,40.4362007,-3.6763978
FUENTES,FUE_04_0048,"SALAMANCA, CALLE LA POVEDA Nº 1 ",C/V CALLE DEL PARRAL. CERCA DE ZONA INFANTIL,40.439128,-3.6661099
FUENTES,FUE_04_0049,"SALAMANCA, C/ BRESCIA, 21 ",C/V AV. BRASILIA,40.4366673,-3.6615718
FUENTES,FUE_04_0050,"SALAMANCA, AV. BAVIERA, 15","PARQUE DE BREOGÁN, JUNTO ZONA INFANTIL",40.4429756,-3.6615976
FUENTES,FUE_04_0051,"SALAMANCA, PARQUE SANCHO DÁVILA",ÁREA CANINA JUNTO FUENTE Nº 14,40.4273876,-3.6607702
FUENTES,FUE_04_0052,"SALAMANCA, AVENIDA BRUSELAS, 57",METRO PARQUE AVENIDAS,40.4395569,-3.6630516
FUENTES,FUE_04_0053,"SALAMANCA, AVENIDA BAVIERA, 2",FRENTE Nº2,40.4412537,-3.6647781
FUENTES,FUE_04_0054,"SALAMANCA, JARDÍN DE MARÍA PACHECO","CALLE ALCÁNTARA 24, JUNTO EDIFICIO CENTRO DEPORTIVO MUNICIPAL",40.4276012,-3.6737827
FUENTES,FUE_04_0055,"SALAMANCA, CALLE LÓPEZ DE HOYOS,  18",C/V SERRANO 122,40.4374259,-3.6861933
FUENTES,FUE_04_0056,"SALAMANCA, CALLE PILAR DE ZARAGOZA, 54 C C/V CALLE JOSÉ PICÓN",JARDÍN DE AURORA AUÑÓN,40.4357689,-3.6711947
FUENTES,FUE_04_0057,"SALAMANCA, CALLE ALCALÁ 62",JUNTO A LA CASA ÁRABE,40.4215896,-3.6824738
FUENTES,FUE_04_0058,"SALAMANCA, PLAZA BASILEA, 2",JUNTO ÁREA INFANTIL,40.437889,-3.6623437
FUENTES,FUE_04_0059,"SALAMANCA, PLAZA BOCANGEL",JUNTO APARACAMIENTO,40.4268028,-3.6628267
FUENTES,FUE_04_0060,"SALAMANCA, AVENIDA FELIPE II, 4",C/V C/ ALCALÁ,40.424165,-3.6767839
FUENTES,FUE_04_0061,"SALAMANCA, AVENIDA FELIPE II, 12",C/V C/ NARVAEZ,40.4238879,-3.6759608
FUENTES,FUEP_04_04_0045,"SALAMANCA, QUINTA DE LA FUENTE DEL BERRO",A. 6 · JARDÍN DE LA RÍA,40.4230973,-3.662523
FUENTES,FUEP_04_04_0046,"SALAMANCA, QUINTA DE LA FUENTE DEL BERRO",A. 6 · JARDÍN DE LA RÍA,40.423012,-3.6614954
FUENTES,FUEP_04_04_0066,"SALAMANCA, QUINTA DE LA FUENTE DEL BERRO",A. 7 · PEÑASCALES,40.4232549,-3.6630599
FUENTES,FUE_07_0002,"CHAMBERI, DOMENICO SCARLATTI, 4",Sin información adicional,40.4415208,-3.7165261
FUENTES,FUE_07_0003,"CHAMBERI, PARQUE DE SAN JOSE DE CALASANZ",CALLE JOAQUÍN MARÍA LÓPEZ,40.4376507,-3.7147454
FUENTES,FUE_07_0004,"CHAMBERI, TENIENTE ALCALDE PEREZ PILLADO ",TENIENTE ALCALDE PEREZ PILLADO ,40.4404562,-3.7069956
FUENTES,FUE_07_0006,"CHAMBERI, PO CASTELLANA, DE LA Nº:11",PASEO DE LA CASTELLANA IV,40.4274654,-3.6900423
FUENTES,FUE_07_0007,"CHAMBERI, PO CASTELLANA, DE LA Nº:19",PASEO DE LA CASTELLANA IV,40.4287733,-3.6896989
FUENTES,FUE_07_0008,"CHAMBERI, PO CASTELLANA, DE LA Nº:25",PASEO DE LA CASTELLANA IV,40.4298932,-3.689412
FUENTES,FUE_07_0009,"CHAMBERI, PO CASTELLANA, DE LA Nº:37",PASEO DE LA CASTELLANA IV,40.4342261,-3.6887629
FUENTES,FUE_07_0010,"CHAMBERI, PO CASTELLANA, DE LA Nº:31",PASEO DE LA CASTELLANA IV,40.4316923,-3.6889213
FUENTES,FUE_07_0011,"CHAMBERI, PO CASTELLANA, DE LA Nº:51",PASEO DE LA CASTELLANA IV,40.437048,-3.6903168
FUENTES,FUE_07_0013,"CHAMBERI, PO CASTELLANA, DE LA Nº:61",PASEO DE LA CASTELLANA IV,40.4394512,-3.6914254
FUENTES,FUE_07_0014,"CHAMBERI, PLAZA DE OLAVIDE",PLAZA DE OLAVIDE,40.4326156,-3.7011223
FUENTES,FUE_07_0016,"CHAMBERI, PARQUE ENRIQUE HERREROS",PARQUE ENRIQUE HERREROS,40.4389565,-3.7045016
FUENTES,FUE_07_0017,"CHAMBERI, PLAZA SAN JUAN DE LA CRUZ Nº:4",Sin información adicional,40.4410714,-3.6942305
FUENTES,FUE_07_0018,"CHAMBERI, PLAZA DEL CONDE DEL VALLE DE SÚCHIL, 2",JUNTO A ESTACIÓN DE BICIMAD,40.4302996,-3.7073192
FUENTES,FUE_07_0019,"CHAMBERI, PLAZA CHAMBERÍ S/N",PSO. EDUARDO DATO C/V STA. ENGRACIA,40.4325019,-3.697264
FUENTES,FUE_07_0020,"CHAMBERI, CL GARCÍA DE PAREDES, 21","FRENTE SUPERMERCADO ""FRESH""",40.4369107,-3.7009118
FUENTES,FUE_07_0021,"CHAMBERI, CALLE PONZANO, 108",CV RAIMUNDO FDEZ VILLAVERDE,40.4462689,-3.6986106
FUENTES,FUE_07_0022,"CHAMBERI, GLORIETA DE BILBAO Nº 5",CV CALLE LUCHANA,40.4292428,-3.7017839
FUENTES,FUE_07_0023,"CHAMBERI, CALLE BLASCO DE GARAY 31",C/V MELÉNDEZ VALDÉS (JARDINES CONCEJAL ALEJANDRO MUÑOZ REVENGA),40.4331017,-3.7117531
FUENTES,FUE_07_0024,"CHAMBERI, GLORIETA RUIZ JIMENEZ 4",C/V SAN BERNARDO,40.4299708,-3.7055411
FUENTES,FUE_07_0025,"CHAMBERI, GLORIETA QUEVEDO 6",C/V BRAVO MURILLO,40.4339569,-3.7044675
FUENTES,FUE_07_0026,"CHAMBERI, GLORIETA PINTOR SOROLLA 1",C/V SANTA ENGRACIA 71,40.4346832,-3.6987708
FUENTES,FUE_07_0027,"CHAMBERI, CALLE RUBEN DARIO 5",C/V ALMAGRO,40.432686,-3.6913004
FUENTES,FUE_07_0028,"CHAMBERI, CALLE BRETON DE LOS HERREROS 46",C/V FERNÁNDEZ DE LA HOZ,40.4393278,-3.6945225
FUENTES,FUE_07_0029,"CHAMBERI, GLORIETA CUATRO CAMINOS 1",C/V BRAVO MURILLO,40.4465508,-3.7040481
FUENTES,FUE_07_0030,"CHAMBERI, AVENIDA REINA VICTORIA 55",C/V GUZMÁN EL BUENO,40.4463268,-3.7123684
FUENTES,FUE_07_0031,"CHAMBERI, PARQUE JOSÉ LUIS SAMPEDRO",C/ GALILEO 35,40.4335104,-3.7111462
FUENTES,FUE_07_0032,"CHAMBERI, PARQUE JOSÉ LUIS SAMPEDRO",C/ GALILEO 35,40.4334116,-3.71054
FUENTES,FUE_07_0033,"CHAMBERI, C/ FUENCARRAL 133",JUNTO ZONA INFANTIL,40.4317077,-3.7036459
FUENTES,FUE_07_0034,"CHAMBERI, RAIMUNDO FERNANDEZ VILLAVERDE 50",JUNTO PARQUE INFANTIL,40.4460635,-3.6966825
FUENTES,FUE_07_0035,"CHAMBERI, RAIMUNDO FERNANDEZ VILLAVERDE 50",C/V MODESTO LA FUENTE,40.4459178,-3.6961575
FUENTES,FUE_07_0036,"CHAMBERI, CALLE SANTA ENGRACIA 78",C/V GARCÍA PAREDES,40.4367929,-3.6994018
FUENTES,FUE_07_0037,"CHAMBERI, AV. FILIPINAS 7",CERCA DE ENTRADA CENTRO DEPORTIVO GO FIT VALLEHERMOSO,40.4406787,-3.7086734
FUENTES,FUE_07_0038,"CHAMBERI, CALLE SANTA ENGRACIA 120",Sin información adicional,40.4408461,-3.7011749
FUENTES,FUE_07_0039,"CHAMBERI, CALLE LUCHANA, FRENTE Nº23",PLAZA DE LOS CHISPEROS DE CHAMBERÍ,40.4306195,-3.6997438
