TIPO,NOMBRE,DIRECCION,DESCRIPCION,LATITUD,LONGITUD
PARQUES_Y_JARDINES,Jardines Gregorio Ordóñez,"CALLE PRINCIPE DE VERGARA 68, MADRID, 28006","Jardines en memoria de Gregorio Ordóñez. Este cuidado jardín presenta dos amplias zonas infantiles, para diversión de los pequeños y posee un pequeño estanque en el centro del mismo rodeado de distintas especies de palmeras.",40.43346186779773,-3.6785954778654113
PARQUES_Y_JARDINES,Jardines San Francisco el Grande,"AVENIDA GRAN VIA DE SAN FRANCISCO 25, MADRID, 28005","Este jardín se encuentra en el solar de 4.200 metros cuadrados donde estuvo el antiguo convento de San Francisco, demolido a mediados del siglo XX por encontrarse en ruinas. Hasta 2007 no tuvo ningún uso y fue en ese año cuando el Ayuntamiento de Madrid convirtió el espacio en un jardín temático de dalias, la antigua Dalieda de San Francisco. Posteriormente, en 2016,  se modificó  la composición de las plantaciones y se apostó por los rosales debido a su gran capacidad de adaptación al clima madrileño y a su mayor floración. En la actualidad los Jardines de San Francisco el Grande cuenta con 21 variedades de rosales que alcanzan su máxima esplendor en los meses de mayo y junio. El parque encuentra en una zona denominada &amp;ldquo;Las Vistillas&amp;rdquo; por ser la más alta del Madrid de los Austrias y su mirador se ha convertido en uno de los lugares más transitados para ver puestas de sol en la ciudad. Antecede al mirador el grupo escultórico San Isidro Labrador, obra en la que se representa al patrón de Madrid recostado y a un ángel que posa una mano sobre su cabeza para inducirle a dormir. Esta fue una de las esculturas que realizó Santiago Costa en 1952 para homenajear al arquitecto Juan de Villanueva. Su emplazamiento original fue la fuente de la glorieta de San Vicente, donde estuvo hasta 1995.",40.41002249621306,-3.714419912786956
PARQUES_Y_JARDINES,Jardines de Andrés Saborit,"CALLE RAIMUNDO FERNANDEZ VILLAVERDE 32, MADRID, 28003","Jardines situados en la calle Raimundo Fernández Villaverde, entre las calles Alenza y Alonso Cano. Esta gran zona verde está dotada de áreas infantiles, equipamientos de entrenamiento para mayores y zonas estanciales. Se encuentra rodeada de césped, árboles de sombra y de pequeños grupos de macizos arbustivos. Hasta abril de 2018 estos jardines eran conocidos como Jardines de Raimundo Fernández Villaverde. Con el cambio de denominación se ha instalado una placa en homenaje a Andrés Saborit, concejal socialista en el Ayuntamiento de Madrid durante la II República y artífice de grandes logros sociales como la apertura de la Casa de Campo, la ampliación del Metro, la municipalización de servicios y la construcción de unas 200 escuelas infantiles.",40.44613326792272,-3.698969929557834
PARQUES_Y_JARDINES,Jardines de El Buen Retiro,"PLAZA INDEPENDENCIA 7, MADRID, 28001","Jardín Histórico Artístico creado en el siglo XVII. Es la zona verde más importante del centro urbano, tanto por su extensión como por su riqueza vegetal. La diversidad de sus trazados corresponde con las intervenciones realizadas a lo largo de sus diferentes etapas históricas. Destacan el Parterre de estilo francés; el Estanque Grande, las Rías y Lagos artificiales; el Campo Grande de estilo paisajista donde se ubican los Palacios de Velázquez y Cristal; los jardines de Cecilio Rodríguez caracterizado por sus cipreses recortados, setos de boj y pérgolas y la Rosaleda; los jardines de los Planteles formados por cuadros de bosquetes delimitados por setos y el Bosque del Recuerdo. Este parque se incluye entre las visitas recomendadas a turistas que visitan la ciudad, según la web oficial de turismo de Madrid.  Limitación de acceso y reordenación de uso de vehículos a motor en los Jardines del Buen Retiro, Decreto 619 de 20 de diciembre de 2007.   Otras denominaciones: Parque del Retiro. El Retiro",40.41964087412762,-3.68793370943788
PARQUES_Y_JARDINES,Jardines de Gloria Fuertes,"CALLE MADRE DE DIOS 2, MADRID, 28016","Jardín dedicado a la poetisa y escritora de cuentos infantiles Gloria Fuertes, que fue vecina del barrio. Limitado por franjas de césped con pinos, cedros y plátanos que rodean una zona de juegos.",40.461517637696026,-3.675117900731762
PARQUES_Y_JARDINES,Jardines de José Luis Jiménez Manso,"CALLE CAMINO DE LOS VINATEROS 1, MADRID, 28030","Parque emblemático de la zona al ser uno de los más antiguos del distrito de Moratalaz. Se compone de arbolado maduro y de numerosos parterres de césped, aunque recientemente se ha plantado arbolado nuevo.",40.410944943237865,-3.660501733743551
PARQUES_Y_JARDINES,Jardines de Perón,"AVENIDA GENERAL PERON 21, MADRID, 28020",Jardines situados en la avenida General Perón entre las calles Orense y Reina Mercedes con grandes superficies de pradera y arbustos. Tiene zonas estanciales e infantiles y un área canina.,40.45257591499544,-3.6957817548357257
PARQUES_Y_JARDINES,Jardines de Sabatini,"CALLE BAILEN 2, MADRID, 28013","Los Jardines de Sabatini se encuentran situados frente a la fachada norte del Palacio Real, entre la calle de Bailén y la Cuesta de San Vicente, en una terraza colgada sobre el Campo del Moro. Se trata de un jardín de estilo neoclásico acorde con el palacio.    El jardín se divide en tres terrazas: la inferior, marcada por la simetría de los parterres a ambos lados de una gran lámina de agua a modo de espejo con dos surtidores, y enmarcada por cuatro cuadros con sendas fuentes rodeadas por figuras de seto; la segunda, que forma un impresionante balcón sobre la primera, en donde se domina la totalidad de la fachada norte del Palacio y que bajo un bosque de pinos se extiende hacia la Cuesta de San Vicente, en donde se encuentra una nueva escalera de doble entrada que salva el desnivel hasta la calle; y la tercera, en una altura superior y al este de la segunda terraza, con un juego de parterres y grandes cedros.  Este parque se incluye entre las visitas recomendadas a turistas que visitan la ciudad, según la web oficial de turismo de Madrid.",40.41991128710114,-3.713185308888602
PARQUES_Y_JARDINES,Jardines de San Fernando,"AVENIDA ALBERTO ALCOCER 9, MADRID, 28036","Jardines ubicados alrededor de la Parroquia de San Fernando, delimitados por la avenida de Alberto Alcocer, las calles Doctor Fleming, Juan Hurtado de Mendoza y Juan Ramón Jiménez. Dispone de superficies de césped, macizos arbustivos, dos zonas infantiles y zonas estanciales. Destacan los ejemplares de ciprés de gran valor ornamental. En el parque hay un monumento dedicado a la Infancia.",40.45978849094378,-3.687352342212426
PARQUES_Y_JARDINES,Jardines de la Avenida de Brasil,"AVENIDA BRASIL 31, MADRID, 28020","Son pequeñas zonas ajardinadas que se ubican a lo largo de la Avenida de Brasil.  Estos jardines están compuestos por grandes superficies de pradera y arbolado de sombra. Están dotados de zonas estanciales, áreas infantiles, zonas caninas y espacios peatonales con pérgolas. Dentro de estos jardines se encuentran los Jardines de la Organización Mundial del Turismo con una placa informativa y una fuente ornamental.",40.45870695300224,-3.6934625569379382
PARQUES_Y_JARDINES,Jardines de la Basílica,"CALLE BASILICA 15, MADRID, 28020",Situados frente a la Basílica Hispanoamericana de la Merced y junto al colegio Patrocinio de San José. Zona principalmente pavimentada aunque tiene también gran superficie de pradera; se caracteriza por sus amplias zonas estacionales.,40.44903638127448,-3.695615530710886
PARQUES_Y_JARDINES,Jardines de la Plaza Conde del Valle de Suchil,"CALLE RODRIGUEZ SAN PEDRO 3, MADRID, 28015","Plaza rectangular pavimentada con macizos de arbustos y dotada con dos áreas infantiles, área canina y fuente ornamental.",40.43137597367309,-3.7064685006782208
PARQUES_Y_JARDINES,Jardines de la Plaza de Chamberí,"PLAZA CHAMBERI 1, MADRID, 28010","Plaza pavimentada situada junto a la Junta del Distrito en la que podemos encontrar área infantil, fuente ornamental y kiosco.",40.43285328749453,-3.697594475998512
PARQUES_Y_JARDINES,Jardines de la Plaza de Olavide,"PLAZA OLAVIDE 16, MADRID, 28010","Plaza circular pavimentada situada entre bloques, dotada de área infantil y aparatos de entrenamiento de mayores.",40.43247362678542,-3.700785562182429
PARQUES_Y_JARDINES,"Jardines de la Plaza de Oriente, Lepanto y Cabo Noval","CALLE BAILEN 17, MADRID, 28013","La plaza de Oriente, de forma rectangular cerrada en hemiciclo, está presidida por el Teatro Real y se abre en una gran perspectiva enmarcando la fachada oriental del Palacio Real. Se distinguen tres espacios diferenciados: el parterre central, que se desarrolla en el entorno del famoso grupo escultórico ecuestre de Felipe IV, y los jardines del cabo Noval y de Lepanto, que se sitúan a ambos lados.    El parterre central sigue el modelo decimonónico de jardinería: seto de complicados diseños geométricos y figuras topiarias (ejemplares perfilados con diversas formas), todo ello guardando simetría con un eje principal. Se utilizan: para el seto el boj, en las esquinas tejos y entre ellos cipreses. Se encuentra un ejemplar de magnolio en el centro de cada figura, y dos fuentes artísticas en los cuadros más cercanos a palacio. Los jardines de Lepanto y Cabo Noval son espacios abiertos y ajardinados para el descanso y recreo de los visitantes. La cantidad de árboles hace de ambos jardines un lugar idóneo para la estancia y el ocio. Los jardines del Cabo Noval, integrados principalmente por plantaciones de plátanos, ocupan la parte septentrional de la Plaza de Oriente, junto a la calle de San Quintín. Los jardines de Lepanto se encuentran en la parte meridional de la plaza y su composición es muy similar.",40.41835486065351,-3.712838830603048
PARQUES_Y_JARDINES,Jardines de la Plaza de la Villa de París,"CALLE GENERAL CASTAÑOS 6, MADRID, 28004","Plaza formada por dos amplios espacios estanciales, con zonas ajardinadas y arboladas ante el Tribunal Superior de Justicia, antiguo convento de Santa Bárbara. Dotada de zona de juegos infantiles y con grandes espacios en terrizo para el paseo de los ciudadanos.",40.42620255233654,-3.693446898367585
PARQUES_Y_JARDINES,Jardines de la Vega,"CUESTA VEGA 1, MADRID, 28013","En la Cuesta de la Vega, bajo la catedral de la Almudena, se encuentran dos zonas ajardinadas diferencias. Por un lado, están los Jardines de Azorín que deben su nombre al escritor José Martínez Ruiz &amp;ldquo;Azorín&amp;rdquo; y por otro, el Jardín de la Glorieta de Boccherini que alberga un busto dedicado al músico italiano Luigi Boccherini. Ambos jardines están compuestos en su mayor parte por praderas y macizos de rosales, si bien en el Jardín de Boccherini también hay grupos de palmáceas. Estos recintos ajardinados se sitúan sobre lo que en el pasado fue la primera puerta de Madrid &amp;ldquo;la puerta de la Vega&amp;rdquo; que abría la ciudad hasta la vega. Se cree que es la puerta por la que entró el conquistador Alfonso VI. En 1708 se construyó una muralla en la que se colocó un medallón de la Virgen de la Almudena y cuya situación coincide con el lugar que ocupa la Catedral de la Almudena.",40.41476219795408,-3.71544111428354
PARQUES_Y_JARDINES,Jardines de la calle Teresita González Quevedo,"PLAZA SAN AMARO 4, MADRID, 28020",Situados en la confluencia de la calle Capitán Haya con Teresita González de Quevedo. Zona de praderas con distintas especies de árboles y arbustos.,40.45558642017734,-3.697027564909845
PARQUES_Y_JARDINES,Jardines de las Vistillas,"CALLE MORERIA 12, MADRID, 28005","Jardín de 1,74 hectáreas que es usado por los madrileños para sentarse en verano en cualquiera de sus terrazas. Fue diseñado en los años 30 y 40 por los arquitectos Fernando García Mercadal (1932) y Manuel Herrero Palacios (1945) que configuraron un primer cuerpo rodeado por un murete al que se accede por unas escaleras, una zona estancial con árboles, fuente central y señalados macizos con césped, pasos de granito y farolas y un busto de Zuloaga. Denominado de las Vistillas por sus magníficas vistas de la ribera del Manzanares y la Casa de Campo, es lugar, además, de famosas verbenas y festejos populares.",40.41281392212301,-3.7143597156687056
PARQUES_Y_JARDINES,Jardines del Arquitecto Ribera,"CALLE BARCELO 2, MADRID, 28004","Estos jardines se estructuran en cuatro zonas estanciales y están diseñados para facilitar la conexión entre las calles Barceló y Beneficencia. Una de las zonas está pavimentada y las otras tres son de terrizo. Estas últimas están separadas entre sí por senderos peatonales pavimentados y ajardinados. Las tres superficies terrizas disponen de arbolado de sombra. Una de ellas es la zona de Juegos de Agua, otra la Explanada (zona estancial central) y por último encontramos la zona de juegos infantiles con taludes ajardinados frente a la calle Beneficencia.    El arbolado de sombra se encuentra tanto en los laterales de las tres zonas terrizas como en los cuatro alcorques circulares elevados que dan a la calle Barceló. En la zona ajardinada ubicada frente al colegio Isabel la Católica se han plantado árboles frutales, mientras que frente al jardín del Museo de Historia el arbolado es singular. Los Jardines del Arquitecto Ribera también cuentan con arbustos y tapizantes. Dentro de estos jardines se ha reservado un espacio para alojar un huerto urbano de uso escolar para el colegio Isabel la Católica.",40.42640449792336,-3.700298174862196
PARQUES_Y_JARDINES,Jardines del Descubrimiento,"CALLE GOYA 2, MADRID, 28001","Los Jardines del Descubrimiento se encuentran en el centro neurálgico de la capital, delimitados por las calles Goya, Serrano, de la Armada Española y el eje Castellana-Recoletos. La Antigua Casa de la Moneda y el Timbre ocupaba estos terrenos hasta los años 70, fecha en la que se remodeló la plaza y se crearon los jardines y el antiguo Centro Cultural de la Villa. En la actualidad es un lugar de referencia para los madrileños ya que su excelente ubicación los convierte en uno de los principales escenarios para la celebración de todo tipo de eventos: actos de conmemoración del Día de la Hispanidad, ferias, manifestaciones y encuentros deportivos.  El diseño original  de la jardinería  presentaba grandes áreas geométricas de césped en la zona  central de la plaza, acompañadas de macizos de flor y ejemplares arbóreos de gran porte como pinos, cipreses y magnolios en las franjas laterales. Debido a las filtraciones producidas en las instalaciones subterráneas y al gasto de agua para su mantenimiento, en 2006 las praderas se sustituyeron por grava ornamental. En la actualidad bajo su superficie se encuentran el aparcamiento público Plaza de Colón y el Fernán Gómez Centro Cultural de la Villa.  Los Jardines del Descubrimiento deben su nombre a Cristóbal Colón. Un gran monumento neogótico con la estatua de Cristóbal Colón ha presidido los jardines desde 1972 a 2009, año en el que con motivo de las obras de remodelación del eje Prado-Recoletos fue de nuevo trasladado a la que fuera su ubicación inicial, el centro de la rotonda de la plaza de Colón. En el lateral de la calle Serrano se sitúa el Monumento al Descubrimiento de América compuesto por cuatro grandes bloques de hormigón con grabados y textos de la historia del Descubrimiento. En estos céntricos jardines ondea desde 2002 la bandera más grande de España, con 294 metros cuadrados -21 x 14- de longitud y 35 kilos de peso. Está sostenida por un mástil de 50 metros de altura que gira en la dirección del viento lo que impide que se enrolle. Mirando a esta bandera se colocó en 2014 una estatua en honor al almirante Blas de Lezo.  Otras denominaciones: Jardines de la Plaza Colón",40.42518540300912,-3.6887800207651495
PARQUES_Y_JARDINES,Jardines del Doctor Fleming,"CALLE DOCTOR FLEMING 1, MADRID, 28036","Jardines situados junto a bloques de viviendas en la Calle Doctor Fleming, que presentan mayoritariamente praderas delimitadas por borduras de seto.",40.45454215758879,-3.6893863385035774
PARQUES_Y_JARDINES,Jardines del Mundial. Castellana,"PASEO CASTELLANA 142, MADRID, 28046","Jardineras de obra con especies arbóreas específicas de diferentes países. Parque conmemorativo de los Mundiales de Fútbol 1982, posee especies originales de otros países.",40.4530917282714,-3.689383308286706
PARQUES_Y_JARDINES,Jardines del Príncipe de Anglona,"PLAZA PAJA 6, MADRID, 28005","Pequeño jardín histórico, situado en pleno centro de Madrid. Antiguamente era el lugar de recreo de los distintos propietarios del palacio contiguo. El jardín aún conserva su estructura original, pese a haber sido reformado en varias ocasiones. Los caminos de ladrillos están aparejados a sardinel (albañilería hecha con los ladrillos colocados de canto, en posición vertical, adosados por sus caras). Dentro del jardín destacan varios arbustos singulares y una gran pérgola de rosales trepadores. El Jardín original data aproximadamente del año 1750. Su aspecto actual se debe al encargo que en 1920 realizaron los Marqueses de la Romana al pintor y diseñador de jardines Javier de Winthuysen. La última restauración la realizó la paisajista toscana Lucía Serredi en el año 2002.",40.41341734909077,-3.711466649831885
PARQUES_Y_JARDINES,Jardín Botánico de Pradolongo,"AVENIDA RAFAELA YBARRA 0, MADRID, 28026","En la zona central del parque de Pradolongo, frente al lago, se sitúa el jardín botánico. Son más de ocho mil metros cuadrados distribuidos en plazas y parterres, con numerosos carteles informativos y fichas botánicas con la descripción de las principales especies vegetales allí presentes.",40.37374599660716,-3.712180056298639
PARQUES_Y_JARDINES,Jardín Concejal Alejandro Muñoz Revenga,"CALLE MELENDEZ VALDES 32, MADRID, 28015",Plaza pavimentada con gran superficie de arbustos y una zona infantil.,40.43304334055123,-3.712227582685096
PARQUES_Y_JARDINES,Jardín Doña Concha Piquer,"PASEO IMPERIAL 93, MADRID, 28005","Pequeño parque con dos zonas infantiles y varias zonas estanciales, una gran densidad de arbolado que da cobijo a los visitantes en los calurosos días de verano.",40.402080397498985,-3.714965086287463
PARQUES_Y_JARDINES,Jardín Fachada Pirámides I,"PASEO ACACIAS 60, MADRID, 28005",Pequeño parque situado entre dos vías importantes de Madrid como son la calle Toledo y el paseo de las Acacias.,40.40148810908036,-3.713132255123738
PARQUES_Y_JARDINES,Jardín Glorieta de Azorín,"CUESTA VEGA 3, MADRID, 28013","Pequeño jardincillo situado en la denominada Cuesta de la Vega, bajo la Catedral de la Almudena. Le debe su nombre al escritor José Martínez Ruiz 'Azorín'.",40.41475767390192,-3.716171835785045
PARQUES_Y_JARDINES,Jardín Jazmín,"CALLE ROQUETAS DE MAR 10, MADRID, 28033","Parque formado en su totalidad por pradera natural; plantaciones arbóreas y herbáceas en su mayoría, situado en la cubierta de las Cocheras de metro. Debido a sus limitaciones en suelo se ha diseñado con un claro enfoque sostenible, con plantas adaptadas al escaso espesor del suelo y resistentes a la sequía con un diseño en bandas y riego automático por goteo en la totalidad del parque.   Otras denominaciones Parque de Cocheras",40.481785094079584,-3.660098332215654
PARQUES_Y_JARDINES,Jardín Palacio O'Reilly,"PLAZA CRUZ VERDE 2, MADRID, 28005","Pequeño jardín interior, dotado de varias especies arbóreas destinadas al uso culinario,  donde puedes esconderte de la bulliciosa ciudad. Utilizado antiguamente como huerto por las hermanas Bernardas(S. XVII).   Otras denominaciones Huerto de las Monjas",40.41418990040181,-3.7118283820550775
PARQUES_Y_JARDINES,Jardín de Embajadores M-30,"CALLE PUERTO DE LA CRUZ VERDE 29, MADRID, 28045","Pequeño parque limítrofe con la M-30, de diseño moderno, cuya función es actuar como barrera acústica.          Otras denominaciones: Madroños",40.38418473435094,-3.685817452497564
PARQUES_Y_JARDINES,Jardín de Larra,"CALLE FACTOR 7, MADRID, 28013","Zona verde de ubicación privilegiada, ya que se encuentra frente a la Catedral de la Almudena y el Palacio Real. En forma de talud, separa las distintas alturas a las que se encuentran las calles que lo delimitan, Bailén y Factor, atravesándolo un pequeño camino terrizo.",40.41631909566782,-3.712793771176405
PARQUES_Y_JARDINES,Jardín de la Colonia Congosto,"CALLE CONGOSTO 70, MADRID, 28031",Área ajardinada formada por una gran zona estancial localizada en torno a la cafetería existente. El parque presenta gran cantidad de macizos arbustivos así como ejemplares arbóreos bien establecidos.  Otras denominaciones   Parque Congosto Parque Camino Congosto,40.37089825532696,-3.618365854832584
PARQUES_Y_JARDINES,Jardín de las Bellas Artes,"PASEO CASTELLANA 78, MADRID, 28046",El jardín está situado junto al Paseo de la Castellana. Dispone de una fuente ornamental con un monumento en memoria de Isabel La Católica. Está compuesto de taludes de pradera y arbolado de gran porte y de gran valor tanto botánico como ornamental (secuoias). El jardín está situado entre el Paseo de la Castellana y la fachada principal del Museo de Ciencias Naturales y la Universidad Politécnica de Industriales. Otras denominaciones: Jardín Museo Nacional de Ciencias Naturales,40.4390037057741,-3.690548165248536
PARQUES_Y_JARDINES,Jardín del Bulevar de Peña Gorbea,"CALLE PEÑA GORBEA 17, MADRID, 28053",,40.3957812018463,-3.667034672467617
PARQUES_Y_JARDINES,Jardín del Maestro Padilla,"CALLE SAN ALEJANDRO 1, MADRID, 28005","Jardín urbano, distribuido en  dos alturas, donde predomina el pino piñonero y el tilo, con una pequeña zona infantil, muy próximo al Río Manzanares.",40.404491323444994,-3.721330823979868
PARQUES_Y_JARDINES,Jardín del Templo de Debod,"CALLE FERRAZ 1, MADRID, 28008","Jardines diseñados para acompañar al templo donado por Egipto a España en 1968, y que fue instalado en el lugar ocupado por el antiguo Cuartel de la Montaña. Con dos grupos de cipreses ejemplares, a modo de grandes columnas de recibimiento, se divide en dos ámbitos a derecha e izquierda. El templo se sitúa con orientación E-O, acompañado por dos sencillas láminas de agua sin caños ni surtidores, que forman una figura troncocónica de reminiscencias egipcias con dos anchos paseos laterales que desembocan en un balcón. Desde aquí se puede contemplar la famosa cornisa del Manzanares, con el Palacio Real, la Casa de Campo y los atardeceres más hermosos de Madrid. Los parterres del jardín, que se desarrollan a ambos lados, sólo realizan la función de marco vegetal de esta atractiva perspectiva, y se cierran en sí mismos con plazas, plátanos de alineación y grupos de palmitos y plantas mediterráneas sobre las praderas.      Este parque se incluye entre las visitas recomendadas a turistas que visitan la ciudad, según la web oficial de turismo de Madrid..",40.42425096551599,-3.716531855540272
PARQUES_Y_JARDINES,Jardín del paseo Federico García Lorca,"PASEO FEDERICO GARCIA LORCA 21, MADRID, 28031",Paseo peatonal ajardinado en el que destaca la alineación de acacia de tres púas así como las fuentes ornamentales y el monumento a Federico García Lorca.  Otras denominaciones: Bulevar del Paseo Federico García Lorca,40.37740868500615,-3.620640036186304
PARQUES_Y_JARDINES,Jardín el Torero,"CALLE TORERO 6, MADRID, 28026",Zona verde formada por zonas terrizas y praderas de césped comunicadas entre sí por caminos adoquinados. Cuenta con dos pistas deportivas y una zona infantil. En el parque se pueden encontrar diversas especies arbóreas pero se observa un notable predominio de coníferas.,40.39218269145896,-3.7056345651289417
PARQUES_Y_JARDINES,Jardín histórico El Capricho de la Alameda Osuna,"PASEO ALAMEDA DE OSUNA 25, MADRID, 28042","Las características naturales y artísticas del jardín 'El Capricho', permiten disfrutar de un entorno lleno de sensaciones y colmado de historias en cada uno de sus rincones. Artistas ilustrados construyeron pabellones, trazaron recorridos, dispusieron láminas de agua y crearon estancias para conseguir aunar belleza, grandeza y singularidad y representar para el espectador, la fiesta, el juego, el amor y los trabajos de la naturaleza.  Se caracteriza por los bosquetes de lilos y de árboles del amor que proporcionan un hermoso colorido primaveral al jardín. En sus praderas y paseos se observan notables ejemplares de robles, pinos, cipreses, tejos, cedros, plátanos y castaños de indias. Esta riqueza vegetal alberga una fauna muy variada, destacando entre las aves: mirlos, palomas torcaces, pitos reales, herrerillos, petirrojos, ruiseñores, etc., además de cisnes negros y ánades y entre los mamíferos: ardillas rojas, musarañas, ratones comunes y ratones de campo.     Este parque se incluye entre las visitas recomendadas a turistas que visitan la ciudad, según la web oficial de turismo de Madrid. El parque es accesible a personas con movilidad reducida en las partes principales del mismo.",40.45446361509569,-3.600096436030348
PARQUES_Y_JARDINES,Palacio de Cristal de la Arganzuela: Invernadero,"PASEO CHOPERA 10, MADRID, 28045","El Invernadero de Arganzuela está situado en el Paseo de la Chopera, junto al río Manzanares. Es un edificio que forma parte del conjunto arquitectónico del histórico Matadero Municipal y del Mercado de Ganados. Fue proyectado y construido por el arquitecto Don Luis Bellido y González entre los años 1908 y 1928. Este recinto es conocido popularmente como 'Nave de las Patatas' y fue restaurado y rehabilitado para su uso como Invernadero en el año 1992. La remodelación del edificio le ha situado en una posición de relevancia dentro de la arquitectura industrial. Se tomó como modelo los valiosos invernaderos decimonónicos contenidos en los parques de Viena o Londres, así como toda la Arquitectura del Hierro representativa del s. XIX. El Invernadero Palacio de Cristal, está distribuido en un escenario central y cuatro espacios cerrados que representan microclimas diferentes, albergando cuatro clases diferentes de plantas: dos tropicales, uno subtropical y uno desértico. También dispone de láminas de agua, fuentes, rías y acuarios poblados de peces de diferente hábitat.",40.3933877847248,-3.698565632659468
PARQUES_Y_JARDINES,Parque Agustín Rodríguez Sahagún,"PASEO DIRECCION 301, MADRID, 28029","El Parque Agustín Rodríguez Sahagún ocupa una gran extensión de 18 hectáreas. Está compuesto principalmente por praderas y una gran variedad de especies arbóreas, tanto frondosas como coníferas. Está dotado de varias zonas estanciales, áreas infantiles, de mayores y caninas. A lo largo de su superficie se distribuyen diferentes instalaciones deportivas, entre ellas un campo de fútbol reglado. El parque tiene una fuente ornamental en la que se ha incorporado un reloj de agua. Asimismo, dispone de un auditorio y  un carril bici  transcurre por gran parte de su superficie. La zona verde más antigua del parque está ubicada entre la calle Marqués de Viana y la calle Capitán Blanco Argibay y anteriormente se llamaba Parque de la Huerta del Obispo.  .",40.47022952429582,-3.7038792453996394
PARQUES_Y_JARDINES,Parque Alcalde Jesús Pérez Quijano,"CALLE LADERA DE LOS ALMENDROS 0, MADRID, 28032","Zona verde localizada en el distrito de Vicálvaro que discurre paralela a la M-40. Posee zonas deportivas para mayores, zonas infantiles y un largo carril bici que lo recorre. En 2020 se ha remodelado creando nuevos paseos y caminos, dotado de más espacios ajardinados, más áreas caninas y mejorado los sistemas de riego y drenaje. Dispone de un circuito que atraviesa el parque de sur a norte y del que nacen caminos secundarios que conectan con las diferentes dotaciones: áreas infantiles, caninas, deportivas o estanciales.   Para aislar de los efectos negativos que genera el tráfico de la M-40, se ha realizado una plantación lineal a modo de pantalla vegetal. Esta cortina verde de 700 metros es de doble alineación. La primera fila la ocupan cipreses, un arbolado de hoja perenne y crecimiento rápido y la segunda arbustos de buen porte y desarrollo frondoso como arces rojos, tuyas orientales y azahares de China. Esta pantalla, además de proteger de la contaminación atmosférica y visual, sirve de guía y orientación a los vecinos, ya que permite identificar el perímetro del parque. En mayo de 2018 la Junta de Gobierno de la Ciudad aprobó el cambio de denominación para homenajear a Jesús Pérez Quijano, alcalde de Vicálvaro cuando era municipio independiente de Madrid. Hasta ese momento era el Parque Valdebernardo M-40.  Otras denominaciones: Parque Norte de Valdebernardo",40.40418961057298,-3.622901144863193
PARQUES_Y_JARDINES,Parque Alfredo Kraus,"CALLE MAR ADRIATICO 5, MADRID, 28033","El parque Alfredo Kraus se encuentra localizado entre la calle Mar Adriático y Ayacucho, muy cerca de la glorieta de Mar de Cristal. Es un parque familiar, que cuenta con una superficie de 3,8 hectáreas, repartida entre zonas ajardinadas -1100 m2 de césped y más de 800 árboles-, 3 áreas de recreo y grandes avenidas pavimentadas. Periódicamente, este parque acoge diversos mercados locales y eventos.",40.47098300036034,-3.639325156722205
PARQUES_Y_JARDINES,Parque Almansa,"CALLE ALMANSA 97, MADRID, 28040",Parque emblemático de la zona al ser uno de los más antiguos del distrito. Se compone de arbolado maduro y de parterres de césped abundantes; aunque se ha plantado arbolado nuevo. Es de gran uso por la juventud de la zona universitaria cercana y por los vecinos. Destaca que su perímetro está compuesto por una valla metálica con varias puertas principales y la ubicación de una caseta de mantenimiento.,40.449252672650985,-3.7133420888843114
PARQUES_Y_JARDINES,Parque Aluche,"CALLE TEMBLEQUE 45, MADRID, 28024","El Parque de Aluche está situado en el centro del barrio, al que divide de norte a sur. Se inauguró el 25 de julio de 1973. Presenta dos zonas separadas por la calle Illescas. En la franja sur se ubica una ría que sigue el cauce del antiguo arroyo de Aluche, y en sus alrededores se sitúan bloques de granito traídos de la sierra de Guadarrama. En el parque existen diversas instalaciones deportivas, entre las que se encuentran campos de fútbol, baloncesto, pista de patinaje y de petanca, así como espacios para juegos infantiles y un área canina en la zona norte. También dispone de un auditorio.   La vegetación arbórea es variada, distribuida en rodales de pinos y franjas de chopos, liquidámbar y carpes formando pantallas exteriores. Bordeando la ría y en zonas estanciales hay otras especies como cedros, cipreses, ginkgos, álamos, acacias, tilos, etc.   En el lateral correspondiente a la calle Valmojado, discurre un tramo de carril bici.",40.39432035941884,-3.7592814565910553
PARQUES_Y_JARDINES,Parque Aluche - Poblados,"CALLE GUAREÑA 22, MADRID, 28044","Parque muy céntrico del distrito que cuenta con mucha sombra, agradables zonas de descanso, praderas, fuentes, fútbol sala, zonas infantiles y petancas.",40.38543450752234,-3.765190215590101
PARQUES_Y_JARDINES,Parque Alzola,"CALLE BEASAIN 2, MADRID, 28041","Este parque se encuentra localizado entre la Avenida Rafaela Ybarra y la calle Guetaria, cuenta con praderas de césped y macizos arbustivos y en su parte lateral tiene una amplia zona terriza con arbolado. Las distintas partes del parque se encuentran comunicadas mediante un camino principal de adoquín que lo atraviesa de un extremo a otro. Cuenta en su parte central con una zona infantil cercana a una plaza estancial rodeada de rosales.",40.36716919688689,-3.7136655626692887
PARQUES_Y_JARDINES,Parque Antonio Pirala,"CALLE ANTONIO PIRALA 8, MADRID, 28017","Este parque, cuyo diseño corrió a cargo de la arquitecta Myriam Silber Brodsky, fue galardonado en el año 1995 con el premio Alhambra de la Asociación española de Parques y Jardines Públicos. Está situado en las confluencias de la calle Alcalá con el Puente de Ventas y la M-30 y una plaza aledaña en C/ Santiago Massarnaú. Se divide en varias zonas claramente diferenciadas:  Una escalinata conformada por varios tramos con una fuente ornamental en uno de los lados, plantaciones en jardineras de ladrillo y árboles dispuestos en cuadrícula, cuyo entramado se encuentra rodeado de acequias y que desemboca en un área de juegos infantiles y mesas de ajedrez y una segunda fuente ornamental en forma de pirámide truncada escalonada, con parterres que disponen de numerosos bancos. Un área canina que da paso a varias pistas polideportivas rodeadas de plantaciones de diversas especies. Una pequeña zona forestal que finaliza en una pasarela.",40.428652595625735,-3.659649292346212
PARQUES_Y_JARDINES,Parque Anunciación,"CALLE ANUNCIACION 1, MADRID, 28009",Pequeño parque urbano con estancia de juegos infantiles. Destacan en él sus praderas y sus cedros de gran porte.,40.41192841997151,-3.67583331713166
PARQUES_Y_JARDINES,Parque Arquitecto Antonio Palacios,"CALLE FENELON 17, MADRID, 28022","El diseño del parque se basa en círculos concéntricos alrededor de las dos zonas más elevadas. En los taludes de una de estas zonas se encuentran varias especies de Juniperus, mientras que los de la otra están tapizados por pradera. En cada círculo aparece una tipología diferente: terrizo, árboles y árboles con arbusto asociado. Dispone de una zona infantil rodeada de pinos de gran porte, destacando uno de ellos al que se le ha creado una jardinería para realzar su valor. En el parque Arquitecto Antonio Palacios hay una glorieta circular en cuyo centro se ubica una escultura de acero de tres piezas verticales.",40.43847239256322,-3.608750153308992
PARQUES_Y_JARDINES,Parque Arroyo Fontarrón,"CALLE ARROYO FONTARRON 22, MADRID, 28030",Zona verde periférica en talud que conecta los bordes de los barrios de Moratalaz con el lateral de la autovía A-3. Se diferencian dos zonas: una forestal y otra con plantaciones de árboles y arbustos ornamentales. El límite con la C/ Arroyo Fontarrón es un paseo arbolado terrizo con carril bici.,40.39476596114844,-3.636164605181752
PARQUES_Y_JARDINES,Parque Arroyo Fresno,"AVENIDA VENTISQUERO DE LA CONDESA 43, MADRID, 28035",Zona Verde que consta de una parte ajardinada con césped y arbolado joven y otra parte más forestal con una lámina de agua de gran tamaño. También limita el parque una franja del carril bici que circunda Madrid y es de gran uso vecinal.,40.49284296962057,-3.7169069720385446
PARQUES_Y_JARDINES,Parque Arroyo Pozuelo,"Calle Arroyo Pozuelo <NA>, MADRID, <NA>","El proyecto de este parque se inició en el año 2001 su objeto fue recuperar y ajardinar estos terrenos de propiedad pública. Mediante ello se buscó conservar y  potenciar todos los elementos naturales existentes. Dentro de estos elementos cabe destacar el arroyo que divide longitudinalmente el parque y le da nombre. El proyecto se ha ejecutado en varías fases incluyendo todas ellas un carril bici que facilita la movilidad a lo largo de todo el parque:  FASE 1 _ PARQUE ARROYO POZUELO: esta fase se extiende desde la calle Cuesta de Galván que limita con la carretera de Castilla (M-500), hasta la Ctra. Húmera-Aravaca. Fue el inició de este proyecto en el año 2001. Es la zona más ajardinada con extensas praderas de césped y paseos acompañados de arbolado en su mayoría joven. Acoge varias zonas infantiles, pistas de petanca y pistas deportivas bajo una de las cuales existe un amplio estanque de tormentas para la recogida de aguas.  FASE 2_ AMPLIACIÓN PARQUE ARROYO POZUELO: segunda fase de ajardinamiento de la ribera del arroyo, que se empezó en los años 2007-2008, se divide en dos tramos principales:    TRAMO 1. Se sitúa entre la Ctra. Húmera-Aravaca y la calle Golondrina. En esta zona se encuentra el Campo de Fútbol Nuestra Señora del Buen Camino. El ajardinamiento se caracteriza por la presencia de masas de arbustos acompañados de árboles de gran porte, arbolado original de la zona verde y un entramado de caminos que conectan distintas zonas estanciales y áreas infantiles.     TRAMO 2. Entre la calle Golondrina y el límite con el pueblo de Pozuelo. Esta fase se desarrolló solo en la ribera norte del arroyo. En este caso, salvo una zona ajardinada alrededor de una fuente ornamental, el diseño es mucho más forestal con plantaciones de arbolado de diversas especies. También hay zonas infantiles y para mayores, zonas estanciales y pistas deportivas.   FASE 3_ PARQUE. ARROYO POZUELO (AMPLIACIÓN) 2: tercera fase actualmente en desarrollo (iniciada en 2015), entre la calle Golondrina y el límite con el pueblo de Pozuelo, en la ribera sur del arroyo. Diseño forestal con entramado de caminos y renovación del arbolado. En esta zona se encuentra la urbanización privada Colonia Santa Maria.",40.45451429342977,-3.7856220495572703
PARQUES_Y_JARDINES,Parque Arroyo de los Pinos,"CALLE JOAQUIN LORENZO 21, MADRID, 28035","Parque de reciente construcción con diferentes especies arbustivas, zonas de recreo y zona infantil.",40.47343735166941,-3.7241915440169024
PARQUES_Y_JARDINES,Parque Avenida de Portugal,"AUTOVIA A-5 300, MADRID, 28011","El parque con un diseño de suelo de grandes flores en empedrado portugués de diferentes tonos y con floridos cerezos, en clara referencia a que esta carretera va hacia Extremadura. El adoquín es en forma de mosaico negro y beige recordando los suelos lisboetas    Este parque ha dado a la zona un nuevo enfoque, además de cambiar radicalmente todo su entorno, ya que está construido sobre el túnel de la A-5.",40.41214880704316,-3.735662031240937
PARQUES_Y_JARDINES,Parque Azorín,"AVENIDA ALBUFERA 142, MADRID, 28038","Este parque es el más emblemático y antiguo del distrito Puente de Vallecas, ya que data de los años 50. Se caracteriza por situarse en pendiente, a tres alturas: desde la zona destinada a uso infantil, la más baja, pasando por una zona de transición de paseos hasta la más alta, donde existe una lámina de agua y juego de mayores.   Este parque se creó tras la guerra civil  en terrenos cedidos por el militar Teniente Muñoz Díaz (que ahora lleva el nombre de una de las calles adyacentes).",40.39144717132174,-3.6545377410677498
PARQUES_Y_JARDINES,Parque Barrio Las Musas,"AVENIDA NIZA 55, MADRID, 28022","Zona verde diseñada en dos alturas, separadas mediante una rampa. La zona más baja, con entrada por Avda de Niza, se compone de unos terrizos sobre los que se asientan dos áreas infantiles y dos alineaciones de árboles. El talud que separa las dos zonas está cubierto con diversas plantas aromáticas. La zona más elevada es un terrizo con arbolado disperso, cruzado por un camino de loseta hidráulica y que dispone de unos bancos corridos dispuestos de forma circular. Entre esta explanada y la C/ Julia García Boután aparecen una serie de paseos pavimentados rodeados de zonas de pradera, que a su vez están delimitadas por setos de aligustre, contando así mismo con arbolado consolidado de diferentes especies.",40.43173953068984,-3.607628369908832
PARQUES_Y_JARDINES,Parque Begoña,"CALLE SAN MODESTO 1, MADRID, 28034","Parque muy visible desde la M-30 con un gran talud de pradera. Tiene zonas infantiles a la salida del metro, lugares estanciales muy cómodos y campos de fútbol sala y baloncesto.",40.48390626699566,-3.687220746230517
PARQUES_Y_JARDINES,Parque Biosaludable,"PASEO ALAMEDA DE OSUNA 8, MADRID, 28042","El Parque Biosaludable es el fruto de la recuperación ambiental de una zona de vertidos. Esta zona forestal está compuesta en su mayor parte por la especie de pino carrasco con ejemplares de olivo y alcornoque intercalados. Un bosque de encinas, plantado durante una actividad escolar, ocupa la zona más occidental del parque. Aunque la mayoría de los árboles son todavía jóvenes, también hay varios ejemplares de gran porte de pino piñonero. El parque está dotado de dos zonas con equipamientos deportivos y un carril bici que lo cruza uniendo el barrio de la Alameda de Osuna con el Parque Juan Carlos I. En este parque también se ubica un huerto urbano.",40.452057731817305,-3.603648361419777
PARQUES_Y_JARDINES,Parque Campo de la Paloma,"AVENIDA RAFAEL ALBERTI 38, MADRID, 28018","Zona verde de estilo francés, formada por una parte central, estancial, donde existe un templete, y rodeada por diversos parterres ajardinados. Las zonas que limitan con la calle 'Campo de la Paloma' están formadas por extensas praderas.",40.38339946706653,-3.643762543356842
PARQUES_Y_JARDINES,Parque Caramuel,"CALLE CARAMUEL 53, MADRID, 28011","El parque Caramuel fue inaugurado a primeros de 1979, surge sobre un antiguo pinar perteneciente a la finca del pintor Goya, La Quinta del Sordo.  Presenta una zona ajardinada consolidada, con praderas y arbolado de gran porte, que convive con amplias superficies de carácter forestal cubiertas fundamentalmente por pinos. Este parque está equipado con zonas deportivas, recorrido biosaludable, zonas infantiles, de mayores, zonas de descanso y un área canina. En 2017 se acometieron actuaciones de mejora entre las que destaca el acondicionamiento de la zona del mirador.",40.4081704733386,-3.729395994595502
PARQUES_Y_JARDINES,Parque Cerro Almodóvar,"CALLE MARCELINO CASTILLO 29, MADRID, 28047","Parque con una elevada cantidad de arbolado con gran representación de olmos y pino piñonero. Existen zonas de mayores y varias zonas infantiles, plazas de recreo...",40.393928614376,-3.744713323980896
PARQUES_Y_JARDINES,Parque Cerro Peñabel,"CALLE CANDIDO MATEOS 12, MADRID, 28035",Cuenta con una plataforma semicircular a modo de mirador y dos glorietas de juegos infantiles. En el centro del parque hay una rotonda bordeada de agua y taludes boscosos.,40.47406043289477,-3.718181785566969
PARQUES_Y_JARDINES,Parque Cerro del Tío Pío,"CALLE BENJAMIN PALENCIA 2, MADRID, 28038","Parque dotado de alturas y pendientes, con extensas superficies de praderas y largas alineaciones de arbolado en los paseos. Dispone de equipamientos deportivos en su zona baja y de carril bici, kiosko y mirador en la zona alta.",40.39701982315709,-3.655239797848888
PARQUES_Y_JARDINES,Parque Cerro Águila,"CAMINO CERRO DEL AGUILA 1, MADRID, 28023","Parque de carácter forestal, el cual destaca por su gran pinar homogéneo de pino piñonero y vegetación de bosque mediterráneo. Está atravesado en su mitad por el camino del cerro del Águila que va a desembocar al I.E.S.E. de la Universidad de Navarra. En su parte este está limitado por un campo de golf. Existen numerosas mesas para uso y disfrute de los vecinos, así como zonas de merenderos y carteles informativos de la fauna y flora del lugar.",40.45190771190827,-3.761757187185669
PARQUES_Y_JARDINES,Parque Ciudad de los Ángeles,"CALLE ANOETA 14, MADRID, 28041","Parque situado en el Barrio Ciudad de los Angeles, una zona con gran densidad de población. Situado en el espacio interior de la manzana formada entre las calles Anoeta, Alegría de la Huerta y La del Manojo de Rosas. Está estructurado en dos paseos centrales adoquinados con alineaciones de  castaños de indias que confluyen en un templete. El parque, formado por superficies de césped con diferentes macizos de arbustos, está dotado de una zona infantil, un parque para mayores y de varias pistas deportivas. Es un espacio utilizado por sus vecinos como lugar de reunión y para la celebración de diversas actividades colectivas.",40.35285094988024,-3.6963807727286353
PARQUES_Y_JARDINES,Parque Cuesta del Galbán,"CUESTA GALBAN 2, MADRID, 28023","Parque Forestal con pendiente media que separa la zona de la Rosa de Luxemburgo en dos partes marcadas. En él se encuentran vegetación típica del bosque mediterráneo: encinas, pinos, esparragueras, y algunos árboles de carácter colonizador. Es una zona de paso para los vecinos residentes ya que se observan sendas marcadas por el uso continuo.",40.45019927443574,-3.768070614824996
PARQUES_Y_JARDINES,Parque Cuña Verde de Vicálvaro. Zona A,"AVENIDA DAROCA 300, MADRID, 28032","Parque periurbano situado en el extremo noroeste de Vicálvaro con amplias zonas caninas, pistas deportivas y de patinaje, zonas infantiles y un jardín para ciegos con numerosas especies arbustivas aromáticas etiquetadas en braille.",40.40969329689759,-3.618025439807104
PARQUES_Y_JARDINES,Parque Cuña Verde de Vicálvaro. Zona B,"AVENIDA DAROCA 299, MADRID, 28032","Parque periurbano de transición entre las edificaciones de Vicálvaro y las autopistas periféricas M-40 y Radial 3. Dispone de zonas ajardinadas, arbolado, rosaleda, jardín de plantas aromáticas, praderas naturales y una lámina de agua. El parque está dotado de varias zonas deportivas, un auditorio, una zona infantil y de carril bici.",40.40930295868704,-3.616890442862423
PARQUES_Y_JARDINES,Parque Cuña Verde de Vicálvaro. Zona C,"AVENIDA CANILLEJAS A VICALVARO 102, MADRID, 28032",Parque periurbano de tendencia forestal con amplias praderas y largos setos de espino de fuego. Un carril para ciclistas y peatones lo atraviesa conectando Canillejas y Vicálvaro por medio de pasarelas que cruzan la M - 40 y la Radial 3. Cuenta con aparcamiento propio.,40.41672706688541,-3.610853061814312
PARQUES_Y_JARDINES,Parque Dehesa de la Villa,"CARRETERA DEHESA DE LA VILLA 1, MADRID, 28040","La Dehesa de la Villa está situada al noroeste de la ciudad de Madrid, junto a Ciudad Universitaria. Su principal característica es que mantiene su condición de bosque, con espacios ajardinados en las zonas colindantes a los espacios urbanos, donde podemos destacar las plantaciones de cedros.    En tiempos de Isabel II se comenzó la repoblación con pinos, principalmente piñoneros y carrascos, actualmente los más comunes del parque. También hay almendros, sobre todo amargos, y acacias, habituales sobre todo cerca de la calle Francos Rodríguez. En las vaguadas húmedas aparecen chopos, fresnos y olmos. En las zonas ajardinadas se encuentran cedros y ciruelos de Pissardii. El sustrato arbustivo está principalmente compuesto por jaras, retamas, romero y zarzamoras, entre otras. La Dehesa de la Villa tiene una importante variedad de avifauna; se han avistado en ella más de 70 especies de aves, lo que la convierte en una joya dentro de todos los parques de Madrid. Los vecinos y usuarios la perciben como un auténtico bosque dentro de la ciudad.",40.45817981904011,-3.7207253118064822
PARQUES_Y_JARDINES,Parque Duque de Ahumada,"CALLE LAGO VAN 16, MADRID, 28032",Parque urbano interbloques situado en el Casco Histórico de Vicálvaro. Vertebrado longitudinalmente con paseos de adoquín que definen praderas. Alineaciones de pinos y plátanos.   Otras denominaciones  Parque de Ambroz,40.4048457851104,-3.606231541415761
PARQUES_Y_JARDINES,Parque El Calero,"CALLE JOSE DEL HIERRO 1, MADRID, 28027","Quizá se trate del parque más emblemático del Distrito de Ciudad Lineal, dada su ubicación, dimensiones, servicios y afluencia de ciudadanos. Es centro de reunión su auditorio al aire libre donde cada periodo estival se realizan actividades culturales.",40.43555222953495,-3.6519351470803567
PARQUES_Y_JARDINES,Parque El Cedral,"CALLE ARTURO SORIA 233, MADRID, 28033","El parque El Cedral se encuentra situado en las confluencias de C/ Arturo Soria, C/ Rodríguez Illanes y C/ Asunción Pérez Vizcaíno. La entrada principal se encuentra enmarcada por un pórtico de ladrillo que continúa con un murete que rodea la parte localizada en la C/ Arturo Soria estando el lado interior del parque decorado por una arquería del mismo material. Un camino terrizo discurre por el parque con plantaciones de diversas especies a su alrededor con especial atención a las aromáticas y rodeando la zona donde se encuentran los cedros, de gran porte y belleza, que dan nombre al parque. Un monolito en homenaje a Arturo Soria se localiza en la zona inferior. El parque que presenta una gran pendiente hacia la Calle 30 y se encuentra equipado con una pista deportiva en la zona más cercana a la misma.",40.462882951414265,-3.665044100462656
PARQUES_Y_JARDINES,Parque El Cruce,"CALLE ALCOCER 1, MADRID, 28021",Jardín que discurre a lo largo de un paseo que cruza el mismo de norte a sur y alrededor del cual se generan diferentes superficies arbustivas y de rocalla bajo la protección de pinos y castaños de indias principalmente. El jardín se ensancha hacia el oeste manteniendo la estructura de terrizos y zonas arbustivas que albergan zonas estanciales e infantiles. Destacan las composiciones florales y de rocalla situadas en los flancos de la puerta norte del jardín.,40.35097040369239,-3.69448912432986
PARQUES_Y_JARDINES,Parque Emir Mohamed I,"CUESTA RAMON 1, MADRID, 28013","Esta superficie era un solar que se acondicionó como parque en el año 2010. Recuperando el estilo andalusí, este parque se creó para recordar la diversidad de culturas que han vivido en la ciudad de Madrid. Existen diferentes especies arbóreas, un almez y una higuera son los ejemplares más antiguos. Las zonas verdes recorren la muralla islámica y los cipreses de los parterres continúan el diseño de la fuente con forma de estrella de seis puntas que preside el parque. Entre los años 860 y 880 el emir M&amp;uuml;hammad I fundó la ciudad de Madrid (Mayrit) como enclave militar. Los restos de la muralla islámica que pueden verse  en este parque pertenecen al primer recinto amurallado de Madrid, construido en el siglo IX durante el dominio andalusí de la región. Se conserva un tramo de la muralla de más de 120 metros de longitud, con una altura máxima de 11,50 metros y un espesor de 2,60 metros en el que destacan varios torreones de planta cuadrangular.",40.41438785232736,-3.7147888896558183
PARQUES_Y_JARDINES,Parque Emperatriz María de Austria,"CALLE VIA LUSITANA 3, MADRID, 28025","Este parque es la zona verde más importante del distrito de Carabanchel. Se riega con agua regenerada de sus propios depósitos. El Parque Emperatriz María de Austria o Parque Sur está estructurado en tres zonas: Zona del Intercambiador de Plaza Elíptica. Esta zona dispone de praderas elevadas, jardineras y macizos arbustivos. Algunas de las especies tienen carteles informativos en los que se indican sus características principales. Zona Central. Es la zona más antigua del parque y se ubica entre el Intercambiador de Plaza Elíptica y el Parque Familiar. Dispone de grandes praderas, tanto naturales como de césped, arbolado de distintas especies, macizos de arbustos y un entramado de caminos y zonas estanciales terrizas. Esta área está dotada de zonas de juegos infantiles, juegos para la tercera edad, pistas de chito y calva, un circuito biosaludable y un mirador que limita con el Parque Familiar. Zona Parque Familiar. Este espacio, de creación posterior, se sitúa entre la zona central y la Avenida de los Poblados. Su jardinería está formada por grandes praderas naturales y de césped, arbolado y macizos de arbustos y flor. Esta zona presenta dos niveles: en el superior se ubican espacios deportivos para la práctica de petanca, fútbol, fútbol sala&amp;hellip; y en el inferior una ría que desemboca en un gran lago. Cabe destacar la pista para radio control y el espacio habilitado para el ejercicio físico de perros.",40.382311100280766,-3.7227552919050586
PARQUES_Y_JARDINES,Parque Enrique Tierno Galván,"CALLE MENESES 4, MADRID, 28045","El Parque Tierno Galván se encuentra ubicado en el barrio de Legazpi, entre la antigua estación de ferrocarril de Delicias, actual Museo del Ferrocarril, y la vía de circunvalación M-30. La zona en la que se encuentra enclavado es conocida como el &amp;ldquo;Cerro de la Plata&amp;rdquo; y es uno de los parques más grandes de la ciudad de Madrid con 45 has. Dispone de tres estanques con sus respectivas pasarelas, así como de grandes praderas y amplios caminos. En este parque se encuentran diferentes especies arbóreas y una gran diversidad tanto de flora como de fauna. Está dotado de dos zonas infantiles, instalaciones deportivas, circuito biosaludable, circuitos bici y de miradores.   En el parque se encuentra ubicado el Planetario de Madrid, un Auditorio al aire libre, el antiguo cine IMAX, cerrado en septiembre de 2014 y una estatua en honor a su creador &amp;ldquo;Enrique Tierno Galván.",40.39210151448589,-3.681620654746187
PARQUES_Y_JARDINES,Parque Entrevías Forestal,"CALLE EMBAJADORES 251, MADRID, 28053","Zona verde situada al sur de Vallecas con arbolado consolidado, en su mayoría coníferas. El Parque Entrevías Forestal es uno de los tramos por donde discurre el anillo verde ciclista de Madrid. Este parque se integra junto a otras zonas verdes colindantes:  El Parque de Entrevías Urbano que dispone de un auditorio, zonas deportivas e infantiles.  El Parque de la Comunidad, situado en la cornisa del Barrio de Entrevías,  destaca por los vistosos miradores a la zona Centro Sur de Madrid. Esta superficie dispone de área infantil. Parque del Soto de Entrevías, parque educativo con senda Botánica.",40.36782603611024,-3.6670181171393055
PARQUES_Y_JARDINES,Parque Entrevías Urbano,"RONDA SUR 8, MADRID, 28053",Zona verde destacada por su amplio paseo de plátanos de sombra. Este parque tiene la particularidad de que se riega con agua regenerada. Existe un ramal del carril bici que atraviesa el parque. Utilizado por ciudadanos de distintas edades.,40.37253969509114,-3.669809160205961
PARQUES_Y_JARDINES,Parque Este de Valdebernardo,"AVENIDA DEMOCRACIA 25, MADRID, 28031","Parque periurbano de vocación forestal. Situado en el extremo oriental del barrio de Valdebernardo, enlaza éste con la Avenida de la Democracia. El parque cuenta con plantaciones de árboles y arbustos aromáticos dispuestos en parcelas definidas por caminos terrizos. Numerosas instalaciones deportivas.  Otras denominaciones: Parque del lago",40.393429973468265,-3.618383391636273
PARQUES_Y_JARDINES,Parque Eugenia de Montijo,"CALLE PARQUE EUGENIA DE MONTIJO 3, MADRID, 28047","El parque Eugenia de Montijo está estructurado en dos zonas separadas por la calle Monseñor Óscar Romero. Una de las áreas es limítrofe con Nuestra Señora de la Luz y la otra se encuentra junto a la Avenida de los Poblados y la desaparecida cárcel de Carabanchel. La primera zona verde ha sido remodelada debido al proyecto de construcción de una carretera que lo iba a atravesar. Esta área tiene dos niveles unidos por grandes praderas. El superior dispone de zonas terrizas y praderas, mientras que el inferior, además de zona terriza con masas arbustivas, está dotado de una zona de juegos infantiles y de elementos deportivos. La segunda zona, con forma alargada, está formada por praderas con arbolado y por grandes zonas estanciales terrizas. La jardinería también está integrada por árboles en terrizo y macizos arbustivos y de flor. Sus paseos son pavimentados y terrizos. Este sector está dotado de varias pistas deportivas, zonas de juegos infantiles y de mayores. Destaca una zona baja con restos de la antigua finca de Eugenia de Montijo en la que hay un pequeño estanque rodeado de majestuosos cipreses catalogados.",40.37942623334737,-3.752717445398877
PARQUES_Y_JARDINES,Parque Eva Duarte,"CALLE DOCTOR GOMEZ ULLA 9, MADRID, 28028","El parque Eva Duarte de Perón, situado junto a la plaza de Manuel Becerra, ocupa la antigua finca de Nogueras, también llamada Quinta de los Leones o Quinta de Nogueras. Estos jardines disponen de amplios espacios terrizos con alineaciones de plátano de sombra y diversas instalaciones deportivas: pistas de pádel, fútbol, baloncesto, elementos deportivos para mayores, zonas infantiles y un área canina. Destacan las dos fuentes ornamentales de gran singularidad y un busto en honor a Eva Duarte de Perón, conocida como Evita, dirigente política y actriz argentina. El parque, de 3 hectáreas de extensión, ha sido remodelado a lo largo de 2018. Se ha renovado el sistema de drenaje y acondicionado los caminos y zonas estanciales. Nuevas vallas protegen las zonas ajardinadas y se han sustituido las praderas por zonas arbustivas. El área canina se ha ampliado y renovado el vallado.",40.42985671996897,-3.668031432543624
PARQUES_Y_JARDINES,Parque Forestal Fuente Carrantona,"CALLE FUENTE CARRANTONA 38, MADRID, 28030","El Parque Forestal de Fuente Carrantona surgió de la necesidad de localizar en una parcela delimitada los ejemplares de árboles y arbustos de gran porte que, debido a las obras de las grandes infraestructuras ejecutadas en los últimos años en la ciudad de Madrid, tuvieron que ser desplazados de su ubicación original.    Colindante con la Cuña Verde de O&amp;acute;Donnell, el parque forestal Fuente Carrantona fue creado con el trasplante de numerosos ejemplares arbóreos de otros lugares de la ciudad y cuenta con una superficie de 22,57 hectáreas. El Parque se estableció en una antigua zona degradada y su recuperación con la replantación de los árboles ha supuesto una importante mejora medioambiental para la zona y el Distrito de Moratalaz. Dentro del carácter funcional de su diseño se han incluido otras zonas de esparcimiento, tanto para la Tercera Edad como para los niños. Para los primeros, se han creado zonas dedicadas a actividades de recreo y descanso con una pista de petanca en el área más accesible desde las viviendas. La zona infantil diseñada con carácter inclusivo, donde pueden disfrutar y jugar todos los niños independientemente de sus limitaciones motoras o sensitivas, siempre rodeados de la vegetación del Parque.",40.41008304101258,-3.629714182785988
PARQUES_Y_JARDINES,Parque Forestal Julio Alguacil Gómez,"PARQUE Ctra Carabanchel a Villaverde  con vuelta Calle Verde Viento <NA>, MADRID, <NA>","El Parque Forestal Julio Alguacil Gómez (antes llamado Parque Forestal de Villaverde), responde a la necesidad de poner en marcha estrategias innovadoras de regeneración urbana integrando aspectos sociales, económicos y medioambientales para favorecer el desarrollo sostenible del Distrito de Villaverde. Se encuentra delimitado al sur por la Calle Verde Viento y el P&amp;ordm; de Plata y Castañar, al oeste por la A-42, al norte por el acceso a la Protectora de Animales y al este por la Ctra. de Villaverde a Carabanchel.  El parque cuenta en todo su perímetro con un carril bici que continúa hacia el cercano parque de Plata y Castañar y que está conectado con las vías ciclistas del Plan de Movilidad Ciclista de Madrid.  Lo vertebran dos ejes principales:  Uno situado en la zona sur y que discurre a lo largo de zonas ajardinadas mediante césped, formaciones arbustivas y alineaciones de arbolado, con un sistema de riego de reciente implantación mediante agua regenerada. El otro eje discurre de norte a sur y divide el parque en toda su longitud. Donde encontramos, a ambos lados, diferentes zonas con arbolado, principalmente de pino carrasco, delimitadas por una red de caminos de corte geométrico que recorren el parque flanqueados por alineaciones de diferentes especies como son el almez, el ciruelo rojo o el cinamomo. En la zona noroeste encontramos diferentes estratos vegetales formados por especies como el olivo, el almendro o el ciprés y arbustos como el romero, la salvia o el agracejo que actúan como pantalla acústica del tráfico rodado que circula por la cercana A-42.",40.36073540960827,-3.717718673604328
PARQUES_Y_JARDINES,Parque Forestal de Valdebebas-Felipe VI,"AVENIDA LAS FUERZAS ARMADAS 11, MADRID, 28055","El Parque forestal de Valdebebas-Felipe VI se establece sobre eriales, antiguas zonas de cultivo y grandes vertederos y escombreras. Con una extensión aproximada de 470 ha   y con una silueta que representa un gran árbol, el parque está situado al noreste de la ciudad, en el distrito de Hortaleza.  El parque se compone de una serie de zonas, en gran parte de carácter forestal, pero también con superficies de jardinería urbana. La zona central constituye el núcleo del parque. Recrea un gran parque forestal dentro de la trama urbana, con principios de sostenibilidad, representando los principales paisajes del centro de la península a través de las formaciones vegetales que las caracterizan. Son las denominadas zonas de Copa y Campo Abierto, que representan la mayor superficie del parque forestal. Dentro de este gran espacio se sitúan zonas de carácter jardinero que tienen una finalidad vertebradora, al servir de orientación dentro del mismo y que aportan personalidad al ámbito gracias a su singularidad. Se trata del Laberinto (con una estructura central de madera en forma de espiral ascendente y un mirador), del Arboreto (donde de cinco cubetas afloran islas con formaciones vegetales) y de las Terrazas (superficie compuesta por una serie de plataformas ajardinadas con desarrollo en cascada descendente hacia el río).",40.48494412599755,-3.641451621738692
PARQUES_Y_JARDINES,Parque Forestal de Vicálvaro,"PASEO POLIDEPORTIVO 1, MADRID, 28032","Parque forestal que limita en su extremo norte con la Radial 3, dividido en dos amplias superficies por el polideportivo municipal de Vicálvaro. Está conectado por caminos terrizos que atraviesan un río artificial que conducen a un gran estanque. También existe una senda botánica donde se pueden observar gran diversidad de especies. Otras denominaciones: Anillo Verde de Vicálvaro",40.41022401774968,-3.60626801415248
PARQUES_Y_JARDINES,Parque Félix Rodríguez de la Fuente,"CALLE PADRE CLARET 38, MADRID, 28002","Parque delimitado por la M-30, la avenida Ramón y Cajal y la calle Padre Claret. Alberga bosquetes diversos de pinos y chopos mayoritariamente y amplias zonas terrizas con equipamientos deportivos y zonas infantiles. El parque reúne un grupo escultórico dedicado a Félix Rodríguez de la Fuente.",40.45205238274073,-3.6653500732558792
PARQUES_Y_JARDINES,Parque General Fanjul - Santa Margarita,"AVENIDA DE LAS ÁGUILAS 144, MADRID, 28044","Parque lineal con paseos y parterres de pradera siempre verdes, con un hermoso arbolado. Dispone de áreas de sombra y descanso. Está dotado de una pista de fútbol sala y de zonas tanto infantiles como de mayores.",40.38033890061462,-3.783498476616184
PARQUES_Y_JARDINES,Parque Hortaleza,"CARRETERA ESTACION DE HORTALEZA 18, MADRID, 28033","Parque construido en diferentes niveles, con una pista polideportiva en la zona inferior del parque. El carril bici atraviesa este parque, localizándose un área de descanso en el interior del parque, al final de la carretera de acceso a la Estación de Hortaleza. En este parque se realizó una importante obra de remodelación de los caminos interiores y de la red de drenaje en el año 2007. Los domingos existe un mercadillo de barrio en el aparcamiento en superficie situado anexo al mismo.   Otras denominaciones Parque Hortaleza. Santa Adela",40.48024318499327,-3.650809942180937
PARQUES_Y_JARDINES,Parque Huerta del Obispo.,"CALLE PALOMARES 34, MADRID, 28021","En el distrito de Villaverde se encuentra este jardín ubicado entre taludes cubiertos de césped y el Instituto Celestino Mutis. A lo largo del paseo que recorre el parque se reparten zonas estanciales, pistas deportivas y zonas infantiles, todas ellas bajo un frondoso dosel arbóreo. La pradera de césped rompe su continuidad por la presencia de macizos arbustivos de especies que, por su diversidad, generan interesantes contrastes estacionales.",40.34698009231551,-3.712145719392749
PARQUES_Y_JARDINES,Parque Juan Carlos I,"GLORIETA S.A.R. DON JUAN DE BORBON Y BATTEMBERG, 5 5, MADRID 28042, 28042","El Parque Juan Carlos I fue inaugurado con motivo de 'Madrid Capital Europea de la Cultura 1992'. Con su creación  se recuperó una zona altamente degradada respetando un olivar centenario existente, con un lago de 30.000 m2 , una ría de 1.900 m. de longitud, 13.000 m. de paseos, 21 hectáreas de olivar, 19 esculturas al aire libre, un jardín denominado las Tres Culturas, un invernáculo llamado Estufa Fría y un Auditorio. Se puede consultar una información más detallada de cada una de las zonas en 'Información detallada del Parque Juan Carlos I' Accesibilidad a personas con movilidad reducida: en las partes principales del parque existen rampas con pendientes inferiores al 8%.",40.45999848510341,-3.614888870630359
PARQUES_Y_JARDINES,Parque Juan Pablo II,"AVENIDA MACHUPICHU 1, MADRID, 28043","Está situado entre el Pinar de Barajas, la Avda. del Papa Negro, de las Piceas, de los Andes y la M-40, y es atravesado por la Avenida de Machupichu. El parque se inauguró el 4 de mayo de 2007, con una superficie de 10,41 ha. (fases I y II) correspondiente a las zonas estancial y temática. El diseño de la zona estancial (Jardín del Sol y el Agua) se articula desde la plaza del reloj de sol, centro y foco de canales, plantaciones y caminos. Acoge y fusiona plantaciones de especies tradicionalmente mediterráneas (olivo, vid y frutales) con otras de la moderna jardinería. La zona temática (Jardines Mediterráneos) es representativa de la evolución histórica de la jardinería mediterránea. En ella se encuentra el Jardín de Oriente Próximo, el Jardín Medieval, el Jardín Árabe, el Palmeral o el Paraíso. Y, por supuesto, el agua siempre presente, con juegos, ría, canaletas y albercas. La Zona Deportiva (Fase III) del parque, con una superficie de 2,8 Has. en la que destacan el campo de rugby profesional de hierba artificial y 2 pistas de pádel, además de la lámina ornamental y las zonas ajardinadas. Existe un monolito conmemorativo en el que aparece inscrita la frase de Juan Pablo II: ' Con mis brazos abiertos os llevo a todos en el corazón', dedicada al pueblo de Madrid con motivo de su visita en el año 2003.",40.45544764269407,-3.623539375307719
PARQUES_Y_JARDINES,Parque Juan de la Cosa,"CALLE VICTOR ANDRES BELAUNDE 1, MADRID, 28016","Ubicado entre las calles Potosí, Cochabamba y Víctor Andrés Belaunde. Parque dedicado al navegante y cartógrafo español que participó junto a Cristóbal Colón en el descubrimiento de América y autor del primer mapa en el que aparece el continente americano.",40.45424210617104,-3.679171627391412
PARQUES_Y_JARDINES,Parque La Rinconada,"CALLE HIENDELAENCINA 9, MADRID, 28023",Parque destacable por su gran extensión y por su ubicación en zona de urbanizaciones. Su construcción es reciente y se han añadido plantaciones de arbolado nuevo manteniendo el que había en el lugar previamente. Consta de una red de caminos amplia y es un una zona que invita al paseo y recreo del vecindario por ser muy tranquila y de gozar de unas privilegiadas vistas de la ciudad de Madrid.,40.45750725687833,-3.766455491041625
PARQUES_Y_JARDINES,Parque La Viña,"CALLE TIMOTEO PEREZ RUBIO 9, MADRID, 28053",Zona verde con distintos desniveles y zonas estanciales con diferentes usos para los ciudadanos.   Dispone de praderas con riego automático en las zonas próximas a la Calle Concejo de Teverga.,40.38556774381467,-3.67430914572838
PARQUES_Y_JARDINES,Parque Ladera de los Almendros,"CALLE LADERA DE LOS ALMENDROS 46, MADRID, 28032",Parque periurbano de transición entre las viviendas de Valdebernardo y la autopista M-40. El Parque se articula sobre un paseo arbolado paralelo a la M-40 y una amplia zona estancial junto al Centro de Mayores adyacente.,40.39616431537003,-3.6261065047300303
PARQUES_Y_JARDINES,Parque Lineal de Palomeras,"AVENIDA ALBUFERA 293, MADRID, 28038",Parque formado por grandes praderas y 10 plazas estanciales. Existen dos láminas de agua. Forma parte del itinerario por donde pasa el anillo verde de Madrid. Posee un gran paseo de plátanos de sombra en zona terriza. Es muy característico por sus lomas observadas desde la M-40.,40.38581882868559,-3.6363631773029352
PARQUES_Y_JARDINES,Parque Lineal del Manzanares (Usera - Pte de Vallecas),"CAMINO PERALES 47, MADRID, 28026","Este parque comienza sus obras de urbanización a finales del año 2000, dándose por finalizadas a mediados del 2003. El taller de arquitectura de Bofill es el encargado del Plan Director para transformar esta zona, dotada inicialmente con las necesarias infraestructuras de saneamiento, abastecimiento y electricidad, en una zona de paseo y de expansión para el ciudadano. En el riego del parque se utiliza agua regenerada procedente de la estación regeneradora de aguas residuales de La China.    Tres elementos vertebran el parque en su conjunto: el trazado del río propiamentedicho, un eje peatonal que atraviesa el parque en línea recta como alternativa al río y una trama ortogonal de caminos. Recorriendo el parque de norte a sur podemos encontrar una Plaza Verde, con forma de media luna; el Paseo de los Sentidos, bordeado de grandes árboles con una pasarela peatonal de grandes dimensiones, plazas cuadradas con laberintos, un umbráculo frondoso y dos fuentes con juegos de agua; una Pérgola; La Atalaya, montaña de escombros transformada que se corona con una escultura de Manuel Valdés 'La Dama del Manzanares'; el Área de los Deportes con dos campos de fútbol, pistas polivalentes, una zona de juegos infantiles, vestuarios y aseos; la Pradera, un gran césped de grandes dimensiones y el Parque del Belvedere, con juegos infantiles y de petanca.",40.379745,-3.690042
PARQUES_Y_JARDINES,Parque Madrid Río,"PASARELA HISTORICA PASEO DE LAS YESERIAS <NA>, MADRID, <NA>","En 2005 nace el proyecto Madrid Río de la reforma de la M-30 y su soterramiento, un gran parque de forma lineal a lo largo del río Manzanares, en el que se suceden espacios verdes, monumentos, puentes, pasarelas y presas, zonas estanciales y deportivas... desde el Puente de los Franceses hasta el Nudo Sur. Su espina dorsal es el Salón de Pinos, paseo arbolado de 30 m. de ancho y más de 6 km. de longitud que da acceso a los seis grandes jardines del parque: Jardines Aniceto Marinas, Jardines de Virgen del Puerto, Jardines Bajos del Puente de Segovia, Jardines del Puente de Toledo, Parque de la Arganzuela y Matadero. Además se sitúan los recintos de Avenida de Portugal, con un diseño del suelo de grandes flores en empedrado portugués de diferentes tonos, y la Huerta de la Partida, memoria de la atmósfera de huerta poblada de frutales del siglo XVI. El agua está presente por la presencia del río y por las fuentes ornamentales y estanques fluviales a lo largo de todo su recorrido: fuente ornamental rehabilitada frente a la Casa de Vargas, cuatro estanques en el Puente de Segovia, cuatro fuentes en los jardines de Virgen del Puerto y las diez fuentes ornamentales y la playa urbana del Parque de Arganzuela. Destacan los puentes de nueva construcción: Puente Monumental de Arganzuela diseñado por Dominique Perrault, lPuentes gemelos de Matadero e Invernadero con sus bóvedas decoradas con mosaicos de Daniel Canogar, Puente del Principado de Andorra o Puente Oblicuo; las siete presas del río y los puentes históricos del Rey, de Segovia o de Toledo, entre otros. Cuenta con 30 km. de sendas ciclables; 33 pistas para patinaje, skate, escalada, fútbol 7 y 11, fútbol sala, pádel, tenis, baloncesto y ciclismo BMX (Bike Motor Cross); 18 áreas de juegos infantiles; 3 circuitos biosaludables; 9 pistas de petanca; tres plataformas de eventos culturales en el Puente del Rey, Parque de Arganzuela y Matadero, y un Centro de Interpretación del Río Manzanares, a lo que se suma el Complejo Cultural de Matadero Madrid, y el futuro centro de remo.      Este parque se incluye entre las visitas recomendadas a turistas que visitan la ciudad, según la web oficial de turismo de Madrid.",40.39815439895114,-3.7125359439695975
PARQUES_Y_JARDINES,Parque Martala,"AVENIDA MORATALAZ 183, MADRID, 28030",Es uno de los parques más populares del barrio de Moratalaz. Destaca el lago que ocupa una gran extensión. Esta zona verde está dotada de áreas infantiles y de varios espacios deportivos. En el parque se encuentran las vías de tren que llegaban antiguamente a Arganda del Rey. Otras denominaciones: Jardín Dionisio Ridruejo,40.40882236801765,-3.643898652734279
PARQUES_Y_JARDINES,Parque Martin Luther King,"CALLE CERRO NEGRO 1, MADRID, 28007","Parque urbano paralelo a la M-30, idóneo para el paseo, con un campo de fútbol de césped artificial y una pista de baloncesto. Dispone de dos estancias con juegos infantiles y una pasarela hacia Puente de Vallecas. Parte de la zona verde asemeja la ribera de un río con arbolado típico de ribera.           Durante el año 2009 se remodeló.",40.398195733324194,-3.6701340560704026
PARQUES_Y_JARDINES,Parque Meseta de Orcasitas,"RONDA COOPERATIVAS 6, MADRID, 28041","El parque tiene una superficie de 48414 m&amp;sup2; en el que nos encontramos un paseo perimetral que lo recorre a lo largo de toda su longitud localizándose a ambos lados de este paseo una serie de parterres ajardinados y todas las áreas de esparcimiento de los usuarios del parque como son las pistas deportivas, zonas infantiles y un área canina.",40.3673502443602,-3.7076605178679096
PARQUES_Y_JARDINES,Parque Mirador de Tierno Galván,"CALLE NEBULOSAS 7, MADRID, 28045","Completa junto con el Parque Enrique Tierno Galván una gran superficie verde, dentro de un barrio en proceso de crecimiento. Cuenta con una diversidad de especies arbustivas. De forma triangular, posee una pasarela, que le recorre en altura.",40.394735491209424,-3.6856299107811368
PARQUES_Y_JARDINES,Parque Mirador de las Cárcavas,"CALLE RAFAELA APARICIO 2, MADRID, 28055","Parque situado a lo largo de la M-11, en el tramo comprendido entre la C/ Gregorio Sánchez Herráez y la C/ Antonio López Torres. Como su propio nombre indica dispone de un mirador en la parte más alta del parque. Además, cuenta con instalaciones deportivas y juegos infantiles. Este parque presenta agrupaciones de dos especies arbóreas poco extendidas, como son la Pawlonia tomentosa y la Zelkova serrata.",40.47917989766592,-3.6330084507532687
PARQUES_Y_JARDINES,Parque Norte,"CALLE ARZOBISPO MORCILLO 7, MADRID, 28029","Zona verde de gran extensión, con zona de pinar y muy bien adaptado a la orografía de la zona. Su arbolado más bien maduro nos ofrece buenas sombras y áreas de descanso, infantiles, etc. En su interior hay un centro cultural.",40.48106787416528,-3.6933504628706095
PARQUES_Y_JARDINES,Parque Nudo Norte de Begoña,"AVENIDA LLANO CASTELLANO 1, MADRID, 28034","Parque muy visible desde la M-30 con un gran talud de pradera. Tiene zonas infantiles a la salida del metro, lugares estanciales muy cómodos y campos de fútbol sala y baloncesto.",40.483895554775785,-3.684471539316277
PARQUES_Y_JARDINES,Parque Olof Palme,"CALLE CERECINOS 1, MADRID, 28026","Este parque recibe su nombre en recuerdo del primer ministro sueco Olof Palme, gran defensor del pacifismo que murió asesinado en 1986. Está estructurado en dos zonas claramente diferenciadas y separadas por la calle Cerecinos.  El sector principal está situado entre esta calle y la Avenida Rafaela Ybarra. Compuesto por praderas de césped, zonas terrizas, zonas infantiles entre las que destaca un tobogán de tres pisos, y una zona canina, todo ello articulado mediante caminos de adoquín y de zahorra.  En el norte de este sector hay un auditorio que, a través de varios tramos de escaleras, enlaza con la fuente ornamental del centro del parque.  El otro sector está situado entre la calle Cerecinos y la calle San Magín. Dispone de zonas terrizas con grandes masas arbustivas que tapizan gran parte de las mismas. En su parte central se ubica una pequeña zona estancial. La zona infantil y la de mayores están próximas a la calle Cerecinos.",40.38439900273861,-3.712951996842945
PARQUES_Y_JARDINES,Parque Orlando Zapata Tamayo,"CALLE URUGUAY 6, MADRID, 28016","Ubicado entre las calles Víctor de la Serna, Uruguay y Puerto Rico, debe su nombre actual a una propuesta vecinal en homenaje al disidente cubano que murió haciendo una huelga de hambre en 2010. Comprende varias zonas verdes, situadas entre bloques de viviendas, que dan continuidad a las calles y manzanas.   Denominación anterior: Parque de Santa Marca.",40.455011305200735,-3.6743070613284736
PARQUES_Y_JARDINES,Parque Paseo Muñoz Grandes,"PASEO MARCELINO CAMACHO 6, MADRID, 28025",Zona ajardinada de superficie reducida pero muy céntrica. Se encuentra junto a la histórica Plaza de Toros de Vistalegre. Su jardinería consta de praderas con macizos arbustivos y agrupaciones arbóreas. En esta placita podemos encontrar también varias zonas estanciales principalmente pavimentadas que se sitúan en torno a dos fuentes ornamentales de diferente tamaño e importancia. Dispone de zona de juegos infantiles y de zona canina.,40.385086008433305,-3.7398326701482016
PARQUES_Y_JARDINES,Parque Payaso Fofó,"CALLE PAYASO FOFO 11, MADRID, 28018","Parque estructurado en varias alturas, con taludes y extensas praderas naturales y artificiales. Largas alineaciones arboladas en los paseos. Dotado de maravillosas vistas de Madrid.",40.38901086962944,-3.6599692832803834
PARQUES_Y_JARDINES,Parque Peñuelas,"CALLE GARGANTILLA 2, MADRID, 28005","Uno de los parques urbanos más utilizado dentro del distrito de Arganzuela con varias zonas infantiles, cuenta además con dos grandes zonas caninas, ubicado sobre un parking, muestra de la integración de las diversas zonas verdes con una ciudad cosmopolita como Madrid.",40.39900396358797,-3.703926416750334
PARQUES_Y_JARDINES,Parque Pinar de la Elipa,"CALLE FELIX RODRIGUEZ DE LA FUENTE 26, MADRID, 28017",Gran superficie arbolada atravesada por carril bici y una red de paseos que la convierten en una zona muy utilizada para el paseo. Dispone de unas excepcionales vistas del nudo de O`Donnell y del emblemático Pirulí.,40.418806485625446,-3.656346959235439
PARQUES_Y_JARDINES,Parque Pinar del Rey,"CARRETERA CANILLAS 1, MADRID, 28043","Parque construido en 3 niveles; en el primero, el más cercano a la glorieta Pilar Miró se sitúa un pequeño bar con terraza rodeado de árboles como el ciruelo japonés variedad pisardii y la magnolia grandiflora; a continuación, se encuentra el auditorio al aire libre del parque; el segundo nivel corresponde a una zona terriza rodeada por una alineación de castaños de indias en la que se sitúan las casetas de feria durante las fiestas de la primavera del distrito de Hortaleza; por último, el tercer nivel corresponde a la zona en la que se ubican 2 áreas infantiles y numerosas mesas debajo de agrupaciones de pino piñonero, asociada a esta zona se encuentra la Zona forestal de Pinar del Rey.",40.463441129364256,-3.6556488853143465
PARQUES_Y_JARDINES,Parque Plaza Chozas de Canales,"CARRETERA VILLAVERDE A VALLECAS 10, MADRID, 28021",Jardín situado en una zona de intenso tránsito peatonal. Se extiende alrededor de una fuente central rodeada de rosales y praderas de césped donde se sitúan diferentes macizos de arbustos creando intensos contrastes. La zona estancial alberga unos juegos infantiles que junto al resto de elementos y ornamentos invitan a realizar un alto en el camino.,40.35277786522202,-3.6905392176697744
PARQUES_Y_JARDINES,Parque Plaza Colonia Oroquieta,"CARRETERA VILLAVERDE A VALLECAS 1, MADRID, 28041","Este parque se caracteriza por una distribución de espacios enfocada claramente al uso del mismo por parte de los usuarios contando con una serie de zonas estanciales, pistas deportivas y zonas infantiles que ocupan la mayor parte de su superficie, perimetrado todo ello por  combinaciones de setos, macizos arbustivos y praderas de césped que generan intensos contrastes en función de la época del año.",40.35239211569256,-3.691771736219469
PARQUES_Y_JARDINES,Parque Plaza de España,"PLAZA ESPAÑA 20, MADRID, 28008","Parque de la zona centro de Madrid con monumento y lámina de agua. Es un lugar muy visitado por turistas y con una localización geográfica muy importante, ya que se encuentra en una de las arterias principales de la ciudad. Alberga muchos meses al año todo tipo de eventos, como mercadillos, etc.   Otras denominaciones Jardines de Plaza España",40.42372251184839,-3.711657734050852
PARQUES_Y_JARDINES,Parque Quinta de los Molinos,"CALLE ALCALA 527, MADRID, 28027","Jardín de uso público cuyo origen es una finca de recreo rústico urbana con zonas de explotación agrícola y un marcado carácter mediterráneo, que dispone de edificios y arquitecturas declaradas de alto interés. Cerrado en la totalidad de su perímetro con cinco puertas de acceso, limita al sur con la C/ Alcalá, al norte con la C/ Juan Ignacio Luca de Tena, al este con la Avda. 25 de Septiembre y al oeste con la C/ Miami.    El parque incluye grandes extensiones de arbolado, en el que podemos encontrar una gran cantidad de especies (olivos, pinos, eucaliptos), aunque la estrella del parque son los almendros, que florecen en febrero y marzo, ofreciendo un fantástico espectáculo.El parque está dividido en dos zonas claramente diferenciadas: la zona norte con estilo romántico paisajista y la zona sur de carácter agrícola.",40.44245748722783,-3.6217095632137375
PARQUES_Y_JARDINES,Parque Ramírez de Prado,"CALLE RAMIREZ DE PRADO 2, MADRID, 28045","Importante parque de Distrito, de más de 2 Hectáreas. Con una importante variedad vegetal donde destacan por su número carpes y catalpas.",40.39932569185547,-3.6894842200951024
PARQUES_Y_JARDINES,Parque Roma,"CALLE JUAN ESPLANDIU 4, MADRID, 28007","Parque de grandes dimensiones situado a la orilla de la Calle 30, idóneo para pasear por sus paseos delimitados por arbolado de grandes dimensiones. Dispone de 4 recintos de juegos infantiles, un circuito para mayores, un lago, instalaciones deportivas y un rocódromo. En él se sitúa un jardín para ciegos y un escudo de Madrid de grandes dimensiones.",40.41641041087398,-3.662606100328213
PARQUES_Y_JARDINES,Parque Salvador de Madariaga,"CALLE SALVADOR DE MADARIAGA 9, MADRID, 28027","Parque situado entre la Mezquita de Madrid y el tanatorio de la Calle 30, posee áreas de césped y arbolado. Como elemento distintivo de otros parques de Madrid, posee una pista de frontenis. Recientemente una pasarela peatonal que salva la Avda. de la Paz une el parque con su vecino parque de Breogán.    Otras denominaciones Parque de la mezquita. Parque del tanatorio",40.439387584092685,-3.65714841286524
PARQUES_Y_JARDINES,Parque San Blas. El Paraíso,"AVENIDA ARCENTALES 4, MADRID, 28037","Se trata del mayor parque del Distrito de San Blas, en cuanto a superficie, arbolado e instalaciones. Se puede recorrer en su totalidad de una forma rápida y sencilla, ya que además de los viales de áridos que lo atraviesan, dispone de un circuito deportivo y de un carril-bici a lo largo de toda su longitud. En su parte central se encuentra un moderno auditorio sobre el que giran las fiestas del distrito. Dispone de amplias praderas y arbolado de gran porte que proporciona grandes sombras. Está dotado con doce áreas infantiles y varios espacios deportivos: dos pistas de petanca, una de patinaje y un circuito biosaludable para personas mayores. El equipamiento del parque se completa con dos fuentes ornamentales. En la zona próxima a la Avenidad de la Institución Libre de Enseñanza hay un reloj de sol y una pérgola con plantas trepadoras.",40.42996840999023,-3.622184001035289
PARQUES_Y_JARDINES,Parque San José de Calasanz,"CALLE JOAQUIN MARIA LOPEZ 39, MADRID, 28015","Parque situado sobre un aparcamiento en la calle Joaquín María López, por lo que tiene una zona pavimentada con grandes masas arbustivas y árboles de sombra. Está dotado de una zona infantil compuesta por el mismo tipo de plantación (diseño de macizos arbustivos y árboles de sombra) que permite aislar del tráfico rodado de las calles adyacentes. Otras denominaciones: Jardines de Joaquín María López",40.43761436823094,-3.714586774303988
PARQUES_Y_JARDINES,Parque San Juan Bautista,"CALLE AGASTIA 87, MADRID, 28043",Zona verde con arbolado consolidado y zonas de césped muy utilizadas por los estudiantes de colegios e institutos cercanos al parque.,40.451304609076615,-3.655896497411837
PARQUES_Y_JARDINES,Parque Sancho Dávila,"PLAZA AMERICA ESPAÑOLA 4, MADRID, 28028","Parque situado junto a Calle 30 y la calle Sancho Dávila. Este parque dispone de amplias praderas y macizos arbustivos diversos, además de bosquetes de chopos, pinos y cedros. Presenta dos extensas zonas infantiles para el disfrute de los más pequeños.",40.42949627920971,-3.6617795915510434
PARQUES_Y_JARDINES,Parque Santa Eugenia,"CALLE Cerro Almodóvar 1, MADRID, 28031","Zona verde donde destaca la gran variedad de elementos dirigidos al disfrute de usuarios de todas las edades. Cuenta con una zona de gran densidad de elementos vegetales tanto arbóreos como arbustivos, en su mayoría ya consolidados.",40.38131130575197,-3.608459149580722
PARQUES_Y_JARDINES,Parque Santa Rita,"CALLE ALBA DE TORMES 2, MADRID, 28025","Este parque se encuentra junto a la Plaza de Carabanchel, sede de la Junta Municipal de Distrito y la Plaza de la Iglesia de Carabanchel, donde se ubica la histórica Iglesia de San Sebastián. La superficie de este parque está formada principalmente por grandes praderas con macizos de rosales y por un campo deportivo. El arbolado de esta zona verde es principalmente joven. El parque está dotado de paseos, zonas estanciales, varias áreas de juegos infantiles y una zona canina.",40.379040097900265,-3.742770522229555
PARQUES_Y_JARDINES,Parque Segura,"CALLE SEGURA 5, MADRID, 28041","Zona verde recientemente remodelada que se encuentra constituida por una serie de paseos terrizos, zonas estanciales franqueadas por parterres ajardinados de praderas y macizos arbustivos. En este parque nos encontramos una serie de áreas destinadas a distintos usuarios como son una zona para mayores, una zona infantil, un circuito biosaludable y una zona canina.",40.36801139459264,-3.715877017285581
PARQUES_Y_JARDINES,Parque Soto de Entrevías,"CARRETERA ACCESO A LA ESTACION DE AUTOBUSES DE LA E.M.T. 9, MADRID, 28053","Zona verde continuación del Parque Entrevías Urbano. Dispone de un recorrido por distintas áreas temáticas pasando por un arboreto con especies singulares y diferentes tipos de vegetación de la sierra madrileña. El parque está estructurado en dos plataformas, la inferior es la compuesta por dos láminas de agua. Todo el parque se riega con agua regenerada.",40.376563359161366,-3.675043967167776
PARQUES_Y_JARDINES,Parque Urpisa,"CAMINO VASARES 2, MADRID, 28031",Zona verde que cuenta con dos pequeñas zonas estanciales bordeadas por parterres con plantaciones diversas.,40.38289158525453,-3.619641837988416
PARQUES_Y_JARDINES,Parque Valdebernardo Este,"CALLE CORDEL DE PAVONES 2, MADRID, 28032",Parque periurbano situado en el extremo oriental del barrio de Valdebernardo que enlaza éste con la Avenida de la Democracia. Cuenta con plantaciones de árboles y arbustos aromáticos dispuestos en parcelas definidas por caminos terrizos y con numerosas instalaciones deportivas y zonas infantiles.,40.4027578376722,-3.617738099849234
PARQUES_Y_JARDINES,Parque Valle de Enmedio,"CALLE MIRADOR DE LA REINA 22, MADRID, 28035",Zona verde con arbolado joven con grandes paseos pavimentados dotados a lo largo de todo el recorrido con numerosos parques infantiles,40.48922371593969,-3.7237594350747134
PARQUES_Y_JARDINES,Parque Vallecas Villa,"CALLE BABILAFUENTE 2, MADRID, 28031",Zona verde recientemente remodelada y de gran entidad. El elemento más destacado dentro del parque es la presencia de una fuente de cuatro alturas que asemeja a una catarata. Se trata de un parque con una elevada densidad arbustiva donde el terreno se encuentra cubierto por corteza de pino.   Otras denominaciones Parque Cataratas,40.37217516332789,-3.62384308326436
PARQUES_Y_JARDINES,Parque Vandel,"CALLE MOLINA DE SEGURA 10, MADRID, 28030","El parque se asienta sobre la explanación del antiguo tren de Arganda. Posee viales terrizos de trazado geométrico, que definen parcelas plantadas de arbustos aromáticos. Amplias zonas terrizas estanciales arboladas.",40.4049148503112,-3.636955454805149
PARQUES_Y_JARDINES,Parque Virgen de la Esperanza,"CALLE ANOETA 45, MADRID, 28041","Parque ubicado entre bloques de viviendas, que se abre hacia el oeste ante la proximidad de una vía férrea adquiriendo una estructura más cercana a los espacios abiertos de los grandes parques. Está constituido principalmente por zonas de césped con macizos arbustivos y zonas terrizas. Cuenta con zonas estanciales e infantiles así como pistas deportivas.",40.35103021559652,-3.7010015933831006
PARQUES_Y_JARDINES,Parque de Alfonso XIII,"AVENIDA ALFONSO XIII 136, MADRID, 28016","Parque limitado por las calles Alfonso XIII, Santa María Magdalena y Federico Salmón con amplias praderas algunas de ellas bordeadas por seto de aligustre, amplios macizos de arbustos y diversas alineaciones arbóreas en terrizos.",40.45990434942118,-3.669142805075655
PARQUES_Y_JARDINES,Parque de Amos Acero,"CALLE SIERRA MOLINA 1, MADRID, 28053","Parque urbano de uso muy intensivo integrado en el barrio de San Diego, en Vallecas. Aunque no es de grandes dimensiones, tiene diversidad de usos tales como pistas de petanca, zona de gradas de obra, zonas infantiles, zona estancial, etc.   Otras denominaciones: Parque de Palomeras",40.38903628994235,-3.6665321826830297
PARQUES_Y_JARDINES,Parque de Ana Tutor,"CALLE VALLE DE PINARES LLANOS 1, MADRID, 28035",El parque hace esquina con dos grandes ejes del distrito y dispone de una zona de patinaje y otra de fútbol sala. Mezcla arbolado nuevo con antiguos de más tamaño y zonas estanciales.,40.48559668319756,-3.7174080145343456
PARQUES_Y_JARDINES,Parque de Arriaga,"AVENIDA DAROCA 95, MADRID, 28017","Parque situado longitudinalmente y al lado de la calle de Arriaga, posee una gran red de paseos y zonas estanciales. Tiene varias pistas deportivas y espacios de juegos infantiles. Existe asimismo un gran estanque circular con fuente en uno de los laterales.",40.425090271008656,-3.642721665241288
PARQUES_Y_JARDINES,Parque de Atenas,"CALLE SEGOVIA 28, MADRID, 28005","Uno de los parques más amplios del distrito Centro, con un papel fundamental dentro de la ciudad debido a la gran diversidad de flora y fauna. Hay que destacar además dentro de su importancia que en él se celebran numerosos actos festivos. Cuenta con zonas recreativas y deportivas.",40.413971277014085,-3.715138075489171
PARQUES_Y_JARDINES,Parque de Berlín,"AVENIDA RAMON Y CAJAL 2, MADRID, 28016","Parque urbano limitado por las calles Ramón y Cajal, Marcenado y San Ernesto. Como significativo del mismo presenta restos procedentes de la caída del muro de Berlín adornado con bonitas fuentes ornamentales y amplios espacios estanciales, zonas infantiles, macizos arbustivos y extensas masas arbóreas.",40.45150372849227,-3.67606453550938
PARQUES_Y_JARDINES,Parque de Breogán,"AVENIDA BRASILIA 2, MADRID, 28028","Parque delimitado por la Avenida de Brasilia y M-30, el cual presenta amplios terrizos con bosquetes de pinos y alineaciones de ciruelos y zonas infantiles de arena para el esparcimiento de los usuarios. También presenta amplias praderas y limitando a la M-30 macizos de adelfas y rosales.",40.43714097124976,-3.660899509341831
PARQUES_Y_JARDINES,Parque de Canillejas,"CALLE CIRCE 57, MADRID, 28022","Situado en el centro del barrio de Canillejas, cuenta con dos áreas infantiles y una gran explanada donde se ubica un auditorio al aire libre. Los paseos perimetrales se encuentran resguardados por unas pérgolas con plantas trepadoras. En el lateral que da a la C/ San Mariano se encuentra un monumento en homenaje al matador de toros José Cubero 'Yiyo', que fue vecino del barrio. La zona infantil de mayor tamaño está rodeada de praderas y en los terrizos cercanos al auditorio se ha instalado un circuito biosaludable para uso vecinal.",40.44191186628217,-3.610832880429799
PARQUES_Y_JARDINES,Parque de Comillas,"CALLE MIGUEL SORIANO 1, MADRID, 28019","Este parque se encuentra en la calle Antonio Leyva, entre la Plaza Elíptica y la Glorieta Marqués de Vadillo. Su jardinería está compuesta de grandes praderas con arbolado y macizos de arbustos. Los paseos son terrizos y pavimentados. Este parque dispone de zonas estanciales terrizas y  de pistas deportivas de fútbol, baloncesto, patinaje y petanca. Está  dotado de áreas infantiles y de mayores. Junto a la calle Baleares se sitúa una zona estancial y una fuente ornamental.",40.39191419121823,-3.7141505979369023
PARQUES_Y_JARDINES,Parque de Darwin,"CALLE MANUEL MARIA ARRILLAGA 29, MADRID, 28030",Zona verde formada por plazas terrizas con plantaciones diversas. En la parte más próxima a la calle Julia García Boutan existe una zona interbloque formada por parterres de césped rodeados por seto de aligustre.,40.40687979108534,-3.660862691056585
PARQUES_Y_JARDINES,Parque de Enrique Herreros,"CALLE BRAVO MURILLO 49, MADRID, 28003","Parque situado en la confluencia de las calles Cea Bermúdez y Bravo Murillo. Gran superficie de pradera, zona infantil y de petanca y fuente ornamental.",40.43934359051524,-3.7043941647283263
PARQUES_Y_JARDINES,Parque de Francos Rodríguez,"AVENIDA DOCTOR FEDERICO RUBIO Y GALI 63, MADRID, 28040",Parque antiguo y muy utilizado por los vecinos. Una ría divide la zona verde de este parque en dos secciones. Está dotado de zonas infantiles en el paseo de las Moreras y de praderas para el uso y disfrute de los vecinos. Asimismo dispone de aparcamientos para bicicletas.,40.45374298443811,-3.714179732136829
PARQUES_Y_JARDINES,Parque de Fuencarral,"CALLE NUESTRA SEÑORA DE VALVERDE 151, MADRID, 28034","Encuadrado dentro del Barrio de Valverde, al norte del casco antiguo del pueblo de Fuencarral. Nació sobre una zona existente de pinar y cuenta con caminos y paseos, zonas arboladas y taludes, plantaciones de pinos, arbustos y especies arbóreas de sombra, con zonas estanciales. Dentro de los límites del parque se encuentran unos depósitos del Canal de Santillana. Son destacables los pinos piñoneros centenarios.",40.50021894773631,-3.686124420025077
PARQUES_Y_JARDINES,Parque de Fuentechica,"CALLE ANASTASIA LOPEZ 21, MADRID, 28034",Zona verde con mucho tránsito situada cerca del metro de Fuencarral. Destaca su arbolado variado y de gran altura que proporciona sombra en sus espacios. Dispone de una zona infantil.,40.49571829898632,-3.6915305267345935
PARQUES_Y_JARDINES,Parque de Fuentelarreina,"CALLE ROSALIA DE CASTRO 80, MADRID, 28035",Parque con pinos y chopos de buen tamaño sobre praderas naturales. Dispone de zona infantil y zona deportiva.,40.48346692636297,-3.733773609896464
PARQUES_Y_JARDINES,Parque de Gabriela Mistral,"CALLE ROSALIA DE CASTRO 69, MADRID, 28035","Zona verde bastante extensa que abarca una zona forestal de 7.5 ha compuesta por unidades de distintas especies entre las que predominan pinos, chopos, árboles del paraíso, cipreses, etc. El parque de Gabriela Mistral está dotado de pistas deportivas y de zonas infantiles. Dispone también de un carril bici que transcurre bajo la sombra de sus árboles.",40.48446752254184,-3.7336783173806616
PARQUES_Y_JARDINES,Parque de Isabel Clara Eugenia,"CALLE MAR CASPIO 4, MADRID, 28033","Parque situado entre las calles Mar de Caspio y Valdetorres de Jarama. Este parque Presenta el diseño propio de un jardín de estilo romántico. Con una superficie de 2,3 hectáreas, más de 580 árboles y 1.300 m2 de zona arbustiva. Destaca el foro que, recuperado en 2007, dispone de un espacio semicircular con graderío similar al de un teatro &amp;ndash;cávea- en cuya pista se pueden realizar diferentes deportes como patinaje, patinaje con monopatín, etc. El parque también está dotado de una zona infantil y un punto de agua para consumo.",40.47361179787156,-3.646133317289789
PARQUES_Y_JARDINES,Parque de Juan XXIII,"PASEO JUAN XXIII 21, MADRID, 28040","Parque de reciente construcción donde destacan sus cambios de pendientes y sus numerosos recovecos, ya que en la zona central existe un bloque de edificios que separan la zona este con la oeste del parque. Está compuesto de numerosos parterres arbustivos y de poco arbolado en su mayoría joven, aunque destaca una higuera de considerable tamaño. Consta de una red de caminos amplia por toda su superficie.",40.45061998428592,-3.7136749543495617
PARQUES_Y_JARDINES,Parque de Las Cruces,"AVENIDA POBLADOS 74, MADRID, 28044","Parque de casi 19 hectáreas de extensión y de estilo paisajista, que está situado entre los distritos de Latina y Carabanchel. Contiene grupos de arbolado de diversas especies como pinos, cedros, cipreses, arces, chopos, almeces, etc., así como arbustos, zonas de rosas y amplias áreas de pradera. En su equipamiento destaca un amplio auditorio al aire libre, con capacidad para unos 3.000 espectadores. Dispone también de quiosco de bebidas, pistas deportivas, campo de fútbol, zonas infantiles y áreas biosaludables. Frente al auditorio se sitúa un amplio estanque al que vierte una estrecha ría que recorre una zona del parque.",40.37746689917427,-3.7547689345277977
PARQUES_Y_JARDINES,Parque de Malmoe,"CALLE MALMOE 2, MADRID, 28032",Zona verde de carácter fundamentalmente forestal con grandes terrizos y árboles; atravesada por un carril bici y una red de paseos.,40.41540866888321,-3.625727333816089
PARQUES_Y_JARDINES,Parque de Manoteras,"CALLE BACARES 22, MADRID, 28033","El parque, situado a la altura del n&amp;ordm; 4 de la C/ Velez Rubio, se ubica en un terreno en forma de cuenca, lo que ha servido para la instalación de unas gradas anexas a una pista polideportiva situada en la parte más baja. Fue inaugurado a primeros de 1979. Junto a éste, en la C/ Purchena n&amp;ordm; 16, se encuentra otro pequeño parque cuyo atractivo principal es la presencia de un rocódromo para la práctica de la escalada. Este parque ha sido recientemente remodelado gracias a las obras del Plan E.",40.47665432002552,-3.662490150184719
PARQUES_Y_JARDINES,Parque de Pan Bendito,"AVENIDA POBLADOS 35, MADRID, 28044","Este parque está formado por extensas masas arbustivas, pinos de gran envergadura y una pequeña zona de pradera. Está dotado de áreas estanciales pavimentadas y terrizas, de una una zona infantil y de otra de juego para mayores. Hay otra zona del parque que presenta una superficie terriza con unidades arbóreas aisladas ydispone de algunas mesas de ajedrez.",40.38951896001857,-3.76740436374511
PARQUES_Y_JARDINES,Parque de Peñagrande,"CALLE LEOPOLDO ALAS CLARIN 53, MADRID, 28035",Zona verde con pinos maduros para disfrutar de su sombra y pradera. Está dotada de una zona infantil.,40.48185149371301,-3.732800354586844
PARQUES_Y_JARDINES,Parque de Pinar de Barajas,"AUTOVIA A-2 700, MADRID, 28027","Zona forestal de casi 21 hectáreas que se extiende en su parte sur a lo largo de la A-2, en el tramo comprendido entre la C/ Peonías y la C/ Ignacio Sánchez Mejías, y en su parte norte a lo largo de la Avenida Carondelet. Es un bosque dentro de la ciudad.",40.44943999585466,-3.631585428108989
PARQUES_Y_JARDINES,Parque de Plata y Castañar,"GLORIETA MIRADOR DEL SUR 1, MADRID, 28021","Parque con dos zonas claramente diferenciadas  que generan espacios diferentes: una primera colindante con el P&amp;ordm; Ferroviarios y que cuenta con praderas de césped y alineaciones vertebradas por paseos que confluyen  cerca del antiguo auditorio y que cuentan con zonas deportivas e infantiles  salpicadas por toda la zona y otro espacio, más agreste, que perimetra el parque y que, siguiendo los caminos nos permite pasear entre bosquetes de chopos, olmedas y pinares  mostrándonos en su recorrido la avifauna que puebla el parque.",40.348762550258805,-3.715284870727623
PARQUES_Y_JARDINES,Parque de Pradolongo,"AVENIDA RAFAELA YBARRA 85, MADRID, 28026","El parque de Pradolongo es el principal pulmón verde del Distrito de Usera y una de las zonas verdes más emblemáticas de Madrid, tanto por su morfología y variedad de usos, como por su extensión, casi 60 ha. El parque está articulado en tres grandes ejes que confluyen en la zona central donde se sitúa un templete y un gran lago de tres hectáreas.  Es un espacio de gran valor ambiental. Un jardín botánico de una hectárea se ubica al norte del lago. Esta superficie está formada por parterres con diseño geométrico. En él están representadas 43 familias botánicas con paneles interpretativos que describen sus principales características. Asimismo, el jardín dispone de mesas y bancos para la realización de actividades de educación medioambiental.   Además del jardín botánico, destaca una senda ecológica de más de tres kilómetros. Está dotada de paneles interpretativos que permiten conocer las especies vegetales además de la fauna y del ecosistema del parque.   El parque de Pradolongo es una zona verde para el encuentro y el ocio. Ofrece múltiples posibilidades a ciudadanos de todas las edades: senderismo; footing; patinaje; ciclismo (en circuito y en carril bici); observación de ave; pirag&amp;uuml;ismo; uso de teledirigidos en el lago; pista de calva para juegos tradicionales. Además, el parque está dotado de otras áreas deportivas, infantiles y de mayores. Uno de los espacios más visitados por los menores es el castillo de juegos.  En esta gran zona verde destacan especies arbóreas como el olmo de Siberia, el arce negundo y alineaciones de tilos, pinos, chopos y olmos de bola. Con respecto a los arbustos, los más frecuentes son los rosales, piracantas, adelfas, cornejos y abelias. El riego de las plantaciones del parque se realiza con agua regenerada.  Diversa fauna habita en este parque. Aves acuáticas como los ánades reales y las gaviotas reidoras frecuentan las láminas de agua. También viven las propias de las zonas verdes urbanas como son los mirlos, carboneros, herrerillos, pinzones, petirrojos, urracas y palomas torcaces entre otras muchas.",40.37557617692429,-3.711963730232908
PARQUES_Y_JARDINES,Parque de Rafael Finat,"CALLE VIDAUBA 4, MADRID, 28044","Pequeño y recoleto parque de barrio bordeado de arbolado que se sitúa en ladera y dotado de zonas infantiles, zona deportiva y fuente ornamental.",40.383406554321375,-3.763965593354009
PARQUES_Y_JARDINES,Parque de Salvador Allende,"CALLE SALVADOR ALLENDE 3, MADRID, 28054","Este parque se encuentra junto a la Avenida de la Peseta, la arteria principal del PAU (Plan de Actuación Urbanística) de Carabanchel y la estación de metro del mismo nombre. La zona verde es de muy reciente construcción. El parque está formado por zonas estanciales terrizas y pavimentadas con abundantes macizos arbustivos. Todas las especies vegetales son muy jóvenes y, por tanto, en fase de crecimiento. Dispone de una pradera longitudinal en uno de sus laterales. Toda esta área verde está dispuesta en dos niveles: en el más bajo, junto a la Avenida de la Peseta y el metro, se localiza un gran auditorio. En el más alto hay una pequeña lámina de agua y un monolito que proviene de la antigua dovela (anillo) de la tuneladora que pasó bajo el parque.",40.36434144869983,-3.757402071835875
PARQUES_Y_JARDINES,Parque de San Isidro,"PASEO ERMITA DEL SANTO 74, MADRID, 28019","Es el segundo parque más importante en superficie después del Parque Emperatriz M&amp;ordf; de Austria y es regado con agua regenerada. Se encuentra cercano a la histórica Ermita de San Isidro y en él se celebran las fiestas del Santo que le da nombre. Se distinguen dos zonas:  El recinto ferial donde se montan parte de las fiestas de San Isidro en el mes de mayo, dedicado a actividades deportivas durante todo año El resto del parque, con el Jardín de Palmeras, de reciente creación, y especies palmáceas y vivaces, una senda botánica y una fuente central. Esta última zona consta de grandes praderas con arbolado, macizos de arbustos y de flor y caminos terrizos por los que se puede pasear, al igual que un carril bici, dos fuentes ornamentales y una lámina de agua que se puede atravesar a través de un puente.",40.39924815906885,-3.72849838691206
PARQUES_Y_JARDINES,Parque de Santa Ana,"CALLE SAN CUGAT DEL VALLES 4, MADRID, 28034","Zona verde con numeroso arbolado joven y caminos adoquinados en toda su superficie. En la calle de acceso al parque se ubica una vez a la semana un mercadillo para los vecinos, por lo que el parque es muy frecuentado. Dispone de un mirador y de una zona infantil. Por uno de los laterales del parque pasa el Camino de Santiago.",40.49738155071247,-3.6936009892949127
PARQUES_Y_JARDINES,Parque de Villa Rosa-Paco Caño,"CALLE ACONCAGUA 2, MADRID, 28043","Es el parque más representativo de Hortaleza inaugurado por Enrique Tierno Galván en julio de 1983. Las asociaciones de vecinos del barrio de Villa Rosa participaron en el diseño de esta zona verde de 5 hectáreas. El parque Villa Rosa-Paco Caño ofrece numerosos atractivos entre los que destaca una ría que recorre longitudinalmente la superficie y que puede cruzarse por cualquiera de los nueve puentes. La ría nace en el reloj de sol horizontal de piedra artificial con gnomon de acero y finaliza en el palomar. A lo largo del parque se pueden observar diversos elementos singulares como la casa derrumbada. Estas ruinas son  una alegoría de un edificio bombardeado y en su interior se alza un monumento con una placa con la efigie de Enrique Tierno Galván. Muy próximo se sitúa el templete como homenaje a la tranquilidad. En 2016 se inauguró el primer circuito inclusivo en la Comunidad de Madrid con recorridos señalizados y adaptados para personas con diversidad funcional. Es el número 31 del mundo y consta de dos recorridos circulares de 4 y 5,37 kilómetros que comienzan en el parque paralelo a la calle Aconcagua, pasan por esta zona verde y continúan junto al  anillo verde ciclista. Los recorridos están señalizados y adaptados para personas en sillas de ruedas, sordas, ciegas o con problemas intelectuales o de movilidad.  Desde octubre de 2016 el parque se llama Villa Rosa-Paco Caño, en homenaje al histórico dirigente vecinal Paco Caño, presidente de la Federación Regional de Asociaciones de Vecinos de Madrid (FRAVM y fundador de la asociación de vecinos Villa Rosa. En su memoria se instaló un monolito bajo el templete con la inscripción 'Hay personas que luchan un día y son buenas; hay otras que luchan un año y son mejores; hay quienes luchan muchos años y son muy buenas. Pero las hay que luchan toda la vida; esas son imprescindibles'.",40.468674190501815,-3.631588640594873
PARQUES_Y_JARDINES,Parque de la Alcazaba,"CALLE RIBADAVIA 45, MADRID, 28029","Parque muy cercano al Parque de la Ventilla. Hasta la calle Ribadavia, el parque baja en talud con césped que se salva mediante una rampa italiana con bordillo. Talud que también se continúa en los desniveles de terreno con la calle Sinesio Delgado. Presenta un gran número de pozos.",40.47266915640937,-3.707125226601671
PARQUES_Y_JARDINES,Parque de la Almudena,"CALLE NICOLAS SALMERON 4, MADRID, 28017","Parque de grandes dimensiones, con amplios paseos rodeados de setos de aligustre y arbolado. Dispone de multitud de zonas de descanso.   Otras denominaciones Parque del crematorio de la Almudena",40.42060649869604,-3.6324237307227616
PARQUES_Y_JARDINES,Parque de la Amistad,"CALLE SANTA PETRONILA 21, MADRID, 28021","Parque que cuenta con un entramado de paseos adoquinados que lo recorren entre praderas de césped y macizos arbustivos, destacando las plantaciones de rosales en forma de estrella de las praderas centrales. Tiene varias pistas deportivas que se sitúan al sur del parque así como zonas infantiles repartidas por su superficie.",40.34832663162016,-3.692165872799477
PARQUES_Y_JARDINES,Parque de la Bombilla,"AVENIDA VALLADOLID 4, MADRID, 28008","Zona verde de gran extensión con un precioso paseo de arbolado maduro, extensas praderas y plantas de todo tipo. Dispone de plazas, zonas infantiles y acceso a una pista municipal de campos de tenis. Son famosas las fiestas de San Antonio que se celebran en junio en dicho parque con actuaciones diversas.",40.42834456035844,-3.728941931668392
PARQUES_Y_JARDINES,Parque de la Casa de Campo,"PASEO PUERTA DEL ANGEL 1, MADRID, 28011","La Casa de Campo de Madrid fue Real Sitio destinado a la caza y el recreo de la Monarquía desde la adquisición de la primitiva finca de la familia Vargas por Felipe II    en 1562 hasta la incautación de los bienes de la Corona por Decreto del Gobierno de la Segunda  República de 20 de abril de 1931. En virtud de dicho Decreto, los terrenos de la Casa de Campo y del Campo del Moro fueron cedidos al Ayuntamiento de Madrid para ser destinados a parques de recreo e instrucción.   En 2010 se declara Bien de Interés Cultural, en la categoría de Sitio Histórico. La Casa de Campo constituye actualmente el principal pulmón de la ciudad y alberga numerosas actividades ligadas a su finalidad como lugar de recreo e instrucción de los ciudadanos.  A su valor ecológico y paisajístico se suma una importante carga histórica, materializada en significativos restos arqueológicos, un conjunto de edificaciones y obra civil de carácter histórico-monumental, testimonio de su etapa como Real Sitio y una amplia representación de arquitecturas contemporáneas de su etapa como parque público.  Parque histórico de carácter principalmente forestal de gran extensión con un relieve ondulado de suaves pendientes en el que sobresalen pequeños cerros, surcado por pequeños valles por donde discurren algunos arroyos permanentes y otros estacionales que confluyen en el río Manzanares. La mayoría tienen su nacimiento dentro del Parque, si bien los dos más importantes, Antequina y Meaques, nacen fuera del mismo. Entre las láminas de agua cabe destacar la del Lago y varias charcas artificiales para hábitat y alimentación de la fauna.  Varios recintos de gestión independiente se encuentran en su interior: entre otros el Parque de Atracciones, Parque Zoológico, Recinto Ferial, Venta del Batán y el Club de Campo.  En su vegetación destacan encinares, vegetación potencial del Parque, retamares, fresnedas, olmedas, bosquetes de ribera y las repoblaciones de pinos y arizónicas. En algunas zonas la encina empieza a emerger iniciando un proceso natural de sustitución del pinar. Este parque se incluye entre las visitas recomendadas a turistas que visitan la ciudad, según la web oficial de turismo de Madrid.",40.41472407139105,-3.7301857404819767
PARQUES_Y_JARDINES,Parque de la Cuña Verde de Latina,"CALLE CONCEJAL FRANCISCO JOSE JIMENEZ MARTIN 11, MADRID, 28047","Zona verde de gran extensión y forma alargada. Está dotada de miradores repartidos por todo el parque que proporcionan vistas a la catedral de la Almudena y al Palacio Real. Dispone de numerosas áreas infantiles, zonas deportivas como un rocódromo y un carril bici. La primera fase se llevó a cabo en el año 1991. En el parque hay tres rosaledas, tres láminas de agua y una pasarela peatonal elevada sobre la calle Caramuel.",40.39998426244181,-3.7486569900905633
PARQUES_Y_JARDINES,Parque de la Cuña Verde de O´Donnell,"CALLE FUENTE CARRANTONA 61, MADRID, 28030","El Parque se localiza en los terrenos ubicados al sur y al este del Cementerio de la Almudena, en los Distritos de Moratalaz y Ciudad Lineal.En el Distrito de Moratalaz, el Parque está delimitado por la prolongación de la calle O&amp;acute;Donnell al norte, por la calle Doctor García Tapia al sur, al este por la calle Fuente Carrantona y al oeste por la calle Arroyo de la Media Legua y en el Distrito de Ciudad Lineal, se encuentra ubicado al sur y al este del Cementerio de la Almudena, delimitado por la prolongación de la calle O&amp;acute;Donnell, por la Avenida Daroca y por la calle Fuente Carrantona.Es una de las grandes zonas que han de componer el sistema de espacios libres que integra el modelo urbanístico del Plan General con un sistema de zonas verdes basado en áreas forestales de remate y cuñas de penetración y conexión entre el espacio libre exterior y los parques urbanos. Es un espacio de borde, parcialmente estructurado, en el que conviven dotaciones deportivas, estanciales e  infantiles. Con las sucesivas fases de consolidación se pretende convertir este espacio en una zona de actividad continua.Las fases ejecutadas del Parque Cuña Verde de O&amp;acute;Donnell ofrecen soporte a las actividades relacionadas con los diversos usos y también favorecen las actividades ligadas al deporte y convivencia como lugar de encuentro.",40.41220177650095,-3.628985975935673
PARQUES_Y_JARDINES,Parque de la Dehesa Boyal,"CALLE BURJASOT 1, MADRID, 28021",Parque que consta de dos zonas claramente diferenciadas: una constituida por praderas de césped y macizos arbustivos que atravesada por un entramado de paseos y caminos se sitúa alrededor de una fuente de grandes dimensiones. La otra zona la forma una masa de pinos carrascos y piñoneros y donde es fácil observar la población de ardillas que allí habita.,40.34452019989438,-3.686887364713823
PARQUES_Y_JARDINES,Parque de la Gavia,"AVENIDA MAYORAZGO 26, MADRID, 28051","El parque de la Gavia constituye una de las zonas verdes más singulares del Ensanche de Vallecas, con una superficie cercana a las 36 hectáreas. Su diseño inicial es obra del reconocido arquitecto japonés, premio Priztker 2013, Toyo Ito, el cual fue completado y modificado por otro procedente de un proceso participativo de la ciudadanía. De marcado carácter oriental, su paisaje está formado por suaves colinas donde destacan bosquetes de árboles de varias especies, entre los que predominan álamos blancos, membrilleros, encinas o chopos negros, y una ría central jalonada por macizos de arbustos como rosales silvestres, mimbreras y otras especies de ribera. El Ayuntamiento ha llevado a cabo la rehabilitación de esta zona verde en dos fases. La primera, que finalizó en enero de 2018, incluyó el cerramiento de todo el parque para proteger su singularidad, la reposición de plantaciones y elementos deteriorados por el vandalismo, la instalación de red de riego telegestionada, la acometida de agua regenerada y mejoras en pavimentación y drenaje. La segunda fase, finalizada en 2021, comprende la totalidad del parque. El proyecto ha tenido en cuenta las propuestas vecinales recogidas en el proceso participativo llevado a cabo por las asociaciones vecinales. El parque consta, entre otros elementos, de 3.322 árboles, 170.742 unidades arbustivas, 7.460 m2 de césped y 36.000 m2 de pradera natural. Además se ha construido 1 área canina, 4 áreas infantiles y 9 zonas deportivas, dotadas todas ellas de nuevos elementos de juego. Se ha instalado igualmente el mobiliario urbano necesario para el disfrute de los usuarios, formado por papeleras, bancos, fuentes de beber, red de alumbrado público, etc. Las diferentes colinas permiten la visión del paisaje desde diferentes angulaciones y alturas. Los distintos usos asignados a cada colina son:   Plaza del agua: En esta colina el agua es el punto de atención. Desde aquí puedes hacerte una visión global del parque, además es un magnífico punto de reunión para diversas actividades. Es la única zona con pavimento duro del parque (pero con criterios de drenaje urbano sostenible).  Bosque de los sentidos: Sus caminos están enmarcados por amebas ajardinadas que llevan a distintas áreas de juego:  Área de integración: Pensada para estimular los sentidos, fomentar el ejercicio físico, la creatividad y la fantasía, además de facilitar el desarrollo del equilibrio, la motricidad y la coordinación, favoreciendo la inclusividad plena de todos los niños sin importar sus capacidades físicas o intelectuales, para que todos jueguen y se relacionen en un mismo entorno.  Zona de aventura: Aprovechando la zona de más desnivel del árbol se diseñan zonas de toboganes, tirolinas y juego multiaventura con forma de bambú gigante.  Zona de los sentidos: Espacio dedicado a juegos infantiles para agudizar los sentidos: instrumentos musicales, juegos de tacto, sensoriales, de tacto, etc.  Árbol del agua: La forma del árbol de agua permanece en su zona acuática con aspecto de lago con unas formas muy geométricas, que evidencian por su diseño 6 plazas principales bordeando todo el árbol: 3 de ellas son eminentemente paisajísticas, recreando en cada plaza un aspecto similar al de jardín japonés, sobrio y elegante y las otras tres plazas tienen varios espacios para distintos usos: mesas de picnic, zonas de ejercicios para personas mayores, etc.  Ría central: Inicia su recorrido en una pequeña cascada próxima a la avenida Mayorazgo, con discurrir este &amp;ndash; oeste y termina en un lago. Divide el espacio en dos zonas unidas por dos puentes peatonales y alrededor lleva un paseo con plantaciones de ribera de arbolado y arbustivas.  Colina sobre ruedas: Espacio destinado a distintas prácticas deportivas asociadas a ruedas: bicicletas, skate, etc.  Colina del reciclaje: Los neumáticos que rodeaban el entorno han tomado forma de mobiliario en la búsqueda de aprender a valorar y cuidar lo que nos rodea y pertenece a todos; limpiar el paisaje; promover un modelo de gestión honesta y transparente de residuos y profundizar en el concepto de reutilización como forma creativa de relacionarnos con nuestros desechos. Esta colina pretende dar un valor único por las connotaciones educativas y los valores ambientales asociados a él, que son inexistentes en otros espacios lúdicos de la ciudad.  Zona de escalada: Adosada a la colina del reciclaje se ha proyectado un rocódromo con pared vertical con distintas alturas para la práctica de la escalada para distintas edades.  Zona de parkour: Situada junto a la zona de escalada.  Colina del viento: Espacio libre dedicado a los amantes del vuelo con cometas.  Mirador estelar: Su función es múltiple, pretende ser un punto de encuentro y por otro en el extremo más al sur, pueda observarse el cielo vallecano.  Área deportiva: En una zona verde el espacio donde disfrutar del deporte no debe faltar. Se ha orientado a varias prácticas y varias edades aprovechando el espacio sobre la cubierta del estanque de tormentas: zona de entrenamiento y pistas multideportes.  Zona canina: Situada sobre el estanque de tormentas, alberga una zona amplia para entrenamiento canino.  El parque quedará unido en el futuro a la zona verde de La Atalayuela, mediante el cerramiento de éste que se ha ejecutado en esta actuación, habiendo sido declarados los dos espacios singulares. Sumando una superficie total aproximada de 48,6 hectáreas.",40.36791659504536,-3.628326750178021
PARQUES_Y_JARDINES,Parque de la Maceta,"AVENIDA DAROCA 301, MADRID, 28032",Parque urbano que conecta la parte edificada de Casalarreina con la cuña verde. Se articula sobre paseos que definen praderas arboladas. El porte de los chopos y plátanos dan al parque una gran sensación de volumen.  Otras denominaciones: Parque Casalarreina,40.40838172678723,-3.6156327652234856
PARQUES_Y_JARDINES,Parque de la Montaña Templo de Debod,"CALLE PROFESOR MARTIN ALMAGRO BASCH <NA>, MADRID, 28008",,40.42306560723444,-3.7168927333258734
PARQUES_Y_JARDINES,Parque de la Supermanzana,"CALLE SANGENJO 27, MADRID, 28034","Parque de entrebloques y en varias alturas con zonas de pinar, paseos, zonas infantiles y campo de fútbol. Tiene alguna pradera y preciosos sauces llorones.",40.48531189120052,-3.7006858825216624
PARQUES_Y_JARDINES,Parque de la Ventilla,"CALLE VIA LIMITE 51, MADRID, 28029","Zona de pinar delimitado por las calles Sinesio Delgado, Avenida de Asturias, Vía Límite y calle Magnolias. Podemos encontrar aparatos de entrenamiento deportivo, zonas infantiles, área canina así como zonas para hacer picnic, etc. Parque forestal, que ha sido recientemente objeto de obras de mejora.",40.47342193811745,-3.6929061067371793
PARQUES_Y_JARDINES,Parque de la Vicalvarada,"CALLE VILLABLANCA 1, MADRID, 28032",El parque gira sobre tres plazas circulares unidas por paseos arbolados formando un gran triángulo. Se definen grandes zonas estanciales y praderas arboladas.,40.40930182229157,-3.608605091516184
PARQUES_Y_JARDINES,Parque de la Volatería,"AVENIDA POBLADOS 110, MADRID, 28054","Parque cercano al cementerio de Carabanchel (sur). Cuenta con una cascada artificial y un pequeño lago y lo rodea el anillo verde ciclista. Poblado de abundantes ejemplares de castaños de Indias, praderas de césped y agradables zonas de sombra.",40.37342722778796,-3.732581210214349
PARQUES_Y_JARDINES,Parque de las Avenidas,"AVENIDA BRASILIA 6, MADRID, 28028","Parque limitado por la Avenida de Brasilia y M-30, presentando extensas praderas, amplios terrizos con bosquetes de pinos mayoritariamente y varias zonas infantiles.",40.44185168357492,-3.6610753472863737
PARQUES_Y_JARDINES,Parque de las Delicias,"CALLE PARROCO EUSEBIO CUENCA 13, MADRID, 28045","Aprovechando la superficie de una antigua estación de ferrocarril, se ha creado un jardín con una distribución alargada, donde predominan unos inmensos cipreses, entre otras especies, que acompañan al visitante en el paseo por el parque. De la estación aun se conservan en el parque las antiguas vías de los trenes, ya que limítrofe con este se sitúa el Museo del Ferrocarril.",40.39628076855188,-3.6893809207693966
PARQUES_Y_JARDINES,Parque de los Llanos,"CALLE DIONISIO INCA YUPANQUI 8, MADRID, 28043","El parque de Los Llanos es el más grande del distrito de Hortaleza, con casi 10 hectáreas de superficie ajardinada. Está ubicado entre la avenida Machupichu y la M-40. Consta de anchas avenidas, enmarcadas por alineaciones de pino piñonero y arces, que con el resto de arbolado suman más de 1.300 unidades. También cuenta con zonas arbustivas y de césped con una superficie de 4.000 m2. Además, está dotado de tres pistas polideportivas, distribuidas en diferentes ubicaciones, y de tres zonas infantiles. Asimismo, dispone de un área de descanso a la altura de la calle Francisco Morejón.",40.46162113234909,-3.6281020785174873
PARQUES_Y_JARDINES,Parque de los Tilos,"CALLE NICOLAS SALMERON 1, MADRID, 28017",Zona verde que recibe su nombre por la gran cantidad de árboles de la especie Tilia platyphyllos que podemos encontrar. Tiene un diseño abierto en el que destacan las pérgolas de madera y los muretes de ladrillo para salvar los pequeños desniveles.,40.422169759145554,-3.634854896175826
PARQUES_Y_JARDINES,Parque del Bronce,"CALLE BRONCE 5, MADRID, 28045","Colindante con el Parque Enrique Tierno Galván, de estructura alargada, abarca una superficie importante dentro del barrio de los Metales.",40.3904716361612,-3.6875778883164583
PARQUES_Y_JARDINES,Parque del Espinillo,"CALLE UNANIMIDAD 23, MADRID, 28041","Este parque es una de las zonas verdes más importantes del Distrito de Villaverde. Con una superficie aproximada de 7 ha y un diseño alargado que discurre entre la C/ Unanimidad y la M- 40. Dispone de extensos caminos de adoquín alineados por castaños de indias y arces. A ambos lados de los paseos hay amplias praderas de césped con diferentes formaciones arbustivas. El parque dispone de zonas estanciales, juegos infantiles y pistas deportivas.",40.36119652692384,-3.6853017812008
PARQUES_Y_JARDINES,Parque del Museo del Prado,"PASEO PRADO 11, MADRID, 28014","Parque emblemático que rodea el Museo del Prado, dispone de pequeñas praderas y varios ejemplares de arbolado catalogado o de gran porte.",40.41374876020892,-3.692493983073695
PARQUES_Y_JARDINES,Parque del Oeste,"PASEO CAMOENS Y VALERO 4, MADRID, 28008","El Parque del Oeste se encuentra ubicado en el distrito de Moncloa, entre la Avda. del Arco de la Victoria y el Paseo de Pintor Rosales, al este; la línea del Ferrocarril, al oeste y la Avda. de Séneca, al norte. Lo cruzan en su interior, el Paseo de Ruperto Chapí, el Paseo de Camoens y C/ Francisco y Jacinto Alcántara. Especial relevancia muestra la zona norte y más antigua del parque, donde se acentúa su carácter paisajista, discurriendo en su interior una ría artificial de unos 600 m de longitud. Existe una gran variedad de especies vegetales, destacando la singular población de coníferas, en contraste con el desarrollo estacional de las frondosas.    De especial mención es la presencia en esta zona de un cedro, 'el Abuelo' (Cedrus atlántica), catalogado como árbol singular, dos ejemplares de Sophora 'péndula', un majestuoso Ginko, las choperas de Populus nigra y las plantaciones en el borde la ría de Corylus, Cornus, etc.. Al final del paseo de Plátanos, que discurre a lo largo de esta zona, se pueden contemplar diversas especies de aves en el Centro de Avifauna, tales como Tarro canelo, Herrerillo común, Carbonero común, Gorrión molinero, Mirlo común, etc., disponiendo así mismo de paneles informativos.  Las ampliaciones del Parque de Príncipe Pío y de Ferraz, difieren de la tipología paisajista del diseño original del parque, desarrollando trazados más actuales.",40.43179642724134,-3.728163489657703
PARQUES_Y_JARDINES,Parque del Pueblo del Pardo,"AVENIDA GUARDIA 4, MADRID, 28048",Constituye una zona estancial convenientemente ajardinada y ordenada que deja la primera línea del trazado junto a la vía de circulación para las terrazas de los restaurantes allí situados.   Otras denominaciones: Parque de la Mar Océana,40.5186002228516,-3.775378753356757
PARQUES_Y_JARDINES,Pinar Santa Eugenia,"CALLE CERRO DE ALMODOVAR 1, MADRID, 28031",Parque forestal situado en el extremo sur de Vicálvaro que limita con la Avenida del Mediterráneo. Varios caminos terrizos atraviesan el pinar y lo conectan con una pequeña zona estancial.,40.38619069883104,-3.605345456872275
PARQUES_Y_JARDINES,Plaza Mayor de Barajas,"PLAZA MAYOR DE BARAJAS 1, MADRID, 28042","Llamada por los vecinos Plaza Mayor de Barajas, encarna el canon de las plazas públicas renacentistas españolas mandadas construir bajo el reinado de Felipe II. Está constituida por un espacio cuadrangular limitado por cuatro galerías realizadas a base de columnas dóricas de granito que soportan las típicas zapatas de madera de nuestra arquitectura popular. Sobre ellas se encuentran antiguas casas de una altura, que logran una uniformidad poco habitual. En su centro se dispuso un jardín regular en forma radial compuesto por setos de aligustre, acacias y algunos cedros que rodean una fuente con una escultura de bronce. Completa este ajardinamiento una hilera de acacias alrededor, en las aceras, así como zonas de césped con prunos y flores.  (Extracto del libro Jardines de Madrid de Carmen Ariza)      Denominación anterior Plaza de los Hermanos Falcó y Álvarez de Toledo",40.4735113714068,-3.57805132010274
PARQUES_Y_JARDINES,Plaza de Murillo,"PLAZA MURILLO 1, MADRID, 28014","Plaza ubicada entre la fachada sur del Museo del Prado y el Real Jardín Botánico. Cuenta con un jardín central dividido por setos en cuatro zonas, una arboleda y una estatua en el centro, homenaje al pintor sevillano Bartolomé Esteban Murillo. La estatua de bronce fue realizada en el año 1859 por el escultor Sabino Medina y Peñas y el pedestal de piedra es del arquitecto González Pescador.",40.41290521872114,-3.692004931820884
PARQUES_Y_JARDINES,Plaza de la Lealtad,"JARDINES PLAZA DE LA LEALTAD <NA>, MADRID, 28014","Pequeño jardín muy cercano al Paseo del Prado y rodeado de edificios tan emblemáticos como la Bolsa de Madrid y el Hotel Ritz. A pesar de su tamaño, esta plaza alberga gran cantidad de especies vegetales entre las que destacan un gran arce sacarino, un madroño centenario y un cornejo de nueve metros de altura. En el centro está el monumento a los Caídos o Héroes del 2 de mayo de 1808, con su llama votiva siempre encendida. También conocido por la mayoría de los madrileños como el monumento al soldado desconocido.",40.41687551533723,-3.6934169057776662
PARQUES_Y_JARDINES,Quinta de Torre Arias,"CALLE ALCALA 551, MADRID, 28027","La finca de Torre Arias tiene 18,44 hectáreas de superficie y se encuentra en el barrio de Salvador en el distrito de San Blas-Canillejas En este parque se puede observar la evolución de las Quintas madrileñas durante más de cuatro siglos donde convivian el uso lúdico, por parte de la aristocracia, y la explotación agropecuaria, que servía se soporte económico a la Quinta. Todo ello presidido por un imponente palacio con sus caballerizas. En la Quinta se pueden encontrar hasta 58 especies diferentes de árboles y arbustos, algunos tan singulares como una encina de más de 300 años y ejemplares de almendros, pinos y cedros de importantes dimensiones. Su última propietaria, Tatiana Pérez de Guzmán el Bueno, firmó junto a su marido el 15 julio de 1986, un convenio de permuta por el cual la finca pasaba a ser propiedad del Ayuntamiento de Madrid, pero manteniéndose en usufructo hasta el fallecimiento de la condesa, ocurrido el primero de octubre de 2012. A su fallecimiento, la totalidad del ámbito pasó a ser, por tanto, de propiedad municipal y a finales de noviembre de 2016 abrió sus puertas a todo el pueblo de Madrid y visitantes. La Quinta de Torre Arias ha sido declarada Bien de Interés Cultural de la Comunidad de Madrid, en la categoría de conjunto histórico, la Quinta y palacio de Torre Arias en Madrid por Decreto 59/2022, de 13 de julio de la Consejería de Cultura, Turismo y Deporte La Quinta de Torre Arias se encuentra en proceso de restauración por lo que mejorarán sus condiciones y elementos con la introducción de nuevas instalaciones, mejora del viario, adecuación de las zonas ajardinadas existentes e incluyendo nuevas plantaciones, así como restauración de los elementos del jardín. Hasta que dicha restauración no esté finalizada existen diferentes zonas de la Quinta que permanecen cerradas al público, al igual que el palacio, que no es visitable. El personal municipal responsable de la conservación de la Quinta, ofrece otras actividades educativo-ambientales para grupos escolares, así como para grupos organizados de adultos. Estas actividades se reservarán directamente en la dirección del parque a través del correo electrónico parqueshistoricos@madrid.es. Se puede consultar el programa de estas actividades en este enlace. Por otro lado, el Ayuntamiento de Madrid, desde el Departamento de Educación Ambiental, organiza visitas guiadas periódicas, dentro del programa Hábitat Madrid. Se pueden consultar horarios y forma de apuntarse en este enlace. Todas las visitas y actividades son gratuitas.",40.44338594570844,-3.618251375165413
PARQUES_Y_JARDINES,Quinta de la Fuente del Berro,"CALLE ENRIQUE D'ALMONTE 1, MADRID, 28028","Jardín histórico del siglo XVII que pasa a ser propiedad municipal en 1954. El jardín de la Quinta de la Fuente del Berro dispone de espléndidos ejemplares arbóreos y arbustivos, así como de elementos singulares de gran valor, como es el monumento de la Fuente del Berro cuyas aguas en sus orígenes proveyeron a la casa real.    Se inscribe dentro de las villas suburbanas de huerta jardín del XVIII y el XIX y su estilo es básicamente paisajista. Tiene en la actualidad 6 puertas: 2 al oeste que conectan el jardín con la colonia de la Fuente del Berro, 3 al norte que lo comunican con el parque de Sancho Dávila y 1 al sur en la C/ O&amp;acute;Donnell.",40.42299730556785,-3.662521363003179
PARQUES_Y_JARDINES,Rosaleda de Madrid. Parque del Oeste,"CALLE ROSALEDA 1, MADRID, 28008","sta Rosaleda fue creada en el año 1955. Su inspirador fue el Director de Parques y Jardines de Madrid en aquella época, Don Ramón Ortiz Ferré, de quien lleva el nombre. En 2006 la Rosaleda fue galardonada por la Word Federation of Rose Societies con el &amp;ldquo;Award of Garden Excellence&amp;rdquo;, reconociéndola como una de las Rosaledas excepcionales entre las de todo el mundo. Está situada en un espacio de unos 32.000 m2  dentro del Parque del Oeste de Madrid. Esta zona plana, a modo de una terraza, fue acondicionada con los medios de la época (es decir, sin la asistencia de ningún tipo de maquinaria de movimiento de tierras) en una ladera con fuerte pendiente de dicho parque, orientada al SO. En total en esta Rosaleda se encuentran plantados unos 20.000 rosales, que corresponden a más de 650 variedades diferentes de rosales modernos (400 de porte bajo y el resto de trepadores, llorones, pie alto, etc...). La disposición del jardín de rosas es totalmente regular y simétrica. Todos los años se celebra en esta Rosaleda el Concurso Popular Rosa de Madrid y el Concurso Internacional de Rosas Nuevas Villa de Madrid con la participación de rosales de todo el mundo. A ambos lados de su entrada principal se disponen las platabandas de las variedades premiadas en anteriores ediciones del Concurso Internacional de Rosas Nuevas de la Villa de Madrid.. Las platabandas en aspa albergan los rosales de concurso de la edición del año en curso. El resto de la superficie se encuentra dividida en parcelas que sirven de asiento a las variedades que constituyen el fondo de exposición de la Rosaleda. En la Rosaleda de Madrid existen representaciones de las más importantes variedades de obtentores de todo el mundo. Asimismo tiene una importante representación de variedades de rosales españoles y además de servir de soporte a tan relevante colección, sirve como parcela de ensayo para ver el comportamiento de dichos rosales en nuestras latitudes.       Otras denominaciones  Rosaleda &amp;ldquo;Ramón Ortiz&amp;rdquo;. Parque del Oeste Rosaleda del Parque del Oeste",40.42633204176242,-3.722298777408928
PARQUES_Y_JARDINES,Vivero Estufas de El Retiro,"GLORIETA ANGEL CAIDO 4, MADRID, 28009","Recinto construido en 1889 para albergar diversas estufas (invernaderos) dispersos por el parque, además de otras instalaciones de cultivo, tales como cajoneras, umbráculos y platabandas. El recinto albergaba también los talleres municipales, responsables de los trabajos de albañilería, carpintería, cerrajería y fontanería necesarios para los Parques y Jardines de Madrid.  El vivero posee una colección de 19 invernaderos antiguos únicos en la España, además de 4 invernaderos de diseño moderno. Se conservan en el recinto otras instalaciones como cajoneras y calderas antiguas, además de una colección de aperos e instrumentos de cultivo que está expuesta en uno de los invernaderos antiguos.  Con una superficie de 3,97 Ha cuenta entre sus instalaciones: invernaderos, umbráculos y zonas de cultivo exteriores. Con una producción anual de 800.000 plantas de temporada con destino a las distintas zonas verdes municipales, se realizan al año, 700 servicios de adornos municipales y ensayos de evaluación de novedades de plantas de temporada y vivaces. Otras denominaciones: Viveros Municipales",40.409899256936335,-3.682330548795712
PARQUES_Y_JARDINES,Vivero de la Casa de Campo,"PASEO AZUL 2, MADRID, 28011","La primera noticia documental la tenemos en 1805 durante el reinado de Carlos IV, como propiedad regia para dar respuesta a todas la solicitudes de planta procedentes de las Reales propiedades. Con posterioridad se atenderá también a la Villa de Madrid. La propiedad del vivero pasa a los madrileños en 1931.  En la actualidad dedica su producción a la creciente necesidad de arbolado y arbustos del municipio, cuya superficie ajardinada en conservación se incrementa cada año. Situado en zona de ribera, el Vivero de la Casa de Campo tiene una superficie de 18,39 Ha en la que se cultivan fundamentalmente árboles y arbustos leñosos destinados a las zonas verdes del municipio de Madrid. En los Viveros de la Casa de Campo se realizan visitas guiadas para el público en general, grupos formativos y asociaciones.",40.41984158690351,-3.7286969080235455
PARQUES_Y_JARDINES,Vivero municipal de Migas Calientes,"AUTOVIA M-30 2200, MADRID, 28040",Centro de producción donde se realiza el cultivo de árboles en tierra.  Historia del vivero Migas Calientes  Se trata de una finca siempre vinculada a la corona y a la nobleza madrileña. Hasta 1774 se localizó en esta finca el Real Jardín Botánico.  Otras denominaciones:    Viveros de la Villa. Vivero de Puerta de Hierro.,40.445355536117184,-3.7399742609916697
PARQUES_Y_JARDINES,Zona verde C/ Fresnedillas,"CALLE FRESNEDILLAS 1, MADRID, 28035","Esta nueva zona verde está situada entre las calles Fresnedillas, Los Gavilanes y Gabriela Mistral en el Distrito Fuencarral-El Pardo. Se ha estructurado mediante caminos terminados en jabre (tipo de tierra), aprovechando las sendas creadas por el uso de los vecinos. Las diferencias de nivel existentes entre la calle Fresnedillas y el fondo de la vaguada y entre ésta y el carril bici se salvan con hileras de gaviones (muros de contención realizados con piedras retenidas con malla de alambre). Estos muros que suavizan las pendientes y evitan las escorrentías crean espacios, casi planos entre ellos, donde se han realizado las plantaciones. En la zona baja de la parcela se localiza un bosquete de fresnos, por donde en su día discurría el arroyo del Fresno. También se han plantado alineaciones arbóreas y arbustivas y parterres con plantas de temporada y aromáticas. El parque tiene instalado riego por goteo y se ha dotado la zona con alumbrado público. Cada área dispone de su mobiliario específico con bancos corridos sobre los gaviones y papeleras. Además se ha construido una red de saneamiento para evacuar las escorrentías que se produzcan al alcantarillado público. La zona al sureste del 'carril bici' está adecuada como zona deportiva, estructurando lo que ya existía: un solar con una superficie bastante regular que se utilizaba para la práctica informal de juegos deportivos. Se ha construido un estacionamiento en superficie por petición vecinal, con 18 plazas, que suple las que utilizaban los vecinos en una zona que ahora está ajardinada.",40.47726387147517,-3.743002516228519
PARQUES_Y_JARDINES,Área Forestal de Tres Cantos,"CARRETERA M-607 2100, MADRID, 28049","El Monte de Tres Cantos se sitúa al este del término municipal de esta localidad y al noroeste de la ciudad de Madrid. Está limitado al este por la carretera M-607, al sur y al suroeste por el Monte de El Pardo y al norte por propiedades privadas colindantes y por el arroyo de Viñuelas.Es propiedad del Ayuntamiento de Madrid desde octubre de 1941 y su acceso se encuentra restringido. Está clasificado como suelo no urbanizable de protección forestal.El monte presenta un relieve bastante accidentado sin cotas de altitud demasiado elevadas (el punto más alto está a 757 metros), aunque existen algunas zonas llanas en el Aula de la Naturaleza y el Palacio Valdés.       Historia del Área Forestal de Tres Cantos  'Finca rústica destinada a caza con pastos, monte bajo y plantío de viñedo, con unas cinco mil cepas...' Así comienza la inscripción de la finca en el Registro de la Propiedad de Colmenar Viejo. Según dicho registro la superficie inicial de la finca era de 277 ha.Esta propiedad fue vendida por don Felipe González Rojas mediante escritura otorgada en Madrid el 31 de octubre de 1917 a don Horacio Echevarrieta y Mauri, un industrial bilbaíno muy influyente. El palacete que está en el interior de la finca llamado 'Palacio Valdés' data de años posteriores.El 31 de octubre de 1941 el Ayuntamiento de Madrid, siendo alcalde don Alberto Alcocer, adquirió la finca por acuerdo municipal.",40.582362517713584,-3.7054314643264954
